{
"type": "FeatureCollection",
"name": "DANAU",
"crs": { "type": "name", "properties": { "name": "urn:ogc:def:crs:OGC:1.3:CRS84" } },
"features": [
{ "type": "Feature", "properties": { "FID": 0, "REMARK": "Danau/Situ" }, "geometry": { "type": "Polygon", "coordinates": [ [ [ 120.081684750283827, -4.227377022797894 ], [ 120.081019996973566, -4.226982839325894 ], [ 120.080876266528108, -4.226705119032084 ], [ 120.081271525253129, -4.226606573097463 ], [ 120.081783564965065, -4.226723036473396 ], [ 120.081837463882124, -4.227135137509291 ], [ 120.081684750283827, -4.227377022797894 ] ] ] } },
{ "type": "Feature", "properties": { "FID": 1, "REMARK": "Danau/Situ" }, "geometry": { "type": "Polygon", "coordinates": [ [ [ 120.001411296494894, -4.224510229339478 ], [ 120.002309611779012, -4.223148498734624 ], [ 120.002040117193786, -4.223972704386254 ], [ 120.001411296494894, -4.224510229339478 ] ] ] } },
{ "type": "Feature", "properties": { "FID": 2, "REMARK": "Danau/Situ" }, "geometry": { "type": "Polygon", "coordinates": [ [ [ 120.081810514423594, -4.221491126024149 ], [ 120.081451188309956, -4.223014117295368 ], [ 120.080346260510481, -4.223166416258099 ], [ 120.080669654012766, -4.222664725444388 ], [ 120.080849317069578, -4.221464249680763 ], [ 120.081118811654832, -4.221491126024149 ], [ 120.081424238851426, -4.221141733487556 ], [ 120.081810514423594, -4.221491126024149 ] ] ] } },
{ "type": "Feature", "properties": { "FID": 3, "REMARK": "Danau/Situ" }, "geometry": { "type": "Polygon", "coordinates": [ [ [ 120.004357770626811, -4.219833749774932 ], [ 120.003917596137612, -4.220281689650632 ], [ 120.003154028146099, -4.220317524829524 ], [ 120.003055213464847, -4.220039802149848 ], [ 120.003109112381892, -4.219851667374922 ], [ 120.004043360277379, -4.219717285364927 ], [ 120.004240989639882, -4.219018498538097 ], [ 120.004492517919431, -4.21893786924839 ], [ 120.004357770626811, -4.219833749774932 ] ] ] } },
{ "type": "Feature", "properties": { "FID": 4, "REMARK": "Danau/Situ" }, "geometry": { "type": "Polygon", "coordinates": [ [ [ 120.109559473550064, -4.217719470074025 ], [ 120.108966585462525, -4.217755305371135 ], [ 120.108876753934112, -4.217540293563686 ], [ 120.109514557785857, -4.216805669439309 ], [ 120.109559473550064, -4.217719470074025 ] ] ] } },
{ "type": "Feature", "properties": { "FID": 5, "REMARK": "Danau/Situ" }, "geometry": { "type": "Polygon", "coordinates": [ [ [ 120.081702716589504, -4.213643194243923 ], [ 120.081711699742343, -4.213795495043913 ], [ 120.082439335122487, -4.214333027040761 ], [ 120.082250688912822, -4.214754093512071 ], [ 120.08048999095594, -4.213822371652582 ], [ 120.079825237645679, -4.213661111986647 ], [ 120.07981625449284, -4.213464016793981 ], [ 120.079906086021282, -4.213257962675516 ], [ 120.080148631147978, -4.213177332788212 ], [ 120.081406272545749, -4.21301607298853 ], [ 120.081666783978136, -4.213293798178301 ], [ 120.081702716589504, -4.213643194243923 ] ] ] } },
{ "type": "Feature", "properties": { "FID": 6, "REMARK": "Danau/Situ" }, "geometry": { "type": "Polygon", "coordinates": [ [ [ 120.084945634765177, -4.212415827884775 ], [ 120.084298847760607, -4.212156020158928 ], [ 120.085017499987899, -4.211734952281057 ], [ 120.084945634765177, -4.212415827884775 ] ] ] } },
{ "type": "Feature", "properties": { "FID": 7, "REMARK": "Danau/Situ" }, "geometry": { "type": "Polygon", "coordinates": [ [ [ 120.131047175146207, -4.190537922135965 ], [ 120.1310920909104, -4.190761900526578 ], [ 120.130669882726849, -4.191433835313471 ], [ 120.13022970823765, -4.191774282051748 ], [ 120.130759714255262, -4.191756363806061 ], [ 120.130993276229148, -4.192025137448239 ], [ 120.130615983809804, -4.192034096568054 ], [ 120.130328522918902, -4.192302870114739 ], [ 120.129663769608641, -4.192482052427854 ], [ 120.12955597177455, -4.192992721794868 ], [ 120.129277494036472, -4.193180863056498 ], [ 120.128630707031903, -4.194139486876656 ], [ 120.128603757573373, -4.194865173285433 ], [ 120.128199515695528, -4.195008518669167 ], [ 120.127804256970521, -4.19494580506702 ], [ 120.127606627608017, -4.195107068605225 ], [ 120.127373065634131, -4.195026436840284 ], [ 120.127229335188673, -4.193127108414939 ], [ 120.127732391747799, -4.192974803577112 ], [ 120.12864867333758, -4.192060973926881 ], [ 120.128972066839879, -4.191935546244448 ], [ 120.128882235311465, -4.191639895199088 ], [ 120.129241561425104, -4.191308407530422 ], [ 120.129394275023401, -4.190636472635739 ], [ 120.129915297888203, -4.190555840409574 ], [ 120.13020275877912, -4.190331861959941 ], [ 120.130346489224578, -4.189830149999982 ], [ 120.130714798491056, -4.189839109144946 ], [ 120.131047175146207, -4.190537922135965 ] ] ] } },
{ "type": "Feature", "properties": { "FID": 8, "REMARK": "Danau/Situ" }, "geometry": { "type": "Polygon", "coordinates": [ [ [ 120.040667674410926, -4.168462297748756 ], [ 120.04100005106605, -4.168175597243352 ], [ 120.041251579345584, -4.168327906899866 ], [ 120.040757505939339, -4.169098414121758 ], [ 120.041206663581391, -4.169403033047673 ], [ 120.041655821223458, -4.170092904884604 ], [ 120.0422127766996, -4.170119782995863 ], [ 120.042572102813267, -4.169913717452711 ], [ 120.042805664787139, -4.170505035822894 ], [ 120.043317704499074, -4.170370645323289 ], [ 120.043712963224095, -4.170433360892631 ], [ 120.043730929529787, -4.170639426299515 ], [ 120.043227872970661, -4.171176987976129 ], [ 120.043281771887706, -4.171490565450961 ], [ 120.043784828446832, -4.17158015899221 ], [ 120.044341783922974, -4.171266581553139 ], [ 120.044674160578083, -4.171409931255103 ], [ 120.044781958412202, -4.171866858255535 ], [ 120.044683143730921, -4.172655280690094 ], [ 120.044997554080382, -4.172950938899003 ], [ 120.045293998124137, -4.173587051637748 ], [ 120.045213149748577, -4.173721441587038 ], [ 120.044997554080382, -4.173685604269476 ], [ 120.044826874176408, -4.173936465458057 ], [ 120.044440598604226, -4.173945424784739 ], [ 120.044054323032057, -4.174689048542846 ], [ 120.043245839276338, -4.175298281940163 ], [ 120.041035983677403, -4.174635292632146 ], [ 120.041341410874026, -4.173130125638107 ], [ 120.040092752629079, -4.172431297124396 ], [ 120.039886140113737, -4.171535362222864 ], [ 120.039562746611452, -4.171248662838554 ], [ 120.039850207502369, -4.170263132907056 ], [ 120.040029870559195, -4.170074986143253 ], [ 120.039760375973955, -4.169851001841896 ], [ 120.03962562868135, -4.169170089173771 ], [ 120.038996807982457, -4.167745546289216 ], [ 120.03970647705691, -4.166876484268148 ], [ 120.039472915083053, -4.166159731363173 ], [ 120.039697493904072, -4.165631125677287 ], [ 120.039958005336459, -4.16599846186954 ], [ 120.039877156960898, -4.166338919650652 ], [ 120.040137668393285, -4.166571864363344 ], [ 120.040029870559195, -4.167019834770758 ], [ 120.040452078742746, -4.167664911709129 ], [ 120.040847337467753, -4.167835140257393 ], [ 120.040541910271159, -4.168327906899866 ], [ 120.040667674410926, -4.168462297748756 ] ] ] } },
{ "type": "Feature", "properties": { "FID": 9, "REMARK": "Danau/Situ" }, "geometry": { "type": "Polygon", "coordinates": [ [ [ 120.026402427699097, -4.161653132514497 ], [ 120.02646530976898, -4.161903997542091 ], [ 120.026168865725225, -4.162441565189218 ], [ 120.026070051043988, -4.162970173017628 ], [ 120.026474292921819, -4.163686928828154 ], [ 120.025944286904206, -4.163928833766888 ], [ 120.025656826013289, -4.164806858475304 ], [ 120.024794443340539, -4.165416099533939 ], [ 120.024372235157003, -4.165559450302702 ], [ 120.023824262833685, -4.165317545865263 ], [ 120.022872048632507, -4.164224495257694 ], [ 120.023033745383643, -4.16291641630553 ], [ 120.0235008693314, -4.162441565189218 ], [ 120.023797313375155, -4.162343011148057 ], [ 120.024938173785984, -4.162468443561941 ], [ 120.025243600982577, -4.161590416245111 ], [ 120.026402427699097, -4.161653132514497 ] ] ] } },
{ "type": "Feature", "properties": { "FID": 10, "REMARK": "Danau/Situ" }, "geometry": { "type": "Polygon", "coordinates": [ [ [ 120.095743384480286, -4.154664717496448 ], [ 120.095626603493344, -4.154763272497899 ], [ 120.096102710593939, -4.155067896969983 ], [ 120.096102710593939, -4.155300845016305 ], [ 120.09559067088199, -4.156635815185375 ], [ 120.095240327921189, -4.15661789613767 ], [ 120.095096597475731, -4.157531767051377 ], [ 120.094674389292209, -4.15797078309396 ], [ 120.09497083333595, -4.158338122860042 ], [ 120.094584557763767, -4.158642745950825 ], [ 120.094306080025703, -4.158651705451713 ], [ 120.093928787606373, -4.157881188003088 ], [ 120.093425731047247, -4.157397374336394 ], [ 120.093704208785354, -4.156241596041759 ], [ 120.094117433816038, -4.155954891086236 ], [ 120.093991669676257, -4.155211249622016 ], [ 120.093416747894409, -4.154817029766228 ], [ 120.094279130567173, -4.155067896969983 ], [ 120.094656422986517, -4.154494486101299 ], [ 120.095258294226866, -4.154664717496448 ], [ 120.095572704576298, -4.154467607456602 ], [ 120.095743384480286, -4.154664717496448 ] ] ] } },
{ "type": "Feature", "properties": { "FID": 11, "REMARK": "Danau/Situ" }, "geometry": { "type": "Polygon", "coordinates": [ [ [ 120.179538234182957, -4.156662693756171 ], [ 120.179870610838094, -4.156591017565345 ], [ 120.180211970646056, -4.155686105095759 ], [ 120.18075994296936, -4.1548887061183 ], [ 120.181550460419388, -4.154333214219376 ], [ 120.182008601214278, -4.154422809713404 ], [ 120.18242182624499, -4.154817029766228 ], [ 120.183275225764916, -4.155282925938262 ], [ 120.184227439966051, -4.155112694676541 ], [ 120.184595749232557, -4.155193330541937 ], [ 120.184434052481421, -4.155838417168278 ], [ 120.183212343695018, -4.156779167552362 ], [ 120.182799118664306, -4.1577736738806 ], [ 120.182592506148964, -4.158884652439029 ], [ 120.18197266860291, -4.159269910766922 ], [ 120.181667241406316, -4.159888115597065 ], [ 120.181801988698936, -4.160461522542072 ], [ 120.182826068122836, -4.160864699050343 ], [ 120.183059630096693, -4.16123203746708 ], [ 120.18255657353761, -4.161769605572963 ], [ 120.181514527808019, -4.161760646107538 ], [ 120.180768926122198, -4.161939835396652 ], [ 120.180481465231281, -4.162387808441022 ], [ 120.181029437554614, -4.163194159278531 ], [ 120.180876723956288, -4.163731726044642 ], [ 120.180975538637568, -4.163919874326037 ], [ 120.181541477266549, -4.163597334387533 ], [ 120.181891820227349, -4.16297913246929 ], [ 120.182430809397829, -4.162674511055653 ], [ 120.183275225764916, -4.162844740683686 ], [ 120.183643535031393, -4.162495321933744 ], [ 120.184389136717215, -4.162566997587402 ], [ 120.184595749232557, -4.162970173017628 ], [ 120.184640664996763, -4.163704847715055 ], [ 120.184119642131961, -4.164314089626918 ], [ 120.183760316018322, -4.165030844213463 ], [ 120.184407103022906, -4.165586328568937 ], [ 120.185224569931435, -4.165917827110325 ], [ 120.185359317224041, -4.166338919650652 ], [ 120.185071856333138, -4.166724174330495 ], [ 120.184505917704158, -4.166957118929082 ], [ 120.183392006751845, -4.168094962707369 ], [ 120.182781152358629, -4.167772424480741 ], [ 120.181945719144395, -4.168157678458292 ], [ 120.181451645738136, -4.168668363672434 ], [ 120.180562313606856, -4.170200417324127 ], [ 120.179376537431821, -4.170926125906146 ], [ 120.179053143929536, -4.170881329099506 ], [ 120.178864497719886, -4.170621507570627 ], [ 120.178828565108518, -4.170048108030461 ], [ 120.178630935746014, -4.169886839334403 ], [ 120.178325508549392, -4.170012270545309 ], [ 120.177975165588592, -4.170442320259272 ], [ 120.177202614444241, -4.170630466935122 ], [ 120.17650192852264, -4.171893736306107 ], [ 120.175944973046484, -4.1724671344992 ], [ 120.175864124670909, -4.172986776250095 ], [ 120.176061754033412, -4.173542254982872 ], [ 120.176349214924329, -4.173730400916173 ], [ 120.17722956390277, -4.173658726280232 ], [ 120.178073980269843, -4.17518181088606 ], [ 120.178397373772128, -4.175029502558461 ], [ 120.178720767274427, -4.174097733322676 ], [ 120.17970891408693, -4.174267960477168 ], [ 120.180364684244353, -4.17407085534754 ], [ 120.180688077746623, -4.17416940791854 ], [ 120.180463498925604, -4.175307241251301 ], [ 120.180993504943245, -4.176803444776517 ], [ 120.180427566314236, -4.178496749515793 ], [ 120.179852644532417, -4.178702812805992 ], [ 120.180472482078443, -4.179276206024186 ], [ 120.18049044838412, -4.179455391318883 ], [ 120.180005358130714, -4.180378194938049 ], [ 120.17962806571137, -4.180629053986542 ], [ 120.17900822816533, -4.180754483480681 ], [ 120.178487205300527, -4.182205880452826 ], [ 120.177930249824385, -4.182385065077778 ], [ 120.177445159570951, -4.182286513539125 ], [ 120.176861254636293, -4.181704163284972 ], [ 120.176519894828331, -4.181587693182207 ], [ 120.176115652950458, -4.181005342408747 ], [ 120.175477849098755, -4.180772401978206 ], [ 120.174813095788494, -4.180288602401275 ], [ 120.174022578338452, -4.18017213208816 ], [ 120.174040544644143, -4.180566339231945 ], [ 120.174525634897577, -4.180969505423938 ], [ 120.175037674609513, -4.181121812598056 ], [ 120.175567680627154, -4.181820633370426 ], [ 120.175109539832249, -4.18314659927664 ], [ 120.175819208906702, -4.184589032612341 ], [ 120.175909040435116, -4.185243054305312 ], [ 120.17574734368398, -4.185493911796021 ], [ 120.174705297954404, -4.186031463291164 ], [ 120.1741573256311, -4.1861389735459 ], [ 120.173465622862309, -4.185923953021663 ], [ 120.172720021176488, -4.186004585725174 ], [ 120.172369678215688, -4.185691014053764 ], [ 120.172145099394669, -4.184696543065141 ], [ 120.171426447167363, -4.184311297207626 ], [ 120.170896441149736, -4.184848849514674 ], [ 120.170528131883231, -4.18487572712034 ], [ 120.16985439542016, -4.183917091947953 ], [ 120.169863378572998, -4.183200354603882 ], [ 120.168048781699071, -4.182277554307723 ], [ 120.168147596380322, -4.181865429552529 ], [ 120.169297439943989, -4.18069176873612 ], [ 120.169791513350276, -4.179912313635008 ], [ 120.169216591568428, -4.179544983950876 ], [ 120.169162692651383, -4.179356839411867 ], [ 120.169593883987773, -4.178416116039672 ], [ 120.168093697463277, -4.177869600038571 ], [ 120.167545725139973, -4.17682136336432 ], [ 120.167527758834296, -4.176212131149409 ], [ 120.167671489279741, -4.175916474168752 ], [ 120.168003865934864, -4.175808962511804 ], [ 120.168246411061574, -4.175298281940163 ], [ 120.168596754022388, -4.175083258442165 ], [ 120.168399124659871, -4.174823438303493 ], [ 120.168731501315008, -4.174500902839288 ], [ 120.169135743192854, -4.174823438303493 ], [ 120.169522018765022, -4.174913031464475 ], [ 120.16985439542016, -4.174895112833097 ], [ 120.170168805769592, -4.174563618078818 ], [ 120.169917277490043, -4.173300353002382 ], [ 120.170483216119024, -4.17183102085334 ], [ 120.17031253621505, -4.17076485739029 ], [ 120.170644912870173, -4.169573261219557 ], [ 120.17055508134176, -4.169465748694234 ], [ 120.170330502520727, -4.169573261219557 ], [ 120.169548968223566, -4.170487117090942 ], [ 120.169468119847977, -4.172081882634356 ], [ 120.168596754022388, -4.173640807620224 ], [ 120.168300309978619, -4.173246596996598 ], [ 120.167401994694515, -4.173031572936659 ], [ 120.167114533803584, -4.172816548817843 ], [ 120.166090454379685, -4.171096353748085 ], [ 120.165371802152407, -4.171105313107165 ], [ 120.16498552658021, -4.170899247822469 ], [ 120.164212975435888, -4.168695241832409 ], [ 120.163539238972788, -4.167414048518199 ], [ 120.163665003112555, -4.16647331083947 ], [ 120.164293823811462, -4.164977087642121 ], [ 120.164132127060313, -4.163982590409841 ], [ 120.164293823811462, -4.162629713778998 ], [ 120.165353835846716, -4.161384348467672 ], [ 120.166288083742202, -4.160909496427411 ], [ 120.165964690239903, -4.160085224281492 ], [ 120.166108420685362, -4.158732340955115 ], [ 120.167213348484836, -4.158149973245146 ], [ 120.168462006729783, -4.158185811270494 ], [ 120.169099810581486, -4.157513848024035 ], [ 120.170231687839475, -4.157755754858758 ], [ 120.170375418284934, -4.158087256696865 ], [ 120.17031253621505, -4.158893611937166 ], [ 120.169602867140611, -4.160327130326787 ], [ 120.169629816599141, -4.160810942194498 ], [ 120.170707794940085, -4.16180544343364 ], [ 120.171453396625878, -4.161724808244823 ], [ 120.171695941752589, -4.161330591647297 ], [ 120.171722891211118, -4.159565574007078 ], [ 120.17370816798902, -4.157567605104835 ], [ 120.173941729962891, -4.156519341368004 ], [ 120.174301056076558, -4.155811538569383 ], [ 120.174920893622584, -4.15548899531118 ], [ 120.175971922504999, -4.153885236596595 ], [ 120.177328378584022, -4.152944482760776 ], [ 120.177813468837456, -4.152872806232063 ], [ 120.178262626479508, -4.153231188810523 ], [ 120.178666868357382, -4.154548243387946 ], [ 120.178451272689173, -4.155659226491672 ], [ 120.178792632497149, -4.156232636513477 ], [ 120.179538234182957, -4.156662693756171 ] ] ] } },
{ "type": "Feature", "properties": { "FID": 12, "REMARK": "Danau/Situ" }, "geometry": { "type": "Polygon", "coordinates": [ [ [ 120.091000279780133, -4.152836967965265 ], [ 120.089616874242594, -4.152908644497233 ], [ 120.089401278574414, -4.152478585207763 ], [ 120.089464160644297, -4.152129161862503 ], [ 120.090066031884646, -4.151949970343385 ], [ 120.091054178697178, -4.152129161862503 ], [ 120.091152993378429, -4.152299393767981 ], [ 120.091000279780133, -4.152836967965265 ] ] ] } },
{ "type": "Feature", "properties": { "FID": 13, "REMARK": "Danau/Situ" }, "geometry": { "type": "Polygon", "coordinates": [ [ [ 120.105094846587988, -4.141619510545401 ], [ 120.105418240090259, -4.142067495123285 ], [ 120.105427223243098, -4.142891786083803 ], [ 120.104807385697043, -4.143178495781776 ], [ 120.104627722640231, -4.143545842430421 ], [ 120.104232463915224, -4.143160576428698 ], [ 120.103459912770873, -4.143088899012323 ], [ 120.10337008124246, -4.142730511833024 ], [ 120.10358567691064, -4.142407963232828 ], [ 120.103594660063493, -4.14177182533034 ], [ 120.104034834552721, -4.141646389627226 ], [ 120.104277379679431, -4.141279042096577 ], [ 120.104627722640231, -4.141135686916405 ], [ 120.104879250919794, -4.141243203303969 ], [ 120.105094846587988, -4.141619510545401 ] ] ] } },
{ "type": "Feature", "properties": { "FID": 14, "REMARK": "Danau/Situ" }, "geometry": { "type": "Polygon", "coordinates": [ [ [ 120.109676254536993, -4.142587156915841 ], [ 120.109496591480166, -4.142990342554204 ], [ 120.109855917593819, -4.143662318161438 ], [ 120.109460658868812, -4.143545842430421 ], [ 120.109173197977867, -4.143832551891299 ], [ 120.108706074030138, -4.143554802102646 ], [ 120.108220983776704, -4.143787753544887 ], [ 120.107708944064768, -4.14344728602924 ], [ 120.107223853811348, -4.143402487661005 ], [ 120.107367584256806, -4.142900745763439 ], [ 120.107223853811348, -4.142712592469796 ], [ 120.106514184736881, -4.142685713424195 ], [ 120.106550117348249, -4.14183454317444 ], [ 120.1062985890687, -4.141099848117304 ], [ 120.106397403749952, -4.14028451499931 ], [ 120.107610129383517, -4.139979884827606 ], [ 120.107735893523284, -4.139818609983362 ], [ 120.108777939252874, -4.140212837322398 ], [ 120.109352861034694, -4.140714580924468 ], [ 120.109397776798929, -4.141915180395264 ], [ 120.109739136606876, -4.142300447003539 ], [ 120.109676254536993, -4.142587156915841 ] ] ] } },
{ "type": "Feature", "properties": { "FID": 15, "REMARK": "Danau/Situ" }, "geometry": { "type": "Polygon", "coordinates": [ [ [ 120.064347265300327, -4.137345724924604 ], [ 120.065308462654329, -4.137274046981658 ], [ 120.066081013798652, -4.137417402861063 ], [ 120.066530171440732, -4.137309885953941 ], [ 120.066557120899262, -4.137023174130269 ], [ 120.066763733414604, -4.136817099942906 ], [ 120.067266789973701, -4.136861898683849 ], [ 120.067194924750964, -4.137569718454502 ], [ 120.066853564943003, -4.138152101335764 ], [ 120.065865418130471, -4.138259618128551 ], [ 120.063475899474724, -4.137892269026265 ], [ 120.063062674444026, -4.138089383199897 ], [ 120.062927927151421, -4.138564248962171 ], [ 120.063062674444026, -4.138779282421226 ], [ 120.063466916321872, -4.138797201873513 ], [ 120.064356248453166, -4.138492571129508 ], [ 120.065335412112859, -4.138761362968536 ], [ 120.065290496348652, -4.139039114439671 ], [ 120.064706591413966, -4.139522939350242 ], [ 120.06463472619123, -4.139854448840477 ], [ 120.064706591413966, -4.140822097369242 ], [ 120.065029984916237, -4.141520953904227 ], [ 120.066089996951504, -4.142031656366387 ], [ 120.066763733414604, -4.143088899012323 ], [ 120.067509335100425, -4.143716076185353 ], [ 120.068865791179448, -4.144199898236142 ], [ 120.071174461459634, -4.144083422584301 ], [ 120.07176734954713, -4.144916671100579 ], [ 120.072009894673869, -4.146144143121611 ], [ 120.071740400088615, -4.148787233336851 ], [ 120.07144395604486, -4.149029142847061 ], [ 120.069791055922096, -4.149387527170441 ], [ 120.069485628725474, -4.149683194114801 ], [ 120.069647325476609, -4.150149093317627 ], [ 120.071012764708485, -4.151349678457933 ], [ 120.071129545695428, -4.151672223408356 ], [ 120.071030731014176, -4.152147081012177 ], [ 120.069898853756186, -4.153956913033335 ], [ 120.069755123310728, -4.155014139718753 ], [ 120.069413763502737, -4.155910093427519 ], [ 120.069036471083422, -4.156447665164147 ], [ 120.067473402489057, -4.156501422317652 ], [ 120.066727800803235, -4.157522807537755 ], [ 120.065667788767968, -4.157334657728228 ], [ 120.065128799597488, -4.157397374336394 ], [ 120.063700478295743, -4.15853523193223 ], [ 120.063377084793473, -4.158947368923848 ], [ 120.06315250597244, -4.158992166409949 ], [ 120.062945893457098, -4.158920490430966 ], [ 120.062900977692891, -4.15844563690553 ], [ 120.061652319447944, -4.157764714369729 ], [ 120.061319942792835, -4.157818471433418 ], [ 120.060897734609298, -4.159028004396995 ], [ 120.059424497543333, -4.158911530933135 ], [ 120.059155002958093, -4.159045923389906 ], [ 120.057690749044994, -4.161124523801868 ], [ 120.057232608250104, -4.161563537842417 ], [ 120.056019882616511, -4.161930875933165 ], [ 120.054888005358521, -4.16279098396302 ], [ 120.05434901618807, -4.162746186692996 ], [ 120.053522566126674, -4.161563537842417 ], [ 120.052543402466981, -4.160524238901357 ], [ 120.050701856134552, -4.159458060114405 ], [ 120.051007283331145, -4.1577736738806 ], [ 120.051887632309587, -4.155919052959468 ], [ 120.052579335078335, -4.155408359476016 ], [ 120.055202415707981, -4.155211249622016 ], [ 120.055983950005157, -4.155444197625996 ], [ 120.056379208730178, -4.155041018344826 ], [ 120.056639720162565, -4.155067896969983 ], [ 120.057268540861472, -4.155632347886669 ], [ 120.057681765892156, -4.155569631138098 ], [ 120.058041092005794, -4.155282925938262 ], [ 120.058229738215445, -4.154942463378079 ], [ 120.058148889839885, -4.154575122029897 ], [ 120.057915327866013, -4.154243618715172 ], [ 120.057475153376814, -4.154109225439784 ], [ 120.057564984905213, -4.152810089264096 ], [ 120.058786693691616, -4.152308353340937 ], [ 120.058705845316055, -4.151824536255798 ], [ 120.058984323054119, -4.151260082614982 ], [ 120.060161116076316, -4.150319325650091 ], [ 120.060960616679196, -4.149145617769998 ], [ 120.061337909098512, -4.148419889124123 ], [ 120.061284010181467, -4.147971908145711 ], [ 120.062011645561611, -4.147174501375657 ], [ 120.062227241229792, -4.145830555560281 ], [ 120.062568601037754, -4.145230259024439 ], [ 120.062550634732077, -4.143572721446794 ], [ 120.062424870592295, -4.143312890916925 ], [ 120.061751134129224, -4.142972423196862 ], [ 120.061068414513286, -4.141520953904227 ], [ 120.061221128111583, -4.140786258555941 ], [ 120.061975712950243, -4.14031139412648 ], [ 120.062604533649122, -4.139567737938115 ], [ 120.062029611867288, -4.139522939350242 ], [ 120.061984696103082, -4.139101832500312 ], [ 120.060718071552486, -4.138483611399971 ], [ 120.060583324259838, -4.138286497324466 ], [ 120.061526555308177, -4.137507000272516 ], [ 120.062712331483212, -4.137023174130269 ], [ 120.062999792374143, -4.13677230119943 ], [ 120.063035724985511, -4.136163038036637 ], [ 120.063565731003123, -4.136360152640575 ], [ 120.063925057116762, -4.136978375398447 ], [ 120.064347265300327, -4.137345724924604 ] ] ] } },
{ "type": "Feature", "properties": { "FID": 16, "REMARK": "Danau/Situ" }, "geometry": { "type": "Polygon", "coordinates": [ [ [ 120.121749611955536, -4.127292830138747 ], [ 120.12080638090724, -4.127436187822449 ], [ 120.119764335177663, -4.128350092447538 ], [ 120.118946868269106, -4.128394891666815 ], [ 120.117994654067928, -4.128690566450634 ], [ 120.117222102923577, -4.12856512867701 ], [ 120.117617361648612, -4.127543706068239 ], [ 120.118003637220767, -4.127391388549073 ], [ 120.119000767186151, -4.126567081467832 ], [ 120.119054666103196, -4.125832372261214 ], [ 120.11991704877596, -4.124362951809317 ], [ 120.121147740715202, -4.124434630918804 ], [ 120.122890472366379, -4.12562629516658 ], [ 120.122890472366379, -4.125886131494499 ], [ 120.122414365265797, -4.126656680105069 ], [ 120.121749611955536, -4.127292830138747 ] ] ] } },
{ "type": "Feature", "properties": { "FID": 17, "REMARK": "Danau/Situ" }, "geometry": { "type": "Polygon", "coordinates": [ [ [ 120.305077795138672, -4.117947645336333 ], [ 120.304053715714772, -4.118135804502955 ], [ 120.303119467819286, -4.119166199150261 ], [ 120.302517596578937, -4.119219958834364 ], [ 120.302544546037453, -4.119067639719971 ], [ 120.303164383583479, -4.118763001403705 ], [ 120.303721339059649, -4.118099964665124 ], [ 120.304655586955136, -4.117732606234291 ], [ 120.305185592972762, -4.117822205867204 ], [ 120.305077795138672, -4.117947645336333 ] ] ] } },
{ "type": "Feature", "properties": { "FID": 18, "REMARK": "Danau/Situ" }, "geometry": { "type": "Polygon", "coordinates": [ [ [ 120.300226892604428, -4.117257728011456 ], [ 120.299364509931664, -4.117643006591291 ], [ 120.299112981652115, -4.117992445141945 ], [ 120.298376363119132, -4.118099964665124 ], [ 120.298223649520835, -4.118261243922654 ], [ 120.297981104394125, -4.118180604297974 ], [ 120.297801441337313, -4.118404603235239 ], [ 120.297244485861142, -4.118574842385388 ], [ 120.296139558061668, -4.118225404090472 ], [ 120.296328204271333, -4.117938685374908 ], [ 120.296624648315088, -4.11796556525888 ], [ 120.296705496690677, -4.117589246800652 ], [ 120.296867193441827, -4.11788492560424 ], [ 120.297280418472511, -4.117795325978388 ], [ 120.297513980446368, -4.118297083753221 ], [ 120.29784635710152, -4.118082044745602 ], [ 120.297981104394125, -4.117786366015249 ], [ 120.298385346271971, -4.117875965642108 ], [ 120.298735689232771, -4.117660926520698 ], [ 120.298969251206657, -4.117230848103577 ], [ 120.299373493084502, -4.117311487824489 ], [ 120.299391459390193, -4.11757132686963 ], [ 120.299571122447006, -4.117517567074147 ], [ 120.299642987669742, -4.116953089002349 ], [ 120.299373493084502, -4.116442370401989 ], [ 120.299562139294167, -4.115994371359993 ], [ 120.2997867181152, -4.116442370401989 ], [ 120.300262825215796, -4.116872449245128 ], [ 120.300226892604428, -4.117257728011456 ] ] ] } },
{ "type": "Feature", "properties": { "FID": 19, "REMARK": "Danau/Situ" }, "geometry": { "type": "Polygon", "coordinates": [ [ [ 120.109864900746658, -4.115322372324364 ], [ 120.110323041541548, -4.115358212287248 ], [ 120.111535767175098, -4.11473101270392 ], [ 120.112964088476872, -4.114739972701446 ], [ 120.113907319525183, -4.115134212492764 ], [ 120.115030213630334, -4.116406530487907 ], [ 120.115138011464438, -4.11709644855057 ], [ 120.115039196783172, -4.117804285941427 ], [ 120.113952235289403, -4.120886507239474 ], [ 120.113539010258691, -4.121612261098551 ], [ 120.112604762363205, -4.122427613409315 ], [ 120.111427969341008, -4.122732250321826 ], [ 120.110942879087602, -4.122266334996607 ], [ 120.110035580650631, -4.122929368261826 ], [ 120.109703203995522, -4.122839769204249 ], [ 120.109532524091534, -4.122526172423196 ], [ 120.109586423008579, -4.121881058656032 ], [ 120.109855917593819, -4.121450982520446 ], [ 120.1104218562228, -4.12102090615224 ], [ 120.110493721445522, -4.120761068233733 ], [ 120.110323041541548, -4.120599789482995 ], [ 120.109757102912567, -4.120590829551438 ], [ 120.107996404955671, -4.121253864213892 ], [ 120.10643333636132, -4.121486822207296 ], [ 120.104492975347611, -4.1224903327832 ], [ 120.102471765958342, -4.12246345305214 ], [ 120.101977692552083, -4.122606811607284 ], [ 120.101079377267965, -4.123251924785474 ], [ 120.100243944053716, -4.12351176188988 ], [ 120.098932403738914, -4.124219593570944 ], [ 120.098177818900268, -4.1242285534616 ], [ 120.097297469921827, -4.123852237967063 ], [ 120.097405267755917, -4.123655120255946 ], [ 120.09701000903091, -4.121352423373277 ], [ 120.09703695848944, -4.120985066444391 ], [ 120.097225604699091, -4.120778988092908 ], [ 120.098132903136062, -4.120133872908259 ], [ 120.098429347179817, -4.120098033160436 ], [ 120.098788673293456, -4.120277231883401 ], [ 120.098959353197429, -4.121038826005559 ], [ 120.099255797241213, -4.121011946225428 ], [ 120.099354611922465, -4.119972594030339 ], [ 120.099633089660529, -4.119103479514217 ], [ 120.099956483162813, -4.118718201641475 ], [ 120.100693101695796, -4.118494202792489 ], [ 120.10113327618501, -4.118592762293813 ], [ 120.101465652840147, -4.118951160377525 ], [ 120.10188786102367, -4.120089073223228 ], [ 120.102085490386173, -4.120214512334956 ], [ 120.10268736162655, -4.120124912971455 ], [ 120.104124666081134, -4.11864652201666 ], [ 120.104699587862953, -4.117060608665935 ], [ 120.10554400423004, -4.116209410931613 ], [ 120.106451302666997, -4.114408452725878 ], [ 120.106927409767579, -4.113942532526984 ], [ 120.107717927217607, -4.113602052209305 ], [ 120.10880488871139, -4.113637892249598 ], [ 120.109397776798929, -4.114166532656623 ], [ 120.109523540938696, -4.114838532667571 ], [ 120.109864900746658, -4.115322372324364 ] ] ] } },
{ "type": "Feature", "properties": { "FID": 20, "REMARK": "Danau/Situ" }, "geometry": { "type": "Polygon", "coordinates": [ [ [ 120.25991948580598, -4.111200765837435 ], [ 120.260395592906576, -4.11120972587466 ], [ 120.260395592906576, -4.111415806703004 ], [ 120.259703890137786, -4.111702527766849 ], [ 120.259802704819037, -4.111406846668097 ], [ 120.259461345011076, -4.111362046492051 ], [ 120.259623041762225, -4.110815484141551 ], [ 120.259757789054831, -4.110815484141551 ], [ 120.259775755360522, -4.111129085536021 ], [ 120.25991948580598, -4.111200765837435 ] ] ] } },
{ "type": "Feature", "properties": { "FID": 21, "REMARK": "Danau/Situ" }, "geometry": { "type": "Polygon", "coordinates": [ [ [ 120.130193775626282, -4.109444596597513 ], [ 120.130041062027985, -4.109722358316438 ], [ 120.130409371294462, -4.110322681701001 ], [ 120.130418354447301, -4.110591483069973 ], [ 120.129843432665481, -4.110654203376358 ], [ 120.130598017504127, -4.111048445189227 ], [ 120.130912427853559, -4.111845888260092 ], [ 120.131415484412685, -4.112293889635273 ], [ 120.13171192845644, -4.11359309219898 ], [ 120.131586164316658, -4.114489092732635 ], [ 120.131837692596207, -4.116039171275537 ], [ 120.130624966962642, -4.116702209730835 ], [ 120.12920562881375, -4.116388610530261 ], [ 120.128469010280753, -4.117383167569553 ], [ 120.127498829773913, -4.117311487824489 ], [ 120.126025592707961, -4.116675329804198 ], [ 120.126896958533564, -4.114695172712811 ], [ 120.126905941686402, -4.114551812732246 ], [ 120.126474750350027, -4.114327812710956 ], [ 120.127283234105718, -4.111980288699089 ], [ 120.127687475983592, -4.109794038744327 ], [ 120.128010869485863, -4.109077234175508 ], [ 120.129061898368292, -4.109480436824747 ], [ 120.12920562881375, -4.109014513745082 ], [ 120.129331392953517, -4.109005553683191 ], [ 120.130193775626282, -4.109444596597513 ] ] ] } },
{ "type": "Feature", "properties": { "FID": 22, "REMARK": "Danau/Situ" }, "geometry": { "type": "Polygon", "coordinates": [ [ [ 120.006971868103591, -4.041094369010589 ], [ 120.007627638261013, -4.041434880045378 ], [ 120.00791509915193, -4.041802273369924 ], [ 120.008328324182614, -4.042895491546102 ], [ 120.008328324182614, -4.043289766592187 ], [ 120.007861200234885, -4.044212727881909 ], [ 120.006468811544494, -4.044920629518037 ], [ 120.006046603360943, -4.045207374308574 ], [ 120.005893889762646, -4.045547883615519 ], [ 120.005902872915485, -4.046273705607883 ], [ 120.00640592947461, -4.047698465405011 ], [ 120.006387963168933, -4.048298835134806 ], [ 120.006352030557565, -4.048558696521583 ], [ 120.005318967980827, -4.049902805811108 ], [ 120.005417782662079, -4.050494213191286 ], [ 120.005552529954699, -4.050727191737521 ], [ 120.006316097946197, -4.050825759563809 ], [ 120.006882036575192, -4.050494213191286 ], [ 120.00775340240078, -4.049401005270798 ], [ 120.008472054628086, -4.049293476543112 ], [ 120.009343420453675, -4.050001373737821 ], [ 120.011472427677035, -4.050153705964579 ], [ 120.012164130445811, -4.050467331047019 ], [ 120.012927698437323, -4.051838319265774 ], [ 120.013772114804382, -4.052591017691913 ], [ 120.014023643083931, -4.053003209390321 ], [ 120.01410449145952, -4.053782788767148 ], [ 120.013763131651544, -4.054938715424927 ], [ 120.013826013721427, -4.055306102621127 ], [ 120.014832126839636, -4.056668121988625 ], [ 120.015137554036244, -4.057411855279285 ], [ 120.014921958368049, -4.059320468903304 ], [ 120.014966874132256, -4.060539111861877 ], [ 120.015119587730553, -4.060933378307495 ], [ 120.015748408429445, -4.061318683965981 ], [ 120.017032999285732, -4.061551659391162 ], [ 120.017437241163577, -4.061793595338425 ], [ 120.017571988456226, -4.062053452386162 ], [ 120.017455207469268, -4.062779259558885 ], [ 120.017086898202777, -4.063576750637652 ], [ 120.01682638677039, -4.065341980894853 ], [ 120.016458077503913, -4.066677101720105 ], [ 120.015146537189082, -4.068272075376838 ], [ 120.014203306140772, -4.069580309839082 ], [ 120.014176356682256, -4.069849124876354 ], [ 120.014679413241339, -4.070064176841562 ], [ 120.015514846455588, -4.069786401375684 ], [ 120.016233498682865, -4.069759519873902 ], [ 120.016871302534597, -4.070100018830179 ], [ 120.016979100368687, -4.070825818756399 ], [ 120.01628739759991, -4.073702130546621 ], [ 120.016260448141381, -4.074284560031182 ], [ 120.016574858490841, -4.075556942976537 ], [ 120.015811290499343, -4.0781017028267 ], [ 120.015766374735136, -4.079275515394237 ], [ 120.015865189416388, -4.079409921303998 ], [ 120.016206549224336, -4.079338238154924 ], [ 120.016655706866416, -4.078800614332997 ], [ 120.016880285687435, -4.078773733132457 ], [ 120.016799437311874, -4.079436802483253 ], [ 120.016152650307291, -4.080798781054688 ], [ 120.016871302534597, -4.08062853385956 ], [ 120.018254708072135, -4.079804178509574 ], [ 120.018605051032964, -4.0797862577317 ], [ 120.018856579312512, -4.080010267426387 ], [ 120.019009292910809, -4.080449326246753 ], [ 120.019233871731828, -4.081703778696591 ], [ 120.018802680395467, -4.083943867481815 ], [ 120.019099124439222, -4.085350640042582 ], [ 120.018946410840925, -4.08668572764347 ], [ 120.019153023356267, -4.086676767331409 ], [ 120.019260821190358, -4.090009996507606 ], [ 120.019916591347766, -4.091103149293874 ], [ 120.020123203863122, -4.091828930237832 ], [ 120.019799810360837, -4.096049198988257 ], [ 120.019458450552861, -4.097070661964869 ], [ 120.019772860902322, -4.098074203268099 ], [ 120.018712848867054, -4.100072321934067 ], [ 120.019063191827854, -4.100708493196547 ], [ 120.019144040203415, -4.10132674365656 ], [ 120.018829629853983, -4.102482601929029 ], [ 120.01685333622892, -4.101855392221244 ], [ 120.013394822385052, -4.10040384786643 ], [ 120.013008546812898, -4.10040384786643 ], [ 120.013098378341311, -4.10060097132859 ], [ 120.016862319381758, -4.102115236302783 ], [ 120.017922331417026, -4.102760366070863 ], [ 120.018964377146602, -4.103199412420632 ], [ 120.019117090744899, -4.103459256064971 ], [ 120.018865562465351, -4.103808700832682 ], [ 120.018236741766458, -4.104086464513323 ], [ 120.018389455364755, -4.106998497283165 ], [ 120.017904365111335, -4.107858664930048 ], [ 120.017778600971567, -4.109632757772518 ], [ 120.017455207469268, -4.110869244389366 ], [ 120.016601807949371, -4.11212364914237 ], [ 120.016296380752749, -4.112159489249162 ], [ 120.0156945095124, -4.111908608467779 ], [ 120.015442981232852, -4.111460606876027 ], [ 120.014221272446449, -4.110349561841976 ], [ 120.013799064262898, -4.109686518100078 ], [ 120.013116344646988, -4.109301235672474 ], [ 120.014122457765211, -4.111872768349705 ], [ 120.014329070280553, -4.113575172178026 ], [ 120.013978727319724, -4.114498052732881 ], [ 120.012792951144689, -4.115125252499674 ], [ 120.012631254393554, -4.115797251701656 ], [ 120.012909732131618, -4.116585730042186 ], [ 120.013987710472563, -4.117580286835191 ], [ 120.014068558848152, -4.118099964665124 ], [ 120.013826013721427, -4.118763001403705 ], [ 120.013394822385052, -4.119417077644992 ], [ 120.012415658725359, -4.119748595534537 ], [ 120.00939731937072, -4.119650036176401 ], [ 120.007223396383139, -4.118700281735876 ], [ 120.006316097946197, -4.118771961355847 ], [ 120.006073552819473, -4.119040759873228 ], [ 120.006280165334843, -4.119945714214174 ], [ 120.007762385553633, -4.121468902364072 ], [ 120.008822397588887, -4.122069216892197 ], [ 120.012298877738431, -4.123234004982039 ], [ 120.012846850061734, -4.123664080152968 ], [ 120.012676170157746, -4.124210633680188 ], [ 120.01004410637529, -4.123771598909334 ], [ 120.004429635849547, -4.124103114983224 ], [ 120.003917596137612, -4.124049355629285 ], [ 120.002309611779012, -4.123368403497955 ], [ 120.000000941498826, -4.123081686636528 ], [ 119.999012794686294, -4.123422162897956 ], [ 119.997719220677169, -4.124398791364869 ], [ 119.996964635838495, -4.12471238740699 ], [ 119.993389341007713, -4.124775106600561 ], [ 119.987451476979686, -4.123234004982039 ], [ 119.980471567222082, -4.122284254821857 ], [ 119.977489160478797, -4.122239455257974 ], [ 119.976420165290691, -4.122526172423196 ], [ 119.976051856024213, -4.122839769204249 ], [ 119.975306254338378, -4.125241020454939 ], [ 119.975647614146368, -4.12715843228677 ], [ 119.977354413186177, -4.131862343565689 ], [ 119.97833357684587, -4.13296439874709 ], [ 119.979591218243641, -4.133824538312227 ], [ 119.981351916200524, -4.134729475805617 ], [ 119.982977866864772, -4.135876325797909 ], [ 119.984945177336996, -4.136745421952127 ], [ 119.986822656280808, -4.137184449543855 ], [ 119.994278673138993, -4.138376094637596 ], [ 119.995949539567462, -4.139119751945297 ], [ 119.997009551602702, -4.139944045976169 ], [ 119.99735989456353, -4.14058914505377 ], [ 119.996623276030547, -4.1414492763393 ], [ 119.995509365078235, -4.14183454317444 ], [ 119.993488155688965, -4.142264608257195 ], [ 119.991475929452548, -4.142354205120011 ], [ 119.990110490220673, -4.142587156915841 ], [ 119.988493522709263, -4.143106818367026 ], [ 119.987882668316047, -4.143536882758094 ], [ 119.986840622586499, -4.146099344906181 ], [ 119.985960273608057, -4.147066985794533 ], [ 119.984082794664232, -4.148106302465908 ], [ 119.982277180943143, -4.148787233336851 ], [ 119.979240875282841, -4.150982335437211 ], [ 119.978046115954953, -4.152908644497233 ], [ 119.977767638216889, -4.153750843260155 ], [ 119.980076308497075, -4.156411827059774 ], [ 119.98083987648856, -4.157675119255433 ], [ 119.980920724864134, -4.158472515414609 ], [ 119.980633263973218, -4.159063842382412 ], [ 119.979797830758983, -4.160040426857544 ], [ 119.977183733282203, -4.161599375712473 ], [ 119.976833390321403, -4.161921916469576 ], [ 119.976599828347503, -4.162522200304631 ], [ 119.976563895736149, -4.163301672661124 ], [ 119.976815424015712, -4.164797899044451 ], [ 119.978019166496438, -4.167799302671347 ], [ 119.978153913789058, -4.168462297748756 ], [ 119.9776867898413, -4.169904758080043 ], [ 119.977210682740719, -4.170298970380768 ], [ 119.976285417998071, -4.17080965420357 ], [ 119.975090658670197, -4.170997800791458 ], [ 119.96869465384728, -4.171024678871763 ], [ 119.964535454081798, -4.17008394551398 ], [ 119.961508131574305, -4.168847551388245 ], [ 119.958651488970816, -4.168130800279937 ], [ 119.956890791013933, -4.167951612400759 ], [ 119.955758913755943, -4.168094962707369 ], [ 119.953980249493398, -4.168784835692357 ], [ 119.952560911344477, -4.169662854979422 ], [ 119.951114623737055, -4.171383053187977 ], [ 119.950225291605761, -4.172072923286414 ], [ 119.94926409425176, -4.172449215812001 ], [ 119.946524232635198, -4.172287947608825 ], [ 119.945518119516976, -4.172834467496659 ], [ 119.944988113499363, -4.173398905670096 ], [ 119.943443011210661, -4.175943352080688 ], [ 119.943227415542481, -4.17618525324668 ], [ 119.942589611690764, -4.17612253813673 ], [ 119.942374016022555, -4.176400276442735 ], [ 119.942374016022555, -4.17717973503446 ], [ 119.941915875227664, -4.178478830966261 ], [ 119.941718245865161, -4.181444345339658 ], [ 119.941439768127097, -4.18189230726056 ], [ 119.940766031663998, -4.182089410424633 ], [ 119.93992161529691, -4.181999818083474 ], [ 119.939517373419065, -4.181139731087183 ], [ 119.939337710362253, -4.178299645448419 ], [ 119.938969401095747, -4.177439554392941 ], [ 119.938187866798586, -4.176749689010649 ], [ 119.937397349348544, -4.176462991530485 ], [ 119.93644513514738, -4.176337561349972 ], [ 119.934702403496203, -4.176534665910347 ], [ 119.932267969076207, -4.177349961520427 ], [ 119.930713883634695, -4.177618740107273 ], [ 119.92942030962557, -4.177412676532262 ], [ 119.926482818646491, -4.176131497438459 ], [ 119.924479575562913, -4.175692491533489 ], [ 119.923419563527659, -4.176149416041608 ], [ 119.922754810217398, -4.176731770421208 ], [ 119.922422433562275, -4.176615299579866 ], [ 119.922242770505463, -4.17670489253628 ], [ 119.921200724775872, -4.178613220077776 ], [ 119.920428173631521, -4.17914181702629 ], [ 119.919332228984899, -4.179822721044992 ], [ 119.918451880006458, -4.180082539527834 ], [ 119.917921873988846, -4.179876476600231 ], [ 119.917769160390549, -4.179544983950876 ], [ 119.917858991918948, -4.178801364795207 ], [ 119.91817340226838, -4.177950233570877 ], [ 119.919305279526384, -4.177188694324117 ], [ 119.919395111054783, -4.17684824124526 ], [ 119.920068847517882, -4.176328602050599 ], [ 119.920167662199134, -4.176086700928795 ], [ 119.920140712740618, -4.174733845132285 ], [ 119.920410207325844, -4.173148044309767 ], [ 119.920760550286644, -4.173031572936659 ], [ 119.92112885955315, -4.17249401252923 ], [ 119.921443269902582, -4.171553280930908 ], [ 119.92172174764066, -4.171212825408158 ], [ 119.92409329999073, -4.170003311173764 ], [ 119.924614322855533, -4.169429911182527 ], [ 119.924605339702694, -4.168578769799211 ], [ 119.922988372191256, -4.165720719886336 ], [ 119.922898540662857, -4.165317545865263 ], [ 119.923060237413992, -4.163830279911934 ], [ 119.923554310820265, -4.161393307937377 ], [ 119.924398727187324, -4.158768178953979 ], [ 119.924856867982243, -4.158409798891997 ], [ 119.925952812628864, -4.158042459159322 ], [ 119.926384003965239, -4.157693038279107 ], [ 119.926770279537422, -4.156501422317652 ], [ 119.926446886035123, -4.155184371001744 ], [ 119.926500784952168, -4.154790151132521 ], [ 119.926770279537422, -4.154431769262247 ], [ 119.927857241031205, -4.153956913033335 ], [ 119.928926236219283, -4.152648817037871 ], [ 119.929087932970447, -4.151349678457933 ], [ 119.928216567144844, -4.149495042435742 ], [ 119.92801893778234, -4.14877827372394 ], [ 119.928180634533476, -4.147461209520469 ], [ 119.928773522620986, -4.146511488392361 ], [ 119.929204713957375, -4.146592125136257 ], [ 119.929375393861363, -4.146403972721034 ], [ 119.929348444402834, -4.145973909889469 ], [ 119.929779635739209, -4.145534887174223 ], [ 119.93065998471765, -4.143868390566601 ], [ 119.93234881745181, -4.142793229601122 ], [ 119.933435778945565, -4.14278426992027 ], [ 119.933840020823439, -4.141700147788139 ], [ 119.934666470884835, -4.140831057072315 ], [ 119.934783251871764, -4.139693173970675 ], [ 119.933462728404095, -4.133824538312227 ], [ 119.932672210954081, -4.132390971851954 ], [ 119.931270839110866, -4.130984282243763 ], [ 119.930821681468785, -4.129326714854523 ], [ 119.929276579180112, -4.127525786361618 ], [ 119.928719623703941, -4.127230111143988 ], [ 119.927417066541977, -4.126970275255784 ], [ 119.925746200113522, -4.125500856908886 ], [ 119.923320748846407, -4.123673040049888 ], [ 119.922638029230455, -4.123036887117587 ], [ 119.922638029230455, -4.122427613409315 ], [ 119.922485315632159, -4.122140896208546 ], [ 119.922188871588418, -4.122114016465672 ], [ 119.921811579169059, -4.121218024516542 ], [ 119.921218691081563, -4.120617709345802 ], [ 119.920482072548566, -4.120259312012921 ], [ 119.916754064119488, -4.119524596975657 ], [ 119.915379641734788, -4.118539002567331 ], [ 119.914508275909185, -4.117580286835191 ], [ 119.913277583969943, -4.11680972942831 ], [ 119.910358059296541, -4.116406530487907 ], [ 119.908759058090823, -4.11603021129263 ], [ 119.907986506946472, -4.114955012611812 ], [ 119.906971410675411, -4.112715010698305 ], [ 119.906333606823708, -4.11194444858424 ], [ 119.905534106220827, -4.111299326241356 ], [ 119.903548829442911, -4.110860284348314 ], [ 119.901042529800236, -4.110725883720472 ], [ 119.899362680218914, -4.110385402028533 ], [ 119.898266735572292, -4.109928439529249 ], [ 119.896946212104638, -4.108423149444309 ], [ 119.895868233763693, -4.105815765254736 ], [ 119.895481958191525, -4.102832047124044 ], [ 119.895140598383563, -4.096801856044844 ], [ 119.895176530994931, -4.09065513603726 ], [ 119.895419076121641, -4.08537752102291 ], [ 119.896191627265992, -4.080458286628343 ], [ 119.896541970226792, -4.078585564703499 ], [ 119.897404352899557, -4.076775561374737 ], [ 119.898203853502395, -4.075861597749243 ], [ 119.89997353461213, -4.075099960601064 ], [ 119.90654021933905, -4.07354980276571 ], [ 119.907222938954959, -4.072824005295878 ], [ 119.908175153156137, -4.069436941782513 ], [ 119.909387878789687, -4.069831203876662 ], [ 119.911076711523847, -4.070736213862638 ], [ 119.912262487698882, -4.071139435806019 ], [ 119.913448263873917, -4.07128280355944 ], [ 119.914634040048952, -4.071103593863675 ], [ 119.915765917306956, -4.070592846011878 ], [ 119.916457620075732, -4.070440517642472 ], [ 119.917544581569487, -4.070565964537018 ], [ 119.919368161596267, -4.071336566460388 ], [ 119.920697668216761, -4.073065937858568 ], [ 119.924075333685053, -4.076784521797295 ], [ 119.927291302402196, -4.07992066355601 ], [ 119.931782878822801, -4.082967189540097 ], [ 119.93335493056999, -4.083746739919593 ], [ 119.938071085811643, -4.084069312268926 ], [ 119.941179256694681, -4.085198314470375 ], [ 119.944161663437967, -4.085735934007876 ], [ 119.94559896789255, -4.086631965769602 ], [ 119.947584244670466, -4.088235860122996 ], [ 119.949048498583565, -4.088809318777872 ], [ 119.951195472112616, -4.090789540040553 ], [ 119.951770393894463, -4.091076268505543 ], [ 119.952623793414361, -4.091130030081304 ], [ 119.953665839143937, -4.090807460572621 ], [ 119.95591162735424, -4.088827239354226 ], [ 119.956684178498591, -4.088513629210184 ], [ 119.958983865625939, -4.088450907166653 ], [ 119.959567770560597, -4.088137296875375 ], [ 119.960511001608936, -4.087250227101477 ], [ 119.961579996797042, -4.087142703425829 ], [ 119.962496278386837, -4.087536956832714 ], [ 119.963466458893691, -4.087644480455492 ], [ 119.964858847584068, -4.087527996530166 ], [ 119.966520730859713, -4.086605084831316 ], [ 119.968901266362622, -4.084499408532992 ], [ 119.970033143620611, -4.08371985888463 ], [ 119.971236886101337, -4.083182237996273 ], [ 119.972503510651933, -4.082339964547169 ], [ 119.972826904154218, -4.081641056120643 ], [ 119.972988600905353, -4.078791653932918 ], [ 119.973311994407652, -4.077725365609997 ], [ 119.973716236285497, -4.076954769806914 ], [ 119.975045742905991, -4.075126841924456 ], [ 119.975360153255423, -4.073818616477269 ], [ 119.975234389115656, -4.07276128202701 ], [ 119.974416922207126, -4.070601806503297 ], [ 119.974398955901435, -4.069239810663058 ], [ 119.974893029307694, -4.067331220511793 ], [ 119.975441001630998, -4.066058824565897 ], [ 119.976671693570268, -4.064195029695376 ], [ 119.97755204254868, -4.062178900586149 ], [ 119.977992217037908, -4.061569580574929 ], [ 119.978836633404967, -4.060906496510504 ], [ 119.979959527510118, -4.060512230051752 ], [ 119.98218734941473, -4.060512230051752 ], [ 119.982977866864772, -4.060359899777472 ], [ 119.983813300079007, -4.059992514880048 ], [ 119.985259587686429, -4.059884987561365 ], [ 119.985861458926806, -4.06000147548929 ], [ 119.988035381914372, -4.061336605154921 ], [ 119.989805063024079, -4.062116176488593 ], [ 119.993317475784977, -4.061488935244847 ], [ 119.994584100335587, -4.061354526343464 ], [ 119.996075303707244, -4.061399329313078 ], [ 119.998141428860691, -4.062062412972521 ], [ 120.000000941498826, -4.063397539227965 ], [ 120.000665694809086, -4.063648435190376 ], [ 120.000800442101706, -4.064356319806388 ], [ 120.00097112200568, -4.064553452120476 ], [ 120.001438245953409, -4.064562412679064 ], [ 120.001653841621632, -4.064374240927841 ], [ 120.001806555219929, -4.063433381513088 ], [ 120.000477048599436, -4.061677107669168 ], [ 120.000378233918156, -4.060861693513528 ], [ 120.000468065446583, -4.060709363305204 ], [ 120.001258582896597, -4.060718323906489 ], [ 120.001357397577848, -4.060117963400407 ], [ 120.000584846433526, -4.0595713661334 ], [ 120.000477048599436, -4.058917241048734 ], [ 120.000872307324428, -4.058451288610439 ], [ 120.001420279647732, -4.058209351661434 ], [ 120.001797572067076, -4.057841965785459 ], [ 120.001788588914238, -4.057573146745941 ], [ 120.001312481813642, -4.05692798068608 ], [ 120.00132146496648, -4.056399302558472 ], [ 120.001608925857425, -4.056005033899127 ], [ 120.002830634643814, -4.055279220636824 ], [ 120.003127078687569, -4.054463800021397 ], [ 120.002300628626173, -4.053191383791476 ], [ 120.002417409613116, -4.051470930493868 ], [ 120.001797572067076, -4.050924327378089 ], [ 120.001501128023307, -4.050270195295105 ], [ 120.001087902992623, -4.049938648694939 ], [ 120.001204683979552, -4.049472691081321 ], [ 120.001060953534093, -4.047805994344568 ], [ 120.001231633438067, -4.047062252220446 ], [ 120.001707740538677, -4.046085529598238 ], [ 120.001779605761399, -4.04547619745753 ], [ 120.001671807927309, -4.04476829630679 ], [ 120.000962138852842, -4.043227041029502 ], [ 120.001025020922725, -4.042599785135692 ], [ 120.00156401009319, -4.041605135509156 ], [ 120.002291645473335, -4.041094369010589 ], [ 120.004474551613754, -4.041273585362512 ], [ 120.006971868103591, -4.041094369010589 ] ] ] } },
{ "type": "Feature", "properties": { "FID": 23, "REMARK": "Danau/Situ" }, "geometry": { "type": "Polygon", "coordinates": [ [ [ 119.996829888545889, -3.993170500903552 ], [ 119.996722090711799, -3.993502070600158 ], [ 119.997216164118072, -3.993735065441959 ], [ 119.997341928257853, -3.994254822927596 ], [ 119.997305995646485, -3.994595353515541 ], [ 119.996946669532818, -3.994568469526894 ], [ 119.99691073692145, -3.994720812117577 ], [ 119.997314978799324, -3.994792502738701 ], [ 119.997332945105001, -3.994908999984663 ], [ 119.996740057017476, -3.99547356332691 ], [ 119.995796825969151, -3.99543771804689 ], [ 119.995698011287899, -3.995097187808581 ], [ 119.996443612973721, -3.99419209359335 ], [ 119.996021404790199, -3.994147286923095 ], [ 119.996093270012921, -3.994326513589435 ], [ 119.995940556414624, -3.994658082818957 ], [ 119.995644112370854, -3.994783541411403 ], [ 119.995581230300957, -3.994980690589342 ], [ 119.995527331383911, -3.994649121490191 ], [ 119.995123089506066, -3.994353397586009 ], [ 119.995689028135047, -3.993932214871816 ], [ 119.995832758580505, -3.99419209359335 ], [ 119.99601242163736, -3.994129364254309 ], [ 119.99598547217883, -3.993833640162807 ], [ 119.996165135235657, -3.993717142764169 ], [ 119.996335815139631, -3.993941176208411 ], [ 119.996542427654973, -3.993923253535123 ], [ 119.996569377113502, -3.993197384937995 ], [ 119.996829888545889, -3.993170500903552 ] ] ] } },
{ "type": "Feature", "properties": { "FID": 24, "REMARK": "Danau/Situ" }, "geometry": { "type": "Polygon", "coordinates": [ [ [ 120.269540442498908, -3.994183132259495 ], [ 120.268516363075008, -3.993717142764169 ], [ 120.268633144061937, -3.992668665432289 ], [ 120.268848739730132, -3.992641781380529 ], [ 120.269091284856827, -3.992946467248935 ], [ 120.269630274027321, -3.99312569417752 ], [ 120.269540442498908, -3.994183132259495 ] ] ] } },
{ "type": "Feature", "properties": { "FID": 25, "REMARK": "Danau/Situ" }, "geometry": { "type": "Polygon", "coordinates": [ [ [ 120.115200893534336, -3.986709345768833 ], [ 120.114940382101921, -3.986592847359748 ], [ 120.115057163088849, -3.986189583508515 ], [ 120.115668017482065, -3.986368811911259 ], [ 120.115641068023535, -3.986539078857677 ], [ 120.115200893534336, -3.986709345768833 ] ] ] } },
{ "type": "Feature", "properties": { "FID": 26, "REMARK": "Danau/Situ" }, "geometry": { "type": "Polygon", "coordinates": [ [ [ 120.106136892317565, -3.985875933709705 ], [ 120.105966212413563, -3.985813203735586 ], [ 120.105957229260724, -3.9852934409088 ], [ 120.106109942859035, -3.985221749458634 ], [ 120.106469268972688, -3.98549955379321 ], [ 120.106136892317565, -3.985875933709705 ] ] ] } },
{ "type": "Feature", "properties": { "FID": 27, "REMARK": "Danau/Situ" }, "geometry": { "type": "Polygon", "coordinates": [ [ [ 120.011966501083322, -3.979522259182361 ], [ 120.013799064262898, -3.979495374700758 ], [ 120.015110604577714, -3.979773180968329 ], [ 120.0153441665516, -3.980015141189537 ], [ 120.015523829608426, -3.981045711705775 ], [ 120.015811290499343, -3.981350401872202 ], [ 120.017724702054522, -3.982291356085994 ], [ 120.019242854884666, -3.982766313518705 ], [ 120.020734058256309, -3.98436145156923 ], [ 120.022512722518869, -3.985795280884959 ], [ 120.022710351881372, -3.98628815913486 ], [ 120.022791200256947, -3.98716637782967 ], [ 120.022404924684778, -3.988035634185277 ], [ 120.022943913855244, -3.98877046873783 ], [ 120.022898998091037, -3.989030349093023 ], [ 120.02250373936603, -3.989505302633219 ], [ 120.022467806754662, -3.989962333139075 ], [ 120.022728318187049, -3.990311826883746 ], [ 120.023429004108678, -3.990392479265243 ], [ 120.02352781878993, -3.99082262516614 ], [ 120.022791200256947, -3.992247481853542 ], [ 120.02261153720012, -3.993331805097009 ], [ 120.022279160545011, -3.993376611811789 ], [ 120.022189329016598, -3.993546877305641 ], [ 120.023312223121749, -3.994828348046912 ], [ 120.02366256608255, -3.996817760196818 ], [ 120.02409375741891, -3.997803503167721 ], [ 120.024111723724587, -3.998430793532112 ], [ 120.02476749388201, -3.999049122135771 ], [ 120.024677662353596, -3.999282115401649 ], [ 120.024039858501865, -3.999730179188309 ], [ 120.022458823601823, -3.999783946826246 ], [ 120.022135430099553, -3.999999017342705 ], [ 120.021713221916002, -4.001038524043055 ], [ 120.020823889784708, -4.001952571948268 ], [ 120.020787957173354, -4.002418556762249 ], [ 120.020338799531302, -4.002741161478132 ], [ 120.019970490264825, -4.003565595174567 ], [ 120.019871675583573, -4.004309377036117 ], [ 120.018667933102847, -4.005599792156147 ], [ 120.018227758613619, -4.007069429119642 ], [ 120.017616904220432, -4.007230730576786 ], [ 120.017113847661307, -4.008288150452396 ], [ 120.016323330211279, -4.009166345580843 ], [ 120.016116717695937, -4.009874277701697 ], [ 120.014661446935662, -4.009641287451129 ], [ 120.014841109992489, -4.008306072811385 ], [ 120.014616531171455, -4.007311381293428 ], [ 120.014338053433391, -4.006791632091105 ], [ 120.014284154516346, -4.006191231739396 ], [ 120.012891765825941, -4.004748476853963 ], [ 120.012981597354369, -4.003036882356033 ], [ 120.012137180987295, -4.001845036953542 ], [ 120.011984467388999, -4.001674773183014 ], [ 120.011553276052609, -4.001701656938608 ], [ 120.010169870515071, -4.00260674286196 ], [ 120.009756645484373, -4.00260674286196 ], [ 120.008660700837751, -4.001862959453643 ], [ 120.008247475807039, -4.000689034868564 ], [ 120.008328324182614, -3.999757063007718 ], [ 120.008930195422977, -3.999156657497485 ], [ 120.010205803126425, -3.998439754819554 ], [ 120.010124954750864, -3.997418167420182 ], [ 120.010583095545755, -3.996602688845684 ], [ 120.011068185799189, -3.996522037074465 ], [ 120.011966501083322, -3.99698802497646 ], [ 120.013161260411195, -3.997023870188723 ], [ 120.013592451747556, -3.996817760196818 ], [ 120.013736182193014, -3.996280081713225 ], [ 120.013610418053247, -3.995814093408975 ], [ 120.011786838026467, -3.993609606689208 ], [ 120.01128378146737, -3.993394534497015 ], [ 120.010672927074182, -3.993394534497015 ], [ 120.010008173763921, -3.993636490709269 ], [ 120.009352403606513, -3.994989651914485 ], [ 120.008534936697984, -3.99589474524981 ], [ 120.008193576889994, -3.997247902729858 ], [ 120.007960014916137, -3.997418167420182 ], [ 120.007142548007579, -3.997337515729173 ], [ 120.006612541989952, -3.998323258075165 ], [ 120.005687277247304, -3.998672748258661 ], [ 120.00516625438253, -3.99916561877699 ], [ 120.005184220688207, -3.999506147325603 ], [ 120.00551659734333, -3.999837714460651 ], [ 120.005354900592195, -4.000160320193004 ], [ 120.005417782662079, -4.000563577179816 ], [ 120.006028637055266, -4.001181904174069 ], [ 120.005822024539924, -4.001665811930954 ], [ 120.005920839221176, -4.002391673030189 ], [ 120.005507614190492, -4.002794928918422 ], [ 120.00527405221662, -4.002499207953136 ], [ 120.005004557631395, -4.002785967678618 ], [ 120.004088276041585, -4.002651549069803 ], [ 120.004133191805792, -4.002508169196077 ], [ 120.004914726102953, -4.002427518006073 ], [ 120.004932692408644, -4.001647889426537 ], [ 120.004097259194424, -4.00150450937709 ], [ 120.004402686391018, -4.001092291595125 ], [ 120.004258955945559, -4.000841376321929 ], [ 120.003360640661441, -4.000357468078021 ], [ 120.002004184582418, -3.999900443363001 ], [ 120.001330448119319, -3.999828753188496 ], [ 120.000818408407383, -3.999981094801822 ], [ 119.999893143664735, -4.001289439255861 ], [ 119.999192457743121, -4.001244632973497 ], [ 119.998904996852204, -4.000473964533232 ], [ 119.999354154494284, -3.998592096691081 ], [ 119.999273306118681, -3.997830387050326 ], [ 119.998976862074926, -3.996979063673149 ], [ 119.997979732109556, -3.995921629194992 ], [ 119.998069563637969, -3.995724480243191 ], [ 119.998366007681739, -3.99574240287713 ], [ 119.998797199018114, -3.995419795406292 ], [ 119.998949912616411, -3.994568469526894 ], [ 119.99948890178689, -3.995025497214084 ], [ 119.999443986022683, -3.995590060476157 ], [ 119.999785345830645, -3.995491485966332 ], [ 119.999929076276104, -3.99562590574952 ], [ 120.000135688791445, -3.995491485966332 ], [ 119.999893143664735, -3.995186801042894 ], [ 119.999713480607923, -3.995186801042894 ], [ 120.000009924651678, -3.994998613239531 ], [ 119.99994704258178, -3.99457743085654 ], [ 119.99959669962098, -3.994380281581702 ], [ 119.999399070258491, -3.993932214871816 ], [ 119.998788215865275, -3.993493109258767 ], [ 119.9987073674897, -3.992946467248935 ], [ 119.999129575673223, -3.993170500903552 ], [ 119.999452969175536, -3.992865815118304 ], [ 119.999785345830645, -3.992874776466543 ], [ 120.000521964363628, -3.992444631640708 ], [ 120.00199520142958, -3.992113061516964 ], [ 120.002049100346625, -3.991593302675132 ], [ 120.001833504678444, -3.990992891189673 ], [ 120.002264696014819, -3.990078831070487 ], [ 120.002318594931864, -3.988815275701487 ], [ 120.003082162923363, -3.987596525419512 ], [ 120.003019280853479, -3.987094686542813 ], [ 120.002686904198342, -3.986682461522048 ], [ 120.002426392765955, -3.985965547950145 ], [ 120.002426392765955, -3.98497979076819 ], [ 120.002884533560874, -3.983886495057294 ], [ 120.003414539578486, -3.983312962300055 ], [ 120.005444732120594, -3.982121088260353 ], [ 120.006801188199617, -3.981664053396314 ], [ 120.007196446924624, -3.981314555976121 ], [ 120.007870183387723, -3.980131640529948 ], [ 120.008382223099659, -3.979773180968329 ], [ 120.011140051021911, -3.97930718330497 ], [ 120.011966501083322, -3.979522259182361 ] ] ] } },
{ "type": "Feature", "properties": { "FID": 28, "REMARK": "Danau/Situ" }, "geometry": { "type": "Polygon", "coordinates": [ [ [ 120.127319166717086, -3.976376768881182 ], [ 120.126843059616519, -3.976233384421776 ], [ 120.126977806909125, -3.975023577052574 ], [ 120.127283234105718, -3.974996692424204 ], [ 120.1274089982455, -3.975158000181265 ], [ 120.127247301494364, -3.975749461687142 ], [ 120.127319166717086, -3.976376768881182 ] ] ] } },
{ "type": "Feature", "properties": { "FID": 29, "REMARK": "Danau/Situ" }, "geometry": { "type": "Polygon", "coordinates": [ [ [ 120.104169581845341, -3.960272746080578 ], [ 120.103864154648747, -3.960577443915186 ], [ 120.104034834552721, -3.960882141637606 ], [ 120.104187548151017, -3.960935911812271 ], [ 120.10450195850045, -3.960622252410814 ], [ 120.104510941653288, -3.961186839247834 ], [ 120.104798402544205, -3.961383996465247 ], [ 120.105517054771511, -3.961052413845388 ], [ 120.105687734675485, -3.961437766607298 ], [ 120.106172824928933, -3.961697655577944 ], [ 120.106154858623242, -3.96207404635621 ], [ 120.10678367932212, -3.962271203362192 ], [ 120.106612999418132, -3.962593823816075 ], [ 120.107223853811348, -3.96291644414412 ], [ 120.10743046632669, -3.963256987687193 ], [ 120.106630965723824, -3.963050869243663 ], [ 120.10619079123461, -3.962414590246119 ], [ 120.105723667286853, -3.962109893088066 ], [ 120.105561970535717, -3.962145739818367 ], [ 120.105508071618672, -3.962342896807262 ], [ 120.105292475950492, -3.962091969722331 ], [ 120.104313312290799, -3.961921697728493 ], [ 120.103864154648747, -3.962531092071009 ], [ 120.104007885094205, -3.963875342709534 ], [ 120.103855171495908, -3.96389326603662 ], [ 120.103549744299286, -3.963391412731383 ], [ 120.103603643216331, -3.962549015427227 ], [ 120.103316182325415, -3.962441475284089 ], [ 120.103576693757802, -3.962002352887838 ], [ 120.103199401338486, -3.961088260621508 ], [ 120.102938889906099, -3.961106184008986 ], [ 120.102211254525955, -3.961688693890661 ], [ 120.102040574621967, -3.961625962076954 ], [ 120.102831092072009, -3.960290669485718 ], [ 120.103172451879956, -3.960192090752638 ], [ 120.103675508439053, -3.960308592890472 ], [ 120.104232463915224, -3.960075588598405 ], [ 120.104169581845341, -3.960272746080578 ] ] ] } },
{ "type": "Feature", "properties": { "FID": 30, "REMARK": "Danau/Situ" }, "geometry": { "type": "MultiPolygon", "coordinates": [ [ [ [ 119.895571789719938, -3.998457677394145 ], [ 119.895661621248351, -3.998511445115565 ], [ 119.894907036409705, -3.998269490341401 ], [ 119.894745339658542, -3.997579470778399 ], [ 119.895104665772209, -3.998242606473198 ], [ 119.895571789719938, -3.998457677394145 ] ] ], [ [ [ 119.898877589965494, -3.97959395112901 ], [ 119.898877589965494, -3.979773180968329 ], [ 119.898581145921753, -3.97907418437442 ], [ 119.898114021973996, -3.978921838884194 ], [ 119.89806012305695, -3.978599224811882 ], [ 119.897539100192162, -3.978169072518934 ], [ 119.897566049650692, -3.977819573615545 ], [ 119.897844527388756, -3.977550728204365 ], [ 119.898563179616062, -3.977496959111604 ], [ 119.898769792131404, -3.977649304865316 ], [ 119.8985721627689, -3.978124264975502 ], [ 119.898877589965494, -3.97959395112901 ] ] ], [ [ [ 119.89881470789561, -3.973742075458823 ], [ 119.89873385952005, -3.973473228717931 ], [ 119.898311651336513, -3.973150612513194 ], [ 119.898203853502395, -3.972765265214405 ], [ 119.897601982262046, -3.97237095616421 ], [ 119.89733248767682, -3.971887031163242 ], [ 119.898455381781972, -3.972218609435258 ], [ 119.89881470789561, -3.973742075458823 ] ] ], [ [ [ 119.898266735572292, -3.968015620941769 ], [ 119.898185887196718, -3.968221738147145 ], [ 119.898033173598421, -3.967666117736845 ], [ 119.898203853502395, -3.967424153892965 ], [ 119.898266735572292, -3.968015620941769 ] ] ] ] } },
{ "type": "Feature", "properties": { "FID": 31, "REMARK": "Danau/Situ" }, "geometry": { "type": "Polygon", "coordinates": [ [ [ 120.27109452794042, -3.949921914828221 ], [ 120.270187229503463, -3.949886067569031 ], [ 120.26996265068243, -3.949133274768334 ], [ 120.270115364280727, -3.948568679719713 ], [ 120.270348926254599, -3.948550756061087 ], [ 120.27087893227224, -3.949178083882726 ], [ 120.27109452794042, -3.949921914828221 ] ] ] } },
{ "type": "Feature", "properties": { "FID": 32, "REMARK": "Danau/Situ" }, "geometry": { "type": "Polygon", "coordinates": [ [ [ 120.20463716322125, -3.934767348126315 ], [ 120.204484449622953, -3.934785272082046 ], [ 120.204313769718979, -3.934462640819899 ], [ 120.204709028443972, -3.934086237522807 ], [ 120.20497852302924, -3.934032465609341 ], [ 120.204933607265033, -3.934641880425407 ], [ 120.20463716322125, -3.934767348126315 ] ] ] } },
{ "type": "Feature", "properties": { "FID": 33, "REMARK": "Danau/Situ" }, "geometry": { "type": "Polygon", "coordinates": [ [ [ 120.17017778892243, -3.933862187860466 ], [ 120.170052024782663, -3.933745682012239 ], [ 120.170240670992328, -3.933405126362476 ], [ 120.17031253621505, -3.93362917614772 ], [ 120.17017778892243, -3.933862187860466 ] ] ] } },
{ "type": "Feature", "properties": { "FID": 34, "REMARK": "Danau/Situ" }, "geometry": { "type": "Polygon", "coordinates": [ [ [ 120.168812349690583, -3.932186294475597 ], [ 120.168542855105343, -3.93205186437894 ], [ 120.168677602397963, -3.931720270047829 ], [ 120.168839299149099, -3.931774042110483 ], [ 120.168812349690583, -3.932186294475597 ] ] ] } },
{ "type": "Feature", "properties": { "FID": 35, "REMARK": "Danau/Situ" }, "geometry": { "type": "Polygon", "coordinates": [ [ [ 120.201142716766029, -3.932078750400006 ], [ 120.201978149980263, -3.932249028513285 ], [ 120.202112897272883, -3.932508926619119 ], [ 120.201987133133102, -3.93289429262687 ], [ 120.201546958643902, -3.933261734468305 ], [ 120.200819323263758, -3.933243810479798 ], [ 120.200684575971138, -3.933969731705908 ], [ 120.199615580783032, -3.93359332818613 ], [ 120.199750328075652, -3.933001836597231 ], [ 120.2000018563552, -3.933100418557869 ], [ 120.20019050256488, -3.932392420581698 ], [ 120.200819323263758, -3.932132522439537 ], [ 120.20075644119386, -3.93158583987602 ], [ 120.201142716766029, -3.932078750400006 ] ] ] } },
{ "type": "Feature", "properties": { "FID": 36, "REMARK": "Danau/Situ" }, "geometry": { "type": "Polygon", "coordinates": [ [ [ 120.15637068300552, -3.93051935974492 ], [ 120.156334750394151, -3.930151916694741 ], [ 120.156550346062346, -3.930295309123829 ], [ 120.15637068300552, -3.93051935974492 ] ] ] } },
{ "type": "Feature", "properties": { "FID": 37, "REMARK": "Danau/Situ" }, "geometry": { "type": "Polygon", "coordinates": [ [ [ 120.162578041618772, -3.927346797343099 ], [ 120.162272614422179, -3.927266138819705 ], [ 120.16204803560116, -3.926916618461583 ], [ 120.16261397423014, -3.926800111643017 ], [ 120.162578041618772, -3.927346797343099 ] ] ] } },
{ "type": "Feature", "properties": { "FID": 38, "REMARK": "Danau/Situ" }, "geometry": { "type": "Polygon", "coordinates": [ [ [ 120.151654527763895, -3.917757340533257 ], [ 120.151501814165599, -3.917730454051108 ], [ 120.151717409833779, -3.917407816197918 ], [ 120.15208571910027, -3.917596021627399 ], [ 120.151654527763895, -3.917757340533257 ] ] ] } },
{ "type": "Feature", "properties": { "FID": 39, "REMARK": "Danau/Situ" }, "geometry": { "type": "Polygon", "coordinates": [ [ [ 120.230239148818669, -3.904573898576671 ], [ 120.230113384678887, -3.90442153943632 ], [ 120.230275081430037, -3.904313991791188 ], [ 120.230364912958436, -3.904457388648302 ], [ 120.230239148818669, -3.904573898576671 ] ] ] } },
{ "type": "Feature", "properties": { "FID": 40, "REMARK": "Danau/Situ" }, "geometry": { "type": "Polygon", "coordinates": [ [ [ 120.223223306449697, -3.90368663025334 ], [ 120.223465851576407, -3.903632856385426 ], [ 120.223151441226975, -3.903991348773131 ], [ 120.222792115113307, -3.903480497074303 ], [ 120.223223306449697, -3.90368663025334 ] ] ] } },
{ "type": "Feature", "properties": { "FID": 41, "REMARK": "Danau/Situ" }, "geometry": { "type": "Polygon", "coordinates": [ [ [ 120.167419961000192, -3.899877639428028 ], [ 120.167114533803584, -3.899788015906561 ], [ 120.167366062083147, -3.899707354729069 ], [ 120.167419961000192, -3.899877639428028 ] ] ] } },
{ "type": "Feature", "properties": { "FID": 42, "REMARK": "Danau/Situ" }, "geometry": { "type": "Polygon", "coordinates": [ [ [ 120.164168059671681, -3.900065848791999 ], [ 120.163602121042672, -3.900003112342026 ], [ 120.16353025581995, -3.899716317082506 ], [ 120.164069244990429, -3.899680467668185 ], [ 120.164257891200094, -3.899931413536321 ], [ 120.164168059671681, -3.900065848791999 ] ] ] } },
{ "type": "Feature", "properties": { "FID": 43, "REMARK": "Danau/Situ" }, "geometry": { "type": "Polygon", "coordinates": [ [ [ 120.235638023676231, -3.886398154551534 ], [ 120.235269714409725, -3.886900054131097 ], [ 120.23510801765859, -3.886747691790306 ], [ 120.235117000811428, -3.886478817004108 ], [ 120.234658860016538, -3.886451929520774 ], [ 120.234578011640977, -3.88629956709902 ], [ 120.234937337754616, -3.886183054640286 ], [ 120.23521581549268, -3.885752854653227 ], [ 120.235647006829069, -3.885600492105196 ], [ 120.235997349789869, -3.885878329672117 ], [ 120.235638023676231, -3.886398154551534 ] ] ] } },
{ "type": "Feature", "properties": { "FID": 44, "REMARK": "Danau/Situ" }, "geometry": { "type": "Polygon", "coordinates": [ [ [ 120.045069419303118, -3.882257471627248 ], [ 120.04503348669175, -3.881809344551455 ], [ 120.045473661180964, -3.881773494375117 ], [ 120.045473661180964, -3.882087183366463 ], [ 120.045069419303118, -3.882257471627248 ] ] ] } },
{ "type": "Feature", "properties": { "FID": 45, "REMARK": "Danau/Situ" }, "geometry": { "type": "Polygon", "coordinates": [ [ [ 120.325694130909213, -3.879013026227419 ], [ 120.325289889031367, -3.878699336094451 ], [ 120.325424636323973, -3.878349795523414 ], [ 120.32579294559045, -3.878546972273569 ], [ 120.325694130909213, -3.879013026227419 ] ] ] } },
{ "type": "Feature", "properties": { "FID": 46, "REMARK": "Danau/Situ" }, "geometry": { "type": "Polygon", "coordinates": [ [ [ 120.127426964551177, -3.876315287279286 ], [ 120.127193402577319, -3.876162923028708 ], [ 120.127310183564248, -3.875212886494123 ], [ 120.127543745538105, -3.875831306623728 ], [ 120.127426964551177, -3.876315287279286 ] ] ] } },
{ "type": "Feature", "properties": { "FID": 47, "REMARK": "Danau/Situ" }, "geometry": { "type": "Polygon", "coordinates": [ [ [ 120.122037072846481, -3.87440625086297 ], [ 120.121722662497021, -3.874325587257551 ], [ 120.121929275012391, -3.873877455976297 ], [ 120.122108938069204, -3.873967082251537 ], [ 120.122037072846481, -3.87440625086297 ] ] ] } },
{ "type": "Feature", "properties": { "FID": 48, "REMARK": "Danau/Situ" }, "geometry": { "type": "Polygon", "coordinates": [ [ [ 120.12215385383341, -3.873689240767394 ], [ 120.121875376095318, -3.873635464985731 ], [ 120.122270634820353, -3.872990155339236 ], [ 120.12215385383341, -3.873689240767394 ] ] ] } },
{ "type": "Feature", "properties": { "FID": 49, "REMARK": "Danau/Situ" }, "geometry": { "type": "Polygon", "coordinates": [ [ [ 120.301870809574353, -3.873008080613838 ], [ 120.301736062281748, -3.873008080613838 ], [ 120.301718095976057, -3.872488247496225 ], [ 120.301978607408444, -3.87270335089396 ], [ 120.301870809574353, -3.873008080613838 ] ] ] } },
{ "type": "Feature", "properties": { "FID": 50, "REMARK": "Danau/Situ" }, "geometry": { "type": "Polygon", "coordinates": [ [ [ 120.049444214736781, -3.872730238814833 ], [ 120.049093871775952, -3.872586836560307 ], [ 120.049174720151527, -3.872111816418656 ], [ 120.049399298972574, -3.872111816418656 ], [ 120.049875406073156, -3.872559948634878 ], [ 120.049444214736781, -3.872730238814833 ] ] ] } },
{ "type": "Feature", "properties": { "FID": 51, "REMARK": "Danau/Situ" }, "geometry": { "type": "Polygon", "coordinates": [ [ [ 120.102112439844703, -3.855243947524678 ], [ 120.101851928412316, -3.855064691007781 ], [ 120.101914810482199, -3.854724103521562 ], [ 120.102139389303218, -3.854634475213042 ], [ 120.102561597486755, -3.85476891767228 ], [ 120.102112439844703, -3.855243947524678 ] ] ] } },
{ "type": "Feature", "properties": { "FID": 52, "REMARK": "Danau/Situ" }, "geometry": { "type": "MultiPolygon", "coordinates": [ [ [ [ 120.067464419336218, -3.853585823301564 ], [ 120.067383570960629, -3.853603748986126 ], [ 120.067769846532812, -3.853272123760572 ], [ 120.067464419336218, -3.853585823301564 ] ] ], [ [ [ 120.07176734954713, -3.853442417811465 ], [ 120.072045827285237, -3.852985312650432 ], [ 120.072324305023301, -3.852994275499087 ], [ 120.072387187093184, -3.852752278552243 ], [ 120.072746513206823, -3.85277020425437 ], [ 120.072944142569327, -3.852259321595755 ], [ 120.073087873014813, -3.852223470169597 ], [ 120.073465165434129, -3.852348950154542 ], [ 120.073384317058569, -3.852976349801682 ], [ 120.073995171451756, -3.853272123760572 ], [ 120.073968221993226, -3.853594786143892 ], [ 120.076151128133645, -3.854204259200649 ], [ 120.076276892273412, -3.854634475213042 ], [ 120.076142144980807, -3.854795806161577 ], [ 120.074093986133008, -3.855252910349531 ], [ 120.074120935591523, -3.855485943762541 ], [ 120.074956368805758, -3.85552179505118 ], [ 120.074812638360314, -3.855763791209954 ], [ 120.075037217181332, -3.855943047579448 ], [ 120.075926549312612, -3.855701051471702 ], [ 120.076510454247313, -3.855136393619076 ], [ 120.076887746666628, -3.855243947524678 ], [ 120.077417752684241, -3.855154319270954 ], [ 120.077965725007573, -3.854759954842327 ], [ 120.078639461470644, -3.854598623886989 ], [ 120.079699473505912, -3.854033965302287 ], [ 120.080346260510481, -3.853980188274667 ], [ 120.081226609488922, -3.854150482183798 ], [ 120.081100845349155, -3.854338701727901 ], [ 120.080346260510481, -3.854589661055239 ], [ 120.080004900702534, -3.85485854596663 ], [ 120.079394046309318, -3.854849583137619 ], [ 120.079133534876931, -3.855342538592863 ], [ 120.078720309846219, -3.855701051471702 ], [ 120.078450815260993, -3.855745865570926 ], [ 120.07798369131325, -3.855548683516667 ], [ 120.077525550518345, -3.855692088651573 ], [ 120.077857927173483, -3.855808605305872 ], [ 120.077893859784851, -3.85602371293339 ], [ 120.077112325487647, -3.856471853649218 ], [ 120.076726049915493, -3.85652563051924 ], [ 120.076312824884781, -3.856364299898968 ], [ 120.0767709656797, -3.857439836788993 ], [ 120.077220123321752, -3.857986567519558 ], [ 120.077166224404692, -3.858138935037523 ], [ 120.076438589024548, -3.8576907952008 ], [ 120.076196043897852, -3.857063399032314 ], [ 120.075881633548406, -3.856964808163724 ], [ 120.075728919950109, -3.857018585002556 ], [ 120.075666037880225, -3.857439836788993 ], [ 120.075360610683632, -3.85789693955505 ], [ 120.075378576989308, -3.858219600183031 ], [ 120.075109082404055, -3.858237525769881 ], [ 120.074776705748945, -3.857753534792171 ], [ 120.074848570971668, -3.85724265512772 ], [ 120.074704840526209, -3.856722812346876 ], [ 120.074282632342687, -3.856337411459279 ], [ 120.073330418141524, -3.856319485832346 ], [ 120.072530917538643, -3.85717991549863 ], [ 120.072611765914218, -3.85789693955505 ], [ 120.073168721390374, -3.858873883858015 ], [ 120.073141771931859, -3.859080027925184 ], [ 120.072746513206823, -3.859115879062192 ], [ 120.072746513206823, -3.859232395247021 ], [ 120.073842457853459, -3.860074896415496 ], [ 120.07405805352164, -3.861114577556256 ], [ 120.074022120910271, -3.861957076857068 ], [ 120.074525177469397, -3.86156271558632 ], [ 120.0743724638711, -3.862261810440784 ], [ 120.075387560142161, -3.864000582324831 ], [ 120.075872650395567, -3.864377017005726 ], [ 120.076214010203529, -3.864412867919005 ], [ 120.077372836920048, -3.863247712461924 ], [ 120.078019623924618, -3.863202898758542 ], [ 120.078971838125796, -3.862817500811744 ], [ 120.079133534876931, -3.862871277279945 ], [ 120.079079635959886, -3.863095345860765 ], [ 120.078414882649625, -3.863677923893967 ], [ 120.078450815260993, -3.864950631436322 ], [ 120.07733690430868, -3.865058184098869 ], [ 120.077256055933105, -3.865246401225503 ], [ 120.077408769531402, -3.865479431895841 ], [ 120.079196416946814, -3.865318102977044 ], [ 120.078899972903059, -3.866035120158976 ], [ 120.078217253287121, -3.866124747264084 ], [ 120.078046573383148, -3.866823838358739 ], [ 120.077220123321752, -3.867173383689867 ], [ 120.077283005391635, -3.86760359313029 ], [ 120.077651314658141, -3.867872473919659 ], [ 120.079016753889988, -3.867917287376259 ], [ 120.07844183210814, -3.868329571065793 ], [ 120.07836098373258, -3.868947996223961 ], [ 120.079295231628066, -3.869136212486849 ], [ 120.080552873025823, -3.869100361773332 ], [ 120.080912199139476, -3.86889422014117 ], [ 120.081819497576433, -3.869154137843038 ], [ 120.082151874231556, -3.868983846943925 ], [ 120.08208000900882, -3.868437123299638 ], [ 120.082367469899765, -3.868714966507214 ], [ 120.08242136881681, -3.869198951231852 ], [ 120.083077138974204, -3.869046585700213 ], [ 120.08376884174298, -3.869449906165403 ], [ 120.084101218398104, -3.869225839264004 ], [ 120.083885622729909, -3.86854467551983 ], [ 120.084514443428816, -3.868024839662433 ], [ 120.084200033079355, -3.868526750150747 ], [ 120.084460544511757, -3.86891214550248 ], [ 120.084370712983329, -3.869449906165403 ], [ 120.084119184703781, -3.869476794189588 ], [ 120.083867656424232, -3.869978703817714 ], [ 120.082978324292952, -3.869539532909367 ], [ 120.08266391394352, -3.870005591825113 ], [ 120.082241705759984, -3.869933890470152 ], [ 120.081765598659388, -3.870489575812333 ], [ 120.079762355575795, -3.870767418346694 ], [ 120.079052686501356, -3.871125924707941 ], [ 120.079268282169537, -3.871744347824329 ], [ 120.080678637165605, -3.872542023350784 ], [ 120.082115941620188, -3.872156629650955 ], [ 120.083436465087871, -3.8723448452007 ], [ 120.083921555341277, -3.872559948634878 ], [ 120.08481987062541, -3.872335882556423 ], [ 120.084595291804376, -3.872954304788891 ], [ 120.084703089638467, -3.873151482796992 ], [ 120.084918685306661, -3.873312810223994 ], [ 120.085951747883399, -3.873411399192022 ], [ 120.086355989761245, -3.873052893798684 ], [ 120.086347006608392, -3.872461359567665 ], [ 120.08651768651238, -3.872685425612905 ], [ 120.08740701864366, -3.872810902572328 ], [ 120.087218372433995, -3.872282106688768 ], [ 120.08762261431184, -3.871242439242666 ], [ 120.087092608294228, -3.870839119631087 ], [ 120.087685496381738, -3.870892895590397 ], [ 120.088026856189714, -3.870301359850168 ], [ 120.088314317080631, -3.871063186105681 ], [ 120.089751621535214, -3.871511318876987 ], [ 120.090245694941487, -3.871215551274537 ], [ 120.090012132967601, -3.870874970271006 ], [ 120.090281627552855, -3.870193807853007 ], [ 120.090245694941487, -3.870785343668362 ], [ 120.09047027376252, -3.871224513930675 ], [ 120.089904335133511, -3.871914638168361 ], [ 120.089958234050556, -3.872165592297129 ], [ 120.090371459081268, -3.872022189946943 ], [ 120.091808763535852, -3.871977376707528 ], [ 120.091629100479025, -3.872308994623022 ], [ 120.092275887483581, -3.87293637951315 ], [ 120.094000652829109, -3.872712313534347 ], [ 120.094333029484218, -3.873034968525031 ], [ 120.093515562575689, -3.872972230064253 ], [ 120.092922674488165, -3.873250071783813 ], [ 120.092078258121077, -3.873250071783813 ], [ 120.091215875448313, -3.872389658420661 ], [ 120.090856549334674, -3.872380695776859 ], [ 120.090218745482971, -3.872658537690608 ], [ 120.089859419369304, -3.872586836560307 ], [ 120.089428228032929, -3.872291069333614 ], [ 120.08920364921191, -3.871753310474868 ], [ 120.088682626347108, -3.871609908054844 ], [ 120.088583811665856, -3.871941526114288 ], [ 120.08898805354373, -3.873294884955846 ], [ 120.089419244880091, -3.873725091286604 ], [ 120.089302463893162, -3.873949156997248 ], [ 120.089392295421575, -3.87463031639322 ], [ 120.088817373639728, -3.875383176140142 ], [ 120.089302463893162, -3.875410063975854 ], [ 120.089302463893162, -3.875562428362071 ], [ 120.088763474722683, -3.87579545619378 ], [ 120.088511946443134, -3.876118110008606 ], [ 120.088610761124386, -3.87579545619378 ], [ 120.088287367622101, -3.875159110809309 ], [ 120.088556862207327, -3.87507844727568 ], [ 120.088772457875521, -3.87467512949215 ], [ 120.088700592652785, -3.87420907314726 ], [ 120.088197536093688, -3.873769904433479 ], [ 120.087416001796498, -3.874020858012122 ], [ 120.086993793612976, -3.874522764946107 ], [ 120.086499720206689, -3.874800606156521 ], [ 120.08649073705385, -3.875203923880225 ], [ 120.08624819192714, -3.87544591442214 ], [ 120.08638293921976, -3.876198773443078 ], [ 120.086652433804986, -3.876386988093588 ], [ 120.086805147403311, -3.876763417268923 ], [ 120.086454804442496, -3.876378025492132 ], [ 120.086338023455554, -3.876449726301115 ], [ 120.086445821289644, -3.876611053099094 ], [ 120.086095478328843, -3.876485576703326 ], [ 120.08579005113225, -3.87658416530157 ], [ 120.08579005113225, -3.876019521356026 ], [ 120.084739022249835, -3.875499690088717 ], [ 120.084101218398104, -3.875589316192083 ], [ 120.084505460275963, -3.876978519579585 ], [ 120.0842539319964, -3.877095033308343 ], [ 120.084047319481058, -3.876279436869855 ], [ 120.083741892284465, -3.87603744656644 ], [ 120.08363409445036, -3.876494539303641 ], [ 120.083382566170812, -3.876817192851719 ], [ 120.083157987349765, -3.876817192851719 ], [ 120.083481380852064, -3.875535540531203 ], [ 120.082870526458862, -3.875427989199186 ], [ 120.082592048720784, -3.875669979676991 ], [ 120.082475267733855, -3.875347325691198 ], [ 120.08208000900882, -3.875150148194842 ], [ 120.081837463882124, -3.875284587401888 ], [ 120.081900345952008, -3.875678942285951 ], [ 120.081711699742343, -3.875813381408944 ], [ 120.082115941620188, -3.876288399472354 ], [ 120.082196789995777, -3.876727566878492 ], [ 120.081936278563361, -3.876915781411295 ], [ 120.081783564965065, -3.876628978296971 ], [ 120.08153203668553, -3.876575202702204 ], [ 120.081361356781542, -3.877507312527318 ], [ 120.081217626336084, -3.876342175085361 ], [ 120.080831350763901, -3.876162923028708 ], [ 120.080247445829229, -3.876162923028708 ], [ 120.07991506917412, -3.875678942285951 ], [ 120.079717439811589, -3.875813381408944 ], [ 120.079726422964427, -3.876646903494466 ], [ 120.079510827296247, -3.876799267657834 ], [ 120.079313197933743, -3.876817192851719 ], [ 120.079124551724092, -3.876485576703326 ], [ 120.078971838125796, -3.87650350190386 ], [ 120.078513697330877, -3.8770322951487 ], [ 120.07833403427405, -3.876799267657834 ], [ 120.077705213575186, -3.877112958495958 ], [ 120.077705213575186, -3.876799267657834 ], [ 120.077516567365493, -3.876575202702204 ], [ 120.076788931985377, -3.876485576703326 ], [ 120.07709435918197, -3.876969556984401 ], [ 120.076510454247313, -3.877175696649615 ], [ 120.076528420552989, -3.877292210351199 ], [ 120.077076392876293, -3.87745353698842 ], [ 120.077552499976861, -3.877337023309071 ], [ 120.077516567365493, -3.877991292223459 ], [ 120.077678264116656, -3.878358758103965 ], [ 120.078163354370076, -3.878959250784323 ], [ 120.078522680483715, -3.879129539675719 ], [ 120.078837090833176, -3.879756919505775 ], [ 120.078765225610439, -3.880043721558634 ], [ 120.077830977714953, -3.880581475145301 ], [ 120.077714196728024, -3.88098479011063 ], [ 120.077830977714953, -3.881244704097346 ], [ 120.078271152204167, -3.881567355831639 ], [ 120.079196416946814, -3.88183623218271 ], [ 120.080355243663334, -3.882418797316308 ], [ 120.081684750283827, -3.882589085510205 ], [ 120.081846447034962, -3.882293321783036 ], [ 120.082053059550304, -3.882463610002243 ], [ 120.08231357098272, -3.88215888369098 ], [ 120.082565099262268, -3.882463610002243 ], [ 120.082834593847494, -3.882490497612663 ], [ 120.083122054738411, -3.882320209398879 ], [ 120.083104088432719, -3.882651823257194 ], [ 120.083409515629342, -3.88260701058125 ], [ 120.083750875437303, -3.8828579615359 ], [ 120.084137151009458, -3.88284899900309 ], [ 120.08387663957707, -3.883082024825225 ], [ 120.08344544824071, -3.882795223804231 ], [ 120.082987307445791, -3.883001362047921 ], [ 120.08263696448499, -3.882929661794955 ], [ 120.08263696448499, -3.883449488490966 ], [ 120.082349503594074, -3.883306088055077 ], [ 120.082124924773026, -3.883512226174006 ], [ 120.080885249680946, -3.883763176859535 ], [ 120.080615755095721, -3.884211302898092 ], [ 120.080085749078094, -3.884139602747913 ], [ 120.079420995767833, -3.885116516770093 ], [ 120.077741146186554, -3.884964154107136 ], [ 120.076779948832538, -3.884480178407002 ], [ 120.07496535195861, -3.883897614696086 ], [ 120.075189930779629, -3.883548076276508 ], [ 120.074857554124506, -3.88298343698525 ], [ 120.074884503583036, -3.882400872241268 ], [ 120.074309581801216, -3.882589085510205 ], [ 120.073887373617666, -3.882284359244233 ], [ 120.073824491547768, -3.881952745241586 ], [ 120.073465165434129, -3.881818307095303 ], [ 120.073195670848904, -3.881441880171841 ], [ 120.072647698525572, -3.881863119813109 ], [ 120.072557866997172, -3.881710756562865 ], [ 120.072773462665353, -3.88127159174658 ], [ 120.072566850150011, -3.88082346414761 ], [ 120.071147512001104, -3.88052769980204 ], [ 120.071237343529518, -3.880375336310875 ], [ 120.071785315852821, -3.880240897913494 ], [ 120.071677518018717, -3.879882395415881 ], [ 120.072171591425004, -3.880052684121218 ], [ 120.07289922680512, -3.879747956940053 ], [ 120.072620749067056, -3.879228127965578 ], [ 120.072450069163068, -3.878412533585271 ], [ 120.071533787573273, -3.877605901006414 ], [ 120.071929046298266, -3.877310135534633 ], [ 120.073141771931859, -3.877274285167385 ], [ 120.073635845338117, -3.876987482174675 ], [ 120.071012764708485, -3.876073296986131 ], [ 120.070590556524934, -3.876153960424878 ], [ 120.069988685284585, -3.875929895298251 ], [ 120.069898853756186, -3.875427989199186 ], [ 120.069225117293087, -3.875266662175517 ], [ 120.069135285764673, -3.874935045419122 ], [ 120.068677144969783, -3.874935045419122 ], [ 120.068686128122621, -3.874764755682885 ], [ 120.069593426559564, -3.874468989217422 ], [ 120.068847824873757, -3.873877455976297 ], [ 120.068578330288531, -3.873850568091874 ], [ 120.068380700925999, -3.874011895385595 ], [ 120.067967475895315, -3.874881269716646 ], [ 120.065991182270253, -3.874182185273375 ], [ 120.066054064340136, -3.873976044878539 ], [ 120.066718817650397, -3.873787829691564 ], [ 120.067653065545883, -3.873859530720111 ], [ 120.067931543283947, -3.873447249723002 ], [ 120.067841711755548, -3.873169408068177 ], [ 120.067176958445287, -3.872945342151068 ], [ 120.067167975292449, -3.872757126734853 ], [ 120.067715947615767, -3.872640612408601 ], [ 120.067428486724864, -3.872084928478139 ], [ 120.066898480707209, -3.871583020098385 ], [ 120.066449323065157, -3.871645758662127 ], [ 120.066754750261751, -3.870946671546291 ], [ 120.066970345929946, -3.870973559522958 ], [ 120.067203907903803, -3.870570239783313 ], [ 120.067635099240206, -3.87052542646705 ], [ 120.067814762297019, -3.869566420930707 ], [ 120.067572217170309, -3.86932442870792 ], [ 120.067742897074297, -3.869109324451853 ], [ 120.068093240035097, -3.868983846943925 ], [ 120.06880290910955, -3.869198951231852 ], [ 120.069377830891383, -3.868939033543733 ], [ 120.070231230411295, -3.869001772303339 ], [ 120.070797169040276, -3.86920791390933 ], [ 120.071111579389736, -3.869638122316776 ], [ 120.07120141091815, -3.869584346277794 ], [ 120.071228360376679, -3.868589488940882 ], [ 120.07086903426304, -3.867675294682463 ], [ 120.070374960856753, -3.867809735076437 ], [ 120.069970718978908, -3.867487078095071 ], [ 120.069009521624892, -3.867657369294987 ], [ 120.06724882366801, -3.867325749558324 ], [ 120.067123059528242, -3.867110644794895 ], [ 120.067257806820848, -3.866581845352754 ], [ 120.067132042681081, -3.866259187903982 ], [ 120.067518318253263, -3.865560096343729 ], [ 120.066682885039029, -3.865336028413982 ], [ 120.066278643161183, -3.865560096343729 ], [ 120.066036098034459, -3.865497357329368 ], [ 120.065928300200355, -3.865300177539727 ], [ 120.066018131728768, -3.86418879968616 ], [ 120.065829485519103, -3.863848215858882 ], [ 120.066368474689597, -3.862987792949355 ], [ 120.06680864917881, -3.862871277279945 ], [ 120.067185941598126, -3.863319414382413 ], [ 120.068704094428298, -3.863453855466998 ], [ 120.069108336306144, -3.863901992261753 ], [ 120.06971919069936, -3.864179836955616 ], [ 120.070383944009592, -3.864762414244047 ], [ 120.07028512932834, -3.864394942462555 ], [ 120.069503595031151, -3.863659998421986 ], [ 120.069234100445925, -3.863068457634191 ], [ 120.068838841720918, -3.862942979232245 ], [ 120.068946639555008, -3.862602394904861 ], [ 120.068407650384529, -3.861491013517408 ], [ 120.068560363982854, -3.860738141428184 ], [ 120.068362734620322, -3.860675402057277 ], [ 120.068362734620322, -3.860325854048791 ], [ 120.067931543283947, -3.860334816820038 ], [ 120.068111206340774, -3.859958380346255 ], [ 120.067742897074297, -3.859662608714075 ], [ 120.068210021022026, -3.85957298092641 ], [ 120.068524431371458, -3.859770162046787 ], [ 120.068686128122621, -3.859716385382133 ], [ 120.069350881432854, -3.858909735003725 ], [ 120.069332915127177, -3.858022418702714 ], [ 120.068982572166377, -3.857296431948968 ], [ 120.068775959651035, -3.856220894877462 ], [ 120.069296982515809, -3.856516667707807 ], [ 120.069332915127177, -3.857144064279926 ], [ 120.069755123310728, -3.857726646396436 ], [ 120.070015634743115, -3.85766390680308 ], [ 120.070096483118689, -3.856946882550025 ], [ 120.070428859773799, -3.857968641927414 ], [ 120.070887000568717, -3.857879013961013 ], [ 120.07130920875224, -3.857556353203692 ], [ 120.07155175387895, -3.856991696583565 ], [ 120.071542770726111, -3.856624221438778 ], [ 120.070428859773799, -3.856086452647828 ], [ 120.070374960856753, -3.855566609159854 ], [ 120.070842084804511, -3.855297724472378 ], [ 120.07086903426304, -3.855037802526987 ], [ 120.070743270123231, -3.854831657479316 ], [ 120.069665291782286, -3.854688252199289 ], [ 120.069665291782286, -3.854473144233901 ], [ 120.070348011398238, -3.85410566800049 ], [ 120.070213264105618, -3.853765080130187 ], [ 120.069844954839141, -3.853630637512261 ], [ 120.06971919069936, -3.853406566435163 ], [ 120.070509708149373, -3.853603748986126 ], [ 120.072800412123868, -3.851631921419915 ], [ 120.072728546901146, -3.851847030103742 ], [ 120.071821248464175, -3.852716427146856 ], [ 120.071677518018717, -3.853227309530987 ], [ 120.07176734954713, -3.853442417811465 ] ], [ [ 120.075396543295, -3.870937708887213 ], [ 120.07496535195861, -3.871305177831646 ], [ 120.074947385652919, -3.871529244182906 ], [ 120.075531290587605, -3.87193256346574 ], [ 120.075648071574548, -3.872452396924622 ], [ 120.07585468408989, -3.872577873918591 ], [ 120.075737903102961, -3.871125924707941 ], [ 120.075396543295, -3.870937708887213 ] ] ] ] } },
{ "type": "Feature", "properties": { "FID": 53, "REMARK": "Danau/Situ" }, "geometry": { "type": "Polygon", "coordinates": [ [ [ 120.283563144083999, -3.832307769855989 ], [ 120.283365514721496, -3.832289843723869 ], [ 120.28323076742889, -3.832074730109114 ], [ 120.283670941918089, -3.831662428862962 ], [ 120.283563144083999, -3.832307769855989 ] ] ] } },
{ "type": "Feature", "properties": { "FID": 54, "REMARK": "Danau/Situ" }, "geometry": { "type": "Polygon", "coordinates": [ [ [ 120.305742548448933, -3.830075963519195 ], [ 120.305320340265368, -3.830031148071289 ], [ 120.305005929915936, -3.829618845840435 ], [ 120.305032879374465, -3.829332026780096 ], [ 120.30541915494662, -3.828901798009395 ], [ 120.305535935933563, -3.828982465920372 ], [ 120.305571868544916, -3.829663661309932 ], [ 120.305904245200068, -3.829932554077631 ], [ 120.305742548448933, -3.830075963519195 ] ] ] } },
{ "type": "Feature", "properties": { "FID": 55, "REMARK": "Danau/Situ" }, "geometry": { "type": "Polygon", "coordinates": [ [ [ 120.332692006972493, -3.801976218252313 ], [ 120.332449461845783, -3.801949328104229 ], [ 120.33249437760999, -3.801752133659318 ], [ 120.332754889042377, -3.8017700604289 ], [ 120.332826754265113, -3.801877621038571 ], [ 120.332692006972493, -3.801976218252313 ] ] ] } },
{ "type": "Feature", "properties": { "FID": 56, "REMARK": "Danau/Situ" }, "geometry": { "type": "Polygon", "coordinates": [ [ [ 120.307422398030212, -3.752066665979743 ], [ 120.308491393218318, -3.751968063095921 ], [ 120.307997319812046, -3.752586571910403 ], [ 120.307287650737607, -3.752470041297675 ], [ 120.30679357733132, -3.752165268852436 ], [ 120.306865442554056, -3.751259914785187 ], [ 120.307063071916573, -3.75131369822133 ], [ 120.307125953986471, -3.751959099196839 ], [ 120.307422398030212, -3.752066665979743 ] ] ] } },
{ "type": "Feature", "properties": { "FID": 57, "REMARK": "Danau/Situ" }, "geometry": { "type": "Polygon", "coordinates": [ [ [ 120.317600310199296, -3.740485233051901 ], [ 120.317681158574857, -3.740924469758401 ], [ 120.317366748225425, -3.741300958188739 ], [ 120.31639656771857, -3.741283030171915 ], [ 120.316073174216299, -3.741444382310127 ], [ 120.315929443770813, -3.741327850213289 ], [ 120.315983342687886, -3.740574873213963 ], [ 120.316657079150957, -3.740521089117826 ], [ 120.317348781919748, -3.740252168587627 ], [ 120.317600310199296, -3.740485233051901 ] ] ] } },
{ "type": "Feature", "properties": { "FID": 58, "REMARK": "Danau/Situ" }, "geometry": { "type": "Polygon", "coordinates": [ [ [ 120.315408420906039, -3.738082873293794 ], [ 120.31537248829467, -3.738271118139397 ], [ 120.314653836067365, -3.738118729457976 ], [ 120.315345538836155, -3.737769131794661 ], [ 120.315408420906039, -3.738082873293794 ] ] ] } }
]
}
