{
"type": "FeatureCollection",
"name": "NON_AGRI_HUTAN_KERING",
"crs": { "type": "name", "properties": { "name": "urn:ogc:def:crs:OGC:1.3:CRS84" } },
"features": [
{ "type": "Feature", "properties": { "FID": 0, "REMARK": "Hutan Rimba" }, "geometry": { "type": "Polygon", "coordinates": [ [ [ 120.293237999693957, -3.741578842402606 ], [ 120.293237999693957, -3.741722266478505 ], [ 120.291719846863799, -3.741758122493811 ], [ 120.29101017778936, -3.742932406183991 ], [ 120.289752536391575, -3.743819840905348 ], [ 120.289159648304064, -3.744590743064602 ], [ 120.287551663945479, -3.745245112969431 ], [ 120.286806062259672, -3.744770022539233 ], [ 120.286096393185218, -3.743999120537839 ], [ 120.28606046057385, -3.743093758018399 ], [ 120.285781982835786, -3.742340782536847 ], [ 120.28592571328123, -3.742053934564091 ], [ 120.286716230731273, -3.741569878397082 ], [ 120.287237253596047, -3.741596770413376 ], [ 120.287632512321082, -3.74204497056343 ], [ 120.287848107989262, -3.742071862565141 ], [ 120.288557777063701, -3.741462310323649 ], [ 120.289303378749523, -3.74230492654539 ], [ 120.290031014129667, -3.742726234352321 ], [ 120.290201694033655, -3.74253799046363 ], [ 120.290309491867745, -3.741623662428847 ], [ 120.290749666356945, -3.741318886205196 ], [ 120.290785598968313, -3.741076857952072 ], [ 120.290381357090467, -3.740825865618962 ], [ 120.293327831222399, -3.74026113260663 ], [ 120.293237999693957, -3.741578842402606 ] ] ] } },
{ "type": "Feature", "properties": { "FID": 1, "REMARK": "Hutan Rimba" }, "geometry": { "type": "Polygon", "coordinates": [ [ [ 120.22331313797811, -3.742000150558743 ], [ 120.222899912947426, -3.742000150558743 ], [ 120.222468721611037, -3.74171330247445 ], [ 120.222989744475839, -3.740485233051901 ], [ 120.22366348093891, -3.739866715683783 ], [ 120.224166537498036, -3.7398398236144 ], [ 120.224462981541777, -3.740045996125262 ], [ 120.224633661445765, -3.740440412967431 ], [ 120.225388246284425, -3.740906541733874 ], [ 120.225181633769083, -3.741345778229196 ], [ 120.22331313797811, -3.742000150558743 ] ] ] } },
{ "type": "Feature", "properties": { "FID": 2, "REMARK": "Hutan Rimba" }, "geometry": { "type": "Polygon", "coordinates": [ [ [ 120.228837776975453, -3.739714327279696 ], [ 120.228397602486211, -3.739795003496925 ], [ 120.228262855193606, -3.740180456432305 ], [ 120.22703216325435, -3.740270096625541 ], [ 120.228604215001582, -3.738961348894197 ], [ 120.228774894905555, -3.739176485641762 ], [ 120.228837776975453, -3.739714327279696 ] ] ] } },
{ "type": "Feature", "properties": { "FID": 3, "REMARK": "Hutan Rimba" }, "geometry": { "type": "Polygon", "coordinates": [ [ [ 120.229942704774913, -3.738782068230901 ], [ 120.230724239072089, -3.740028068082764 ], [ 120.23098475050449, -3.742080826565527 ], [ 120.230814070600488, -3.742071862565141 ], [ 120.230526609709585, -3.741542986379963 ], [ 120.230050502609004, -3.741426454296238 ], [ 120.229861856399353, -3.741202354091667 ], [ 120.229736092259571, -3.741677446457309 ], [ 120.228864726433969, -3.741578842402606 ], [ 120.229053372643634, -3.740736225482572 ], [ 120.229502530285686, -3.74069140541094 ], [ 120.229691176495336, -3.740296988681724 ], [ 120.230140334137417, -3.741041001908886 ], [ 120.230508643403894, -3.741041001908886 ], [ 120.230113384678887, -3.739651579105606 ], [ 120.229754058565248, -3.73947229858346 ], [ 120.229322867228859, -3.739696399230414 ], [ 120.229358799840227, -3.738907564699057 ], [ 120.228703029682833, -3.738853780500618 ], [ 120.229394732451595, -3.738091837334977 ], [ 120.229942704774913, -3.738782068230901 ] ] ] } },
{ "type": "Feature", "properties": { "FID": 4, "REMARK": "Hutan Rimba" }, "geometry": { "type": "Polygon", "coordinates": [ [ [ 120.219037157225699, -3.739113737429175 ], [ 120.218920376238756, -3.739122701459819 ], [ 120.219522247479134, -3.738109765417069 ], [ 120.218947325697286, -3.737240253013493 ], [ 120.219522247479134, -3.73681894256979 ], [ 120.220312764929147, -3.737016151738842 ], [ 120.220501411138798, -3.737329893507323 ], [ 120.220267849164941, -3.737912556493907 ], [ 120.219755809453005, -3.738566931386557 ], [ 120.219037157225699, -3.739113737429175 ] ] ] } },
{ "type": "Feature", "properties": { "FID": 5, "REMARK": "Hutan Rimba" }, "geometry": { "type": "MultiPolygon", "coordinates": [ [ [ [ 120.209371284768579, -3.735079914341997 ], [ 120.209613829895289, -3.734981309545426 ], [ 120.210125869607225, -3.735268159831962 ], [ 120.210763673458956, -3.73593150076047 ], [ 120.21162605613172, -3.738235261981445 ], [ 120.211922500175476, -3.739436442474631 ], [ 120.210242650594154, -3.738952384861903 ], [ 120.209991122314605, -3.738342830450902 ], [ 120.209326369004373, -3.73790359245089 ], [ 120.209101790183325, -3.737007187686665 ], [ 120.208311272733326, -3.736576913074454 ], [ 120.207916014008291, -3.736675517691725 ], [ 120.208041778148058, -3.737258181112991 ], [ 120.207826182479877, -3.737536066608365 ], [ 120.207251260698058, -3.738055981169695 ], [ 120.206739220986094, -3.738208369862019 ], [ 120.207520755283284, -3.735653614756854 ], [ 120.208068727606587, -3.735402620871502 ], [ 120.208751447222525, -3.735581902225507 ], [ 120.20894009343219, -3.735268159831962 ], [ 120.208670598846965, -3.735115770628914 ], [ 120.208904160820822, -3.734828920292572 ], [ 120.209371284768579, -3.735079914341997 ] ] ], [ [ [ 120.207933980313967, -3.734748243618586 ], [ 120.208023811842381, -3.734542069862485 ], [ 120.208167542287867, -3.734479321318408 ], [ 120.207933980313967, -3.734748243618586 ] ] ] ] } },
{ "type": "Feature", "properties": { "FID": 6, "REMARK": "Hutan Rimba" }, "geometry": { "type": "Polygon", "coordinates": [ [ [ 120.242698781809409, -3.734273147499144 ], [ 120.243049124770209, -3.734335896057959 ], [ 120.243318619355463, -3.734748243618586 ], [ 120.243453366648069, -3.735339872388947 ], [ 120.244046254735579, -3.735949428886713 ], [ 120.243246754132713, -3.736316955393979 ], [ 120.242824545949176, -3.735985285138101 ], [ 120.242483186141229, -3.736110782006421 ], [ 120.242294539931564, -3.736612769300198 ], [ 120.24233945569577, -3.736944439318862 ], [ 120.242617933433834, -3.736962367424406 ], [ 120.242851495407706, -3.736523128733089 ], [ 120.243004209006003, -3.736792050406939 ], [ 120.242716748115086, -3.737751203705606 ], [ 120.242186742097473, -3.737634671117817 ], [ 120.241827415983806, -3.7371416484597 ], [ 120.241315376271871, -3.737007187686665 ], [ 120.241557921398581, -3.73692651121295 ], [ 120.24164775292698, -3.736693445802766 ], [ 120.241324359424709, -3.735339872388947 ], [ 120.241117746909367, -3.735115770628914 ], [ 120.241468089870168, -3.735142662843139 ], [ 120.241764533913923, -3.735563974091755 ], [ 120.242186742097473, -3.735752219477888 ], [ 120.242501152446906, -3.734694459165141 ], [ 120.242043011651987, -3.734524141707491 ], [ 120.242016062193471, -3.734335896057959 ], [ 120.242348438848609, -3.734093865877815 ], [ 120.242698781809409, -3.734273147499144 ] ] ] } },
{ "type": "Feature", "properties": { "FID": 7, "REMARK": "Hutan Rimba" }, "geometry": { "type": "Polygon", "coordinates": [ [ [ 120.297756525573078, -3.73668448174729 ], [ 120.29648091786963, -3.736334883512347 ], [ 120.296597698856559, -3.735904608570417 ], [ 120.297666694044665, -3.73518748319835 ], [ 120.297918222324242, -3.734676531013259 ], [ 120.297729576114563, -3.733663589837252 ], [ 120.297460081529323, -3.733296062218958 ], [ 120.29682227767762, -3.733036103566792 ], [ 120.296903126053181, -3.732713396167387 ], [ 120.297145671179891, -3.732283119450392 ], [ 120.297558896210575, -3.731960411774316 ], [ 120.299454341460077, -3.731207426735771 ], [ 120.299508240377122, -3.731664596300432 ], [ 120.300047229547587, -3.732704432071267 ], [ 120.300208926298751, -3.734111794041596 ], [ 120.299175863722013, -3.735178519127491 ], [ 120.298493144106061, -3.736137674190154 ], [ 120.297756525573078, -3.73668448174729 ] ] ] } },
{ "type": "Feature", "properties": { "FID": 8, "REMARK": "Hutan Rimba" }, "geometry": { "type": "Polygon", "coordinates": [ [ [ 120.252804828755757, -3.732543078325449 ], [ 120.252921609742685, -3.733287098128785 ], [ 120.252023294458567, -3.733663589837252 ], [ 120.251232777008525, -3.733609805317355 ], [ 120.250262596501699, -3.732973354915084 ], [ 120.250002085069283, -3.732623755202065 ], [ 120.249418180134626, -3.73264168339586 ], [ 120.249786489401103, -3.731816986102448 ], [ 120.250954299270461, -3.730965395693465 ], [ 120.25152023789947, -3.73080404162822 ], [ 120.251933462930154, -3.730830933974486 ], [ 120.25286771082564, -3.731583919335719 ], [ 120.252643132004621, -3.731799057891819 ], [ 120.252804828755757, -3.732543078325449 ] ] ] } },
{ "type": "Feature", "properties": { "FID": 9, "REMARK": "Hutan Rimba" }, "geometry": { "type": "Polygon", "coordinates": [ [ [ 120.227193860005499, -3.730544082238561 ], [ 120.227337590450958, -3.730938503351314 ], [ 120.22740945567368, -3.732498257835239 ], [ 120.227328607298105, -3.732749252550955 ], [ 120.226897415961744, -3.733000247194937 ], [ 120.226933348573112, -3.733358810847605 ], [ 120.227184876852661, -3.733654625750833 ], [ 120.226771651821963, -3.734551033939844 ], [ 120.226520123542414, -3.734174542611945 ], [ 120.226439275166854, -3.733439487649279 ], [ 120.225882319690683, -3.732444473243969 ], [ 120.225379263131586, -3.730409620455111 ], [ 120.226214696345806, -3.730705436351541 ], [ 120.226502157236737, -3.729826952489094 ], [ 120.226412325708324, -3.729369781968391 ], [ 120.226565039306621, -3.729280140661938 ], [ 120.227095045324248, -3.729692490595923 ], [ 120.227193860005499, -3.730544082238561 ] ] ] } },
{ "type": "Feature", "properties": { "FID": 10, "REMARK": "Hutan Rimba" }, "geometry": { "type": "MultiPolygon", "coordinates": [ [ [ [ 120.231344076618129, -3.72460981595613 ], [ 120.230939834740298, -3.724573959240604 ], [ 120.230571525473792, -3.724206427822238 ], [ 120.231883065788594, -3.724080929253989 ], [ 120.231766284801665, -3.724466389085261 ], [ 120.231344076618129, -3.72460981595613 ] ] ], [ [ [ 120.233482066994341, -3.724798063688679 ], [ 120.233958174094923, -3.724331926372592 ], [ 120.234757674697789, -3.725793086748915 ], [ 120.235611074217715, -3.726079940034811 ], [ 120.235440394313727, -3.726788108683893 ], [ 120.234982253518808, -3.727039105030272 ], [ 120.234874455684718, -3.727469384314564 ], [ 120.235251748104048, -3.727308029607622 ], [ 120.235763787816012, -3.727388706964793 ], [ 120.236509389501833, -3.728105838703251 ], [ 120.2353505627853, -3.727711416319469 ], [ 120.234928354601763, -3.727756237053808 ], [ 120.234847506226203, -3.728688507810101 ], [ 120.235305647021093, -3.729387710228584 ], [ 120.234676826322215, -3.729611813450148 ], [ 120.234353432819944, -3.729961414361692 ], [ 120.234353432819944, -3.730275158651087 ], [ 120.234937337754616, -3.731252247291845 ], [ 120.235278697562563, -3.732184514339725 ], [ 120.235449377466566, -3.731574955228072 ], [ 120.235727855204644, -3.731377744836684 ], [ 120.235224798645518, -3.733780122952393 ], [ 120.234425298042666, -3.734999237691083 ], [ 120.23411088769322, -3.735205411339794 ], [ 120.232799347378403, -3.735707399151519 ], [ 120.231514756522117, -3.735922536697211 ], [ 120.232143577221009, -3.734461393162133 ], [ 120.233005959893745, -3.733027139473966 ], [ 120.233383252313089, -3.730302051013538 ], [ 120.232808330531242, -3.729593885194525 ], [ 120.232242391902261, -3.729584921066577 ], [ 120.232422054959073, -3.73006898384496 ], [ 120.231936964705639, -3.730974359807331 ], [ 120.230850003211884, -3.731297067845631 ], [ 120.230418811875495, -3.732417580947097 ], [ 120.230418811875495, -3.731897663045756 ], [ 120.230760171683443, -3.730902646893834 ], [ 120.230409828722642, -3.730176553315061 ], [ 120.230562542320939, -3.72974627535566 ], [ 120.230921868434606, -3.729558028682184 ], [ 120.230769154836281, -3.729172571082129 ], [ 120.231146447255639, -3.727729344613479 ], [ 120.23146984075791, -3.727406635265382 ], [ 120.231694419578929, -3.727666595582845 ], [ 120.231865099482917, -3.727630738991902 ], [ 120.232305273972145, -3.726662610483845 ], [ 120.232296290819306, -3.726259223291002 ], [ 120.232727482155681, -3.72506698895104 ], [ 120.232520869640325, -3.724296069645745 ], [ 120.232314257124983, -3.724018179963156 ], [ 120.233517999605709, -3.723838896250412 ], [ 120.233517999605709, -3.72414367854035 ], [ 120.233140707186379, -3.72442156818332 ], [ 120.233482066994341, -3.724798063688679 ] ], [ [ 120.233455117535826, -3.734981309545426 ], [ 120.233886308872187, -3.734802028068733 ], [ 120.233652746898329, -3.734093865877815 ], [ 120.233652746898329, -3.733582913056172 ], [ 120.233922241483555, -3.733493272179608 ], [ 120.234982253518808, -3.733618769404234 ], [ 120.235233781798357, -3.733511200355653 ], [ 120.235125983964267, -3.732569970618478 ], [ 120.234389365431312, -3.731377744836684 ], [ 120.233823426802303, -3.731404637165389 ], [ 120.233670713204006, -3.732731324359355 ], [ 120.233014943046584, -3.73376219478184 ], [ 120.232996976740907, -3.734452429083858 ], [ 120.233275454478999, -3.734936489179686 ], [ 120.233455117535826, -3.734981309545426 ] ] ] ] } },
{ "type": "Feature", "properties": { "FID": 11, "REMARK": "Hutan Rimba" }, "geometry": { "type": "Polygon", "coordinates": [ [ [ 120.22455281307019, -3.735151626914364 ], [ 120.224570779375867, -3.735653614756854 ], [ 120.223591615716174, -3.734066973631458 ], [ 120.222935845558794, -3.733313990399029 ], [ 120.222558553139436, -3.731664596300432 ], [ 120.222648384667849, -3.731010216261885 ], [ 120.223151441226975, -3.729898665490373 ], [ 120.223825177690046, -3.729029144955241 ], [ 120.223483817882084, -3.727594882399497 ], [ 120.223654497786072, -3.726438506510658 ], [ 120.224094672275299, -3.72554209004704 ], [ 120.223843143995722, -3.724717386093945 ], [ 120.223897042912768, -3.724179535273404 ], [ 120.225046886476449, -3.724197463639384 ], [ 120.225199600074774, -3.724672565204786 ], [ 120.225693673481018, -3.725353842473646 ], [ 120.225361296825909, -3.726815001153002 ], [ 120.2258194376208, -3.728061017986731 ], [ 120.2258194376208, -3.728607830572184 ], [ 120.224031790205416, -3.728993288419864 ], [ 120.223861110301414, -3.729683526468982 ], [ 120.223241272755388, -3.730777149281133 ], [ 120.222998727628678, -3.731539098796568 ], [ 120.223115508615606, -3.732014196395228 ], [ 120.223798228231516, -3.732408616847958 ], [ 120.223807211384369, -3.73308988812183 ], [ 120.224247385873596, -3.733636697577715 ], [ 120.224229419567919, -3.734156614449445 ], [ 120.224588745681558, -3.734667566937183 ], [ 120.22455281307019, -3.735151626914364 ] ] ] } },
{ "type": "Feature", "properties": { "FID": 12, "REMARK": "Hutan Rimba" }, "geometry": { "type": "Polygon", "coordinates": [ [ [ 120.247738330553304, -3.721544061503142 ], [ 120.249660725261336, -3.722001236089944 ], [ 120.249732590484058, -3.72262873023446 ], [ 120.249552927427231, -3.723112796840437 ], [ 120.249651742108483, -3.723363794235065 ], [ 120.249364281217581, -3.723991287408572 ], [ 120.248510881697655, -3.724349854735469 ], [ 120.247603583260684, -3.72443053236389 ], [ 120.247765280011834, -3.725040096428502 ], [ 120.248232403959591, -3.725452448350445 ], [ 120.248187488195384, -3.725649660070895 ], [ 120.247127476160117, -3.72510284564648 ], [ 120.246795099505007, -3.725335914131223 ], [ 120.245384744508911, -3.725425555839687 ], [ 120.245007452089595, -3.725640695902743 ], [ 120.244899654255505, -3.725954441733739 ], [ 120.245034401548111, -3.726626753851972 ], [ 120.246157295653262, -3.726994284259386 ], [ 120.247666465330582, -3.729280140661938 ], [ 120.248618679531745, -3.729638705832896 ], [ 120.248681561601629, -3.730051055598663 ], [ 120.248555797461862, -3.730302051013538 ], [ 120.248097656666971, -3.73061579518132 ], [ 120.247819178928879, -3.731090893279278 ], [ 120.248447999627771, -3.731960411774316 ], [ 120.248088673514133, -3.732399652748726 ], [ 120.247765280011834, -3.732381724549989 ], [ 120.247145442465794, -3.731413601274776 ], [ 120.246588486989637, -3.731010216261885 ], [ 120.246283059793043, -3.73103710860184 ], [ 120.245762036928255, -3.731619775765394 ], [ 120.243839642220237, -3.731117785616764 ], [ 120.243668962316264, -3.730328943375167 ], [ 120.243103023687254, -3.730167589193056 ], [ 120.242968276394635, -3.729970378485801 ], [ 120.243677945469102, -3.72859886643418 ], [ 120.243659979163425, -3.728374762954393 ], [ 120.243399467731024, -3.728464404353163 ], [ 120.242626916586673, -3.729432530877468 ], [ 120.24202504534631, -3.72929806892396 ], [ 120.241656736079833, -3.729450459136381 ], [ 120.241611820315626, -3.729271176530791 ], [ 120.241872331748013, -3.728769185040615 ], [ 120.241656736079833, -3.72834787053298 ], [ 120.241153679520735, -3.728329942251581 ], [ 120.240938083852527, -3.728132731132066 ], [ 120.240641639808771, -3.728150659417485 ], [ 120.239258234271233, -3.727675559730353 ], [ 120.239186369048497, -3.727397671115133 ], [ 120.239312133188278, -3.727299065456369 ], [ 120.239994852804216, -3.727836914369862 ], [ 120.240345195765016, -3.727881735097804 ], [ 120.240497909363313, -3.727505240912085 ], [ 120.240084684332629, -3.72711978241211 ], [ 120.239671459301917, -3.726976355950391 ], [ 120.239689425607594, -3.726689502956792 ], [ 120.240345195765016, -3.726707431271633 ], [ 120.241935213817897, -3.726402649869649 ], [ 120.241791483372438, -3.726026155050829 ], [ 120.240911134393997, -3.725730337580158 ], [ 120.240381128376384, -3.72503113225414 ], [ 120.241207578437781, -3.72534487830248 ], [ 120.241683685538348, -3.725273164929864 ], [ 120.241962163276426, -3.725004239730505 ], [ 120.242617933433834, -3.725326949959874 ], [ 120.242743697573616, -3.725255236585797 ], [ 120.242635899739525, -3.724851848747724 ], [ 120.242141826333238, -3.72443949654437 ], [ 120.241701651844025, -3.723650648312737 ], [ 120.241063847992322, -3.723014190701543 ], [ 120.240803336559907, -3.722467374640001 ], [ 120.241063847992322, -3.722072949729089 ], [ 120.241899281206528, -3.721830916173576 ], [ 120.242276573625887, -3.72313072522814 ], [ 120.24344438349523, -3.72415264272375 ], [ 120.243974389512857, -3.723704433441895 ], [ 120.243740827538986, -3.722476338840469 ], [ 120.24439659769638, -3.721077922464453 ], [ 120.24632797555725, -3.721077922464453 ], [ 120.247738330553304, -3.721544061503142 ] ], [ [ 120.244450496613425, -3.722978333921025 ], [ 120.244998468936757, -3.72296040553022 ], [ 120.245178131993569, -3.723229331353985 ], [ 120.244899654255505, -3.723731326005241 ], [ 120.244944570019712, -3.72416160690706 ], [ 120.244567277600382, -3.72460981595613 ], [ 120.24468405858731, -3.724932526330131 ], [ 120.245555424412899, -3.724798063688679 ], [ 120.246678318518036, -3.724000251593525 ], [ 120.246426790238502, -3.723641684124223 ], [ 120.246336958710089, -3.723085904258198 ], [ 120.24573508746974, -3.722825942587536 ], [ 120.245672205399856, -3.722422553636293 ], [ 120.245851868456668, -3.721902629826586 ], [ 120.245726104316901, -3.721848844587376 ], [ 120.24481880587993, -3.721615775179508 ], [ 120.244342698779334, -3.722377732630305 ], [ 120.244306766167966, -3.722763193207257 ], [ 120.244450496613425, -3.722978333921025 ] ] ] } },
{ "type": "Feature", "properties": { "FID": 13, "REMARK": "Hutan Rimba" }, "geometry": { "type": "Polygon", "coordinates": [ [ [ 120.318300996120911, -3.71612069781994 ], [ 120.318480659177737, -3.716506161133377 ], [ 120.318309979273749, -3.717223301733399 ], [ 120.317806922714638, -3.718039048456959 ], [ 120.317079287334494, -3.717635657314352 ], [ 120.316306736190157, -3.71796733448954 ], [ 120.315893511159459, -3.717465336554288 ], [ 120.315210791543535, -3.717259158748092 ], [ 120.314285526800887, -3.716712339115605 ], [ 120.313962133298617, -3.716308947366151 ], [ 120.314384341482139, -3.716425482779386 ], [ 120.315246724154903, -3.716335840155186 ], [ 120.317573360740766, -3.71569041299204 ], [ 120.317923703701567, -3.715717305799933 ], [ 120.318300996120911, -3.71612069781994 ] ] ] } },
{ "type": "Feature", "properties": { "FID": 14, "REMARK": "Hutan Rimba" }, "geometry": { "type": "Polygon", "coordinates": [ [ [ 120.355437349966394, -3.667308930078998 ], [ 120.355850574997106, -3.667864744891161 ], [ 120.355167855381168, -3.668420559357685 ], [ 120.35488937764309, -3.669254280409284 ], [ 120.355122939616962, -3.669774235079842 ], [ 120.355886507608474, -3.669989388648103 ], [ 120.355329552132304, -3.670303154175591 ], [ 120.355221754298213, -3.67103826155122 ], [ 120.355554130953337, -3.671764403608663 ], [ 120.356209901110745, -3.672347109770871 ], [ 120.357701104482373, -3.671369956144548 ], [ 120.360414016640433, -3.669128774064158 ], [ 120.36105182049215, -3.668994302960531 ], [ 120.361770472719456, -3.668429524104312 ], [ 120.363064046728582, -3.66772130884369 ], [ 120.363576086440517, -3.668044039918129 ], [ 120.363782698955887, -3.668626748507362 ], [ 120.363324558160969, -3.669083950365197 ], [ 120.362399293418321, -3.669478398838874 ], [ 120.361393180300126, -3.670294189447765 ], [ 120.360602662850098, -3.671907839006955 ], [ 120.357871784386361, -3.673315297630106 ], [ 120.357171098464761, -3.673844214628115 ], [ 120.357072283783509, -3.674328307876938 ], [ 120.35797958222048, -3.676775664169228 ], [ 120.357063300630671, -3.676694982200712 ], [ 120.355473282577762, -3.677044604011551 ], [ 120.354107843345901, -3.67701771003097 ], [ 120.352427993764607, -3.677591448107419 ], [ 120.351583577397534, -3.677232861852909 ], [ 120.348996429379284, -3.678183115111999 ], [ 120.348691002182662, -3.678864428145874 ], [ 120.348574221195733, -3.681903436517615 ], [ 120.349634233230987, -3.683660498573107 ], [ 120.349526435396896, -3.684682461642514 ], [ 120.349768980523606, -3.685677529818992 ], [ 120.349975593038948, -3.685955431543304 ], [ 120.349894744663374, -3.686179545773853 ], [ 120.350577464279311, -3.686520199296123 ], [ 120.352068667650954, -3.686842923565268 ], [ 120.352284263319163, -3.686654667755834 ], [ 120.352841218795305, -3.687954528484588 ], [ 120.354637849363556, -3.690348060163841 ], [ 120.357575340342606, -3.691961673387131 ], [ 120.357737037093742, -3.692920875413638 ], [ 120.358374840945473, -3.694435874633846 ], [ 120.358410773556841, -3.694991672515862 ], [ 120.357081266936348, -3.694830311876304 ], [ 120.356632109294281, -3.695081317302936 ], [ 120.35629074948632, -3.695646079253201 ], [ 120.355473282577762, -3.695798475273417 ], [ 120.355167855381168, -3.696058444894535 ], [ 120.354853445031736, -3.695798475273417 ], [ 120.353685635162378, -3.697456900859204 ], [ 120.353443090035668, -3.69747482976751 ], [ 120.351897987746966, -3.696139125106285 ], [ 120.351376964882192, -3.696049480426109 ], [ 120.351287133353779, -3.696219805310696 ], [ 120.350406784375338, -3.695511612154797 ], [ 120.349221008200303, -3.69545782530973 ], [ 120.348098114095151, -3.694023508238353 ], [ 120.345897241649055, -3.6938980053843 ], [ 120.345906224801894, -3.694247620433587 ], [ 120.345430117701298, -3.694292442865843 ], [ 120.345043842129144, -3.692885017412602 ], [ 120.345412151395621, -3.692768478899234 ], [ 120.346067921553043, -3.693333242321438 ], [ 120.347154883046827, -3.693539425703498 ], [ 120.347262680880917, -3.693369100304367 ], [ 120.346921321072955, -3.692642975867728 ], [ 120.3473255629508, -3.692239573146296 ], [ 120.349409654409968, -3.694059366193394 ], [ 120.350622380043518, -3.694328300810017 ], [ 120.351323065965147, -3.695359216085299 ], [ 120.351754257301508, -3.695359216085299 ], [ 120.351862055135612, -3.695117175215229 ], [ 120.351547644786166, -3.694570341895293 ], [ 120.352032735039586, -3.694471732572223 ], [ 120.352661555738479, -3.694651022242379 ], [ 120.35276037041973, -3.694274513893212 ], [ 120.351215268131057, -3.694202797999068 ], [ 120.350631363196371, -3.69350356772745 ], [ 120.350209155012834, -3.693709751069942 ], [ 120.349643216383825, -3.693467709749952 ], [ 120.349185075588935, -3.692813301406185 ], [ 120.349229991353141, -3.69239196975149 ], [ 120.349894744663374, -3.69206924749777 ], [ 120.350658312654886, -3.692006495934814 ], [ 120.350793059947506, -3.691934779857434 ], [ 120.350748144183299, -3.691692738053515 ], [ 120.349795929982122, -3.691558270356163 ], [ 120.348601170654248, -3.69228439567995 ], [ 120.348178962470726, -3.691907886326923 ], [ 120.348035232025268, -3.691262441350321 ], [ 120.347334546103639, -3.690715605655859 ], [ 120.34700216944853, -3.690850073480794 ], [ 120.345825376426333, -3.692490579305618 ], [ 120.345699612286552, -3.69068871208843 ], [ 120.34597809002463, -3.689819152969438 ], [ 120.345618763910991, -3.689720543118706 ], [ 120.344837229613802, -3.691110044551279 ], [ 120.344513836111517, -3.691145902623995 ], [ 120.343929931176831, -3.690733534700359 ], [ 120.343732301814327, -3.690823179917436 ], [ 120.343768234425696, -3.691154867141947 ], [ 120.344253324679102, -3.691683773540992 ], [ 120.343624503980237, -3.692436792277452 ], [ 120.343786200731373, -3.692956733413225 ], [ 120.343489756687617, -3.693844218441415 ], [ 120.343139413726803, -3.693351171313084 ], [ 120.342968733822815, -3.693458745255353 ], [ 120.342402795193834, -3.692642975867728 ], [ 120.342196182678492, -3.692822265907305 ], [ 120.340687013001158, -3.691289334900378 ], [ 120.340821760293764, -3.690957647726085 ], [ 120.340040225996603, -3.690715605655859 ], [ 120.340112091219325, -3.690339095637746 ], [ 120.339528186284639, -3.690168769624746 ], [ 120.3395192031318, -3.69052735066675 ], [ 120.338144780747101, -3.689577110589015 ], [ 120.337983083995965, -3.689837082032031 ], [ 120.336644594222633, -3.689344032678884 ], [ 120.335360003366347, -3.688322074966651 ], [ 120.332970484710557, -3.687165647717281 ], [ 120.332557259679874, -3.686636738629047 ], [ 120.332431495540106, -3.686224368613186 ], [ 120.332781838500907, -3.686197474909857 ], [ 120.332898619487835, -3.685229301048435 ], [ 120.332781838500907, -3.684628674141809 ], [ 120.332368613470223, -3.684718319974512 ], [ 120.331928438981009, -3.683902542564037 ], [ 120.330976224779832, -3.682934366205353 ], [ 120.332772855348068, -3.682746109568865 ], [ 120.334659317444718, -3.682028941065159 ], [ 120.335368986519185, -3.681616568913943 ], [ 120.336330183873173, -3.680917328742826 ], [ 120.338477157402224, -3.678541700984228 ], [ 120.338980213961335, -3.677313543772749 ], [ 120.339043096031233, -3.676677052873383 ], [ 120.338863432974406, -3.674973765133454 ], [ 120.337767488327785, -3.673853179320294 ], [ 120.337255448615821, -3.673646991377373 ], [ 120.335800177855546, -3.673772497087433 ], [ 120.335351020213508, -3.673584238515725 ], [ 120.337471044284001, -3.671683721186998 ], [ 120.338782584598846, -3.671208591222643 ], [ 120.338908348738613, -3.670141789060935 ], [ 120.340561248861377, -3.6684743478361 ], [ 120.340794810835249, -3.668321947138848 ], [ 120.341234985324476, -3.668420559357685 ], [ 120.341522446215393, -3.668904655546868 ], [ 120.342995683281345, -3.670034212301635 ], [ 120.344253324679102, -3.670652778490672 ], [ 120.34449586980584, -3.670518307616453 ], [ 120.345807410120642, -3.67061691959286 ], [ 120.346472163430889, -3.670491413439179 ], [ 120.348232861387771, -3.668949479254824 ], [ 120.349822879440651, -3.6678916391475 ], [ 120.351251200742425, -3.667703379336138 ], [ 120.351933920358334, -3.667237212013547 ], [ 120.352553757904388, -3.667326859594464 ], [ 120.353299359590196, -3.665829743814733 ], [ 120.35289511771235, -3.66496016044465 ], [ 120.352230364402089, -3.664081611439083 ], [ 120.352392061153253, -3.663516829479948 ], [ 120.352823252489614, -3.663247885564597 ], [ 120.353461056341359, -3.663382357532376 ], [ 120.353937163441927, -3.663758878934657 ], [ 120.354601916752188, -3.665085667375011 ], [ 120.354709714586278, -3.666251088030161 ], [ 120.355437349966394, -3.667308930078998 ] ], [ [ 120.343435857770572, -3.672257462693748 ], [ 120.344801297002434, -3.672660874469902 ], [ 120.344909094836524, -3.672275392109893 ], [ 120.34371433550865, -3.672131956770653 ], [ 120.343435857770572, -3.672257462693748 ] ], [ [ 120.352140532873676, -3.676883240115892 ], [ 120.352984949240749, -3.675099270656879 ], [ 120.352445960070298, -3.674928941727952 ], [ 120.351871038288451, -3.676354324919827 ], [ 120.352050701345263, -3.676488794914671 ], [ 120.351987819275379, -3.676757734843522 ], [ 120.352140532873676, -3.676883240115892 ] ], [ [ 120.338602921541991, -3.686251262315701 ], [ 120.338863432974406, -3.687013250215649 ], [ 120.339114961253955, -3.686941533735256 ], [ 120.338854449821568, -3.686340907984879 ], [ 120.339330556922135, -3.685964396113609 ], [ 120.339240725393736, -3.685722352683625 ], [ 120.338872416127245, -3.685847856692579 ], [ 120.338495123707901, -3.685247230203594 ], [ 120.338207662816984, -3.685417557159579 ], [ 120.337812404091991, -3.684736249139969 ], [ 120.337641724188003, -3.684879682450617 ], [ 120.338602921541991, -3.686251262315701 ] ] ] } },
{ "type": "Feature", "properties": { "FID": 15, "REMARK": "Hutan Rimba" }, "geometry": { "type": "MultiPolygon", "coordinates": [ [ [ [ 120.370295484765734, -3.688080032178477 ], [ 120.369738529289592, -3.688707550382108 ], [ 120.369738529289592, -3.689101990169038 ], [ 120.370466164669736, -3.689953620930069 ], [ 120.370106838556069, -3.69059010233422 ], [ 120.370169720625952, -3.691764454150443 ], [ 120.369963108110611, -3.691916850837184 ], [ 120.36977446190096, -3.691854099263459 ], [ 120.369415135787321, -3.691540341328312 ], [ 120.368921062381034, -3.690536315190947 ], [ 120.368364106904892, -3.69004326622585 ], [ 120.366845954074719, -3.690123946984319 ], [ 120.366208150223002, -3.689666755922786 ], [ 120.365175087646264, -3.687873847529159 ], [ 120.364725930004184, -3.6867353488219 ], [ 120.364887626755348, -3.685740281828846 ], [ 120.365121188729219, -3.685318946820615 ], [ 120.367070532895767, -3.683409489920387 ], [ 120.367277145411109, -3.682826790989379 ], [ 120.366854937227558, -3.681204196571754 ], [ 120.366064419777544, -3.679949149138061 ], [ 120.364914576213877, -3.679626422369301 ], [ 120.364743896309875, -3.679348518669192 ], [ 120.364824744685464, -3.678461019175555 ], [ 120.365058306659336, -3.67797692817014 ], [ 120.364950508825245, -3.677761776527782 ], [ 120.364276772362146, -3.677573518798119 ], [ 120.362569973322323, -3.678299655536299 ], [ 120.361797422177972, -3.67840723129905 ], [ 120.360683511225659, -3.67796796351941 ], [ 120.360099606290973, -3.678792711008943 ], [ 120.358347891486957, -3.676488794914671 ], [ 120.357449576202825, -3.674408990059539 ], [ 120.357449576202825, -3.674122120043808 ], [ 120.357781952857948, -3.673826285243484 ], [ 120.359470785592109, -3.672956709656544 ], [ 120.361240466701801, -3.671773368321731 ], [ 120.361599792815468, -3.671217555941292 ], [ 120.362004034693314, -3.670114894872325 ], [ 120.363917446248493, -3.668949479254824 ], [ 120.364043210388274, -3.66822333490913 ], [ 120.363827614720094, -3.667793026870303 ], [ 120.3632886255496, -3.667434436679698 ], [ 120.362911333130285, -3.667380648138698 ], [ 120.362039967304682, -3.667703379336138 ], [ 120.361393180300126, -3.668232299657736 ], [ 120.359785195941541, -3.669092915105169 ], [ 120.359371970910857, -3.669568046194966 ], [ 120.35642549677894, -3.671988521408367 ], [ 120.355940406525519, -3.671791297747598 ], [ 120.355643962481736, -3.671352026710222 ], [ 120.355581080411852, -3.670850002402902 ], [ 120.356677025058474, -3.669899741334292 ], [ 120.356811772351122, -3.669370821999686 ], [ 120.356596176682913, -3.66822333490913 ], [ 120.357647205565328, -3.667757167857716 ], [ 120.358410773556841, -3.667120670144914 ], [ 120.358859931198893, -3.666430383380765 ], [ 120.358868914351731, -3.666125581263347 ], [ 120.358608402919344, -3.66571320176265 ], [ 120.357467542508516, -3.665264962959265 ], [ 120.356901603879535, -3.664601569118016 ], [ 120.356479395695985, -3.663158237574851 ], [ 120.355060057547078, -3.661105296152654 ], [ 120.35389224767772, -3.660737738457946 ], [ 120.354278523249889, -3.660128130241455 ], [ 120.354610899905026, -3.660343286129949 ], [ 120.354997175477195, -3.660370180612377 ], [ 120.357224997381806, -3.659276471009012 ], [ 120.358078396901732, -3.658639967264533 ], [ 120.359093493172779, -3.658326197646647 ], [ 120.359839094858586, -3.656775277636258 ], [ 120.358841964893216, -3.656452542499122 ], [ 120.35852755454377, -3.656192561331945 ], [ 120.357763986552271, -3.656398753298304 ], [ 120.355841591844268, -3.657609009536091 ], [ 120.355545147800484, -3.658299303102859 ], [ 120.354341405319772, -3.658810299296803 ], [ 120.35300291554644, -3.659778501812424 ], [ 120.352634606279963, -3.660217778534609 ], [ 120.353452073188507, -3.661177014709642 ], [ 120.353425123729991, -3.661347346259464 ], [ 120.352841218795305, -3.66221693314039 ], [ 120.352293246472001, -3.662718962295295 ], [ 120.351915954052657, -3.663445111110424 ], [ 120.351008655615686, -3.66377680852129 ], [ 120.349840845746328, -3.66452985083544 ], [ 120.349176092436096, -3.664126435388825 ], [ 120.348789816863913, -3.664234012859041 ], [ 120.348080147789474, -3.665973180165677 ], [ 120.344010779552406, -3.667443401436215 ], [ 120.343786200731373, -3.66741650716639 ], [ 120.343687386050121, -3.666573819635363 ], [ 120.343507722993309, -3.666412453847324 ], [ 120.341136170643225, -3.666466242446572 ], [ 120.339941411315351, -3.666035933561981 ], [ 120.338656820459065, -3.666277982335044 ], [ 120.337596808423797, -3.665919391536768 ], [ 120.337237482310144, -3.666044898332522 ], [ 120.336231369191921, -3.66712963490458 ], [ 120.335324070754979, -3.667676485074135 ], [ 120.335431868589069, -3.66714756442364 ], [ 120.335198306615183, -3.666322806174717 ], [ 120.333814901077645, -3.66418022412555 ], [ 120.332925568946365, -3.663310639152074 ], [ 120.330589949207649, -3.662127285047387 ], [ 120.330006044272992, -3.661670079633423 ], [ 120.329547903478073, -3.661114260972593 ], [ 120.327239233197886, -3.657115942377191 ], [ 120.324068180244964, -3.650930167715868 ], [ 120.323906483493829, -3.649173041341891 ], [ 120.323978348716551, -3.648796513814573 ], [ 120.32447242212281, -3.648213792330281 ], [ 120.325182091197263, -3.648213792330281 ], [ 120.326637361957538, -3.648581355156688 ], [ 120.330778595417343, -3.650114359469738 ], [ 120.334371856553815, -3.65249902764432 ], [ 120.336842223585137, -3.654785075773481 ], [ 120.338090881830055, -3.655529160770678 ], [ 120.339537169437477, -3.655986369318171 ], [ 120.341118204337548, -3.655995334189321 ], [ 120.34360653767456, -3.655726388015832 ], [ 120.348053198330945, -3.654740251356346 ], [ 120.353640719398172, -3.652597641605377 ], [ 120.354494118918069, -3.65210457169175 ], [ 120.357728053940903, -3.65081362372608 ], [ 120.35887789750457, -3.650697079721168 ], [ 120.359318071993812, -3.650822588648909 ], [ 120.360018757915412, -3.65147702777362 ], [ 120.359857061164263, -3.651656326080704 ], [ 120.359102476325631, -3.651772869961107 ], [ 120.359228240465399, -3.65198802785441 ], [ 120.36000977476256, -3.652830729106622 ], [ 120.36059367969726, -3.652785904591852 ], [ 120.361132668867711, -3.653736183825555 ], [ 120.361959118929107, -3.654408550599938 ], [ 120.366477644808228, -3.65544847688516 ], [ 120.372316694155003, -3.656353928961825 ], [ 120.377535905955753, -3.657429712418781 ], [ 120.376565725448899, -3.659043385183227 ], [ 120.375586561789206, -3.659975728122502 ], [ 120.375002656854534, -3.660809457044369 ], [ 120.377464040733017, -3.661885235151432 ], [ 120.377742518471095, -3.662638279057246 ], [ 120.379233721842724, -3.663893350825648 ], [ 120.378883378881923, -3.664906371754819 ], [ 120.378991176716013, -3.665273927737534 ], [ 120.379314570218298, -3.665336681182903 ], [ 120.379646946873436, -3.665193244729875 ], [ 120.379763727860364, -3.664144364968092 ], [ 120.381012386105297, -3.664888442190823 ], [ 120.382853932437726, -3.664834653496679 ], [ 120.385396164691798, -3.665426328954362 ], [ 120.38638431150433, -3.666233158493124 ], [ 120.387740767583352, -3.667882674395476 ], [ 120.388962476369755, -3.668429524104312 ], [ 120.390372831365809, -3.66851917156564 ], [ 120.391585556999374, -3.668832937609465 ], [ 120.392429973366447, -3.669370821999686 ], [ 120.391899967348806, -3.669935600260896 ], [ 120.392160478781221, -3.670150753790292 ], [ 120.393049810912473, -3.669290139361795 ], [ 120.392798282632924, -3.668958443996146 ], [ 120.393013878301119, -3.668707431205156 ], [ 120.393364221261933, -3.668743290179614 ], [ 120.394945256161975, -3.671083085152114 ], [ 120.395520177943823, -3.671656827044823 ], [ 120.39502610453755, -3.672535368603525 ], [ 120.395960352433036, -3.673682850153477 ], [ 120.39637357746372, -3.674014543764129 ], [ 120.3968227351058, -3.674014543764129 ], [ 120.397226976983646, -3.673835249935845 ], [ 120.397361724276251, -3.673458732779188 ], [ 120.397622235708653, -3.673449768083046 ], [ 120.398385803700151, -3.67446277817722 ], [ 120.398601399368346, -3.675153058732941 ], [ 120.398691230896745, -3.677600412761934 ], [ 120.401008884329784, -3.679115438079683 ], [ 120.400487861464995, -3.680218088022722 ], [ 120.400685490827499, -3.681553816613321 ], [ 120.400092602740003, -3.681562781227965 ], [ 120.399832091307587, -3.681885507295094 ], [ 120.398475635228564, -3.682378560782888 ], [ 120.39806241019788, -3.682235127069146 ], [ 120.397262909595, -3.682342702356619 ], [ 120.396652055201812, -3.682961260007316 ], [ 120.39351693486023, -3.682360631569934 ], [ 120.392879131008499, -3.683122622802024 ], [ 120.392564720659067, -3.683884613381781 ], [ 120.390875887924935, -3.685238265626061 ], [ 120.390606393339681, -3.685964396113609 ], [ 120.390193168308997, -3.686206439477724 ], [ 120.389573330762943, -3.687425619865659 ], [ 120.388827729077136, -3.688097961276158 ], [ 120.388306706212333, -3.688868912134284 ], [ 120.388207891531081, -3.691038328401504 ], [ 120.387561104526526, -3.691576199383653 ], [ 120.387399407775362, -3.692365076234827 ], [ 120.385917187556572, -3.69330634883329 ], [ 120.38495599020257, -3.693584248171521 ], [ 120.384569714630402, -3.693969721303076 ], [ 120.38414750644688, -3.695870191038578 ], [ 120.383554618359341, -3.697053500326496 ], [ 120.382880881896241, -3.697196931648042 ], [ 120.382494606324087, -3.696775602074982 ], [ 120.382979696577522, -3.697080393701053 ], [ 120.38312342702298, -3.696811459918779 ], [ 120.38301562918889, -3.696381165697501 ], [ 120.383267157468438, -3.695852262097831 ], [ 120.383033595494567, -3.695655043725704 ], [ 120.382521555782603, -3.695986729144596 ], [ 120.382350875878629, -3.696506668200274 ], [ 120.382476640018396, -3.696766637613806 ], [ 120.382261044350216, -3.696533561591414 ], [ 120.379934407764352, -3.695063388346245 ], [ 120.378497103309769, -3.694615164311245 ], [ 120.379970340375706, -3.694686880172061 ], [ 120.380248818113785, -3.694498626025056 ], [ 120.380284750725153, -3.693575283678097 ], [ 120.3792516881484, -3.692983626911965 ], [ 120.379206772384208, -3.692248537653208 ], [ 120.379862542541616, -3.691943744367424 ], [ 120.380123053974003, -3.691370015545666 ], [ 120.380940520882561, -3.691361051029884 ], [ 120.381344762760406, -3.690383918267318 ], [ 120.380805773589955, -3.690106017927514 ], [ 120.379593047956391, -3.690061195283921 ], [ 120.377383192357456, -3.68943367803617 ], [ 120.377248445064836, -3.689075096552763 ], [ 120.377499973344385, -3.688626869495032 ], [ 120.378092861431895, -3.688519294967538 ], [ 120.378128794043263, -3.688331039513094 ], [ 120.377724552165418, -3.687578017296606 ], [ 120.376898102104022, -3.687855918426959 ], [ 120.375811140610224, -3.687846953875722 ], [ 120.375406898732379, -3.688008315784139 ], [ 120.374400785614171, -3.688868912134284 ], [ 120.373511453482891, -3.688868912134284 ], [ 120.373412638801639, -3.688241394044583 ], [ 120.373268908356181, -3.688196571306936 ], [ 120.37281076756129, -3.688913734838024 ], [ 120.372280761543649, -3.689281280923403 ], [ 120.372074149028293, -3.690097053398977 ], [ 120.371795671290229, -3.69020462773546 ], [ 120.371292614731104, -3.688582046776826 ], [ 120.37087938970042, -3.688196571306936 ], [ 120.370295484765734, -3.688080032178477 ] ], [ [ 120.370295484765734, -3.688080032178477 ], [ 120.37087938970042, -3.687380797086879 ], [ 120.371589058774887, -3.686977391976175 ], [ 120.372685003421481, -3.686995321096093 ], [ 120.372891615936851, -3.68660984493819 ], [ 120.373044329535148, -3.686923604614253 ], [ 120.373430605107316, -3.687031179334844 ], [ 120.373924678513589, -3.686923604614253 ], [ 120.375335033509657, -3.685121726109894 ], [ 120.376619624365944, -3.684162515666152 ], [ 120.376592674907428, -3.683929436336745 ], [ 120.375963854208521, -3.683534994255597 ], [ 120.37620639933526, -3.683203304188408 ], [ 120.377850316305185, -3.683301914761836 ], [ 120.378703715825111, -3.683759109095877 ], [ 120.379323553371137, -3.683732215318023 ], [ 120.379718812096158, -3.683445348303681 ], [ 120.379745761554688, -3.683050906007988 ], [ 120.380221868655255, -3.682566817497102 ], [ 120.383294106926954, -3.683463277494787 ], [ 120.384434967337782, -3.682683357347857 ], [ 120.385045821730969, -3.681562781227965 ], [ 120.38573752449976, -3.681517958153835 ], [ 120.385746507652598, -3.682037905675021 ], [ 120.385872271792365, -3.682082728722977 ], [ 120.386680755548085, -3.682046870284793 ], [ 120.386851435452073, -3.681966188793599 ], [ 120.387067031120253, -3.681213161189919 ], [ 120.387561104526526, -3.681213161189919 ], [ 120.387812632806074, -3.680935257984841 ], [ 120.38719279526002, -3.682979189208172 ], [ 120.387058047967415, -3.684010117649986 ], [ 120.387147879495814, -3.684296984482269 ], [ 120.387489239303804, -3.684252161545822 ], [ 120.388010262168578, -3.683032976808576 ], [ 120.388486369269145, -3.682925401604518 ], [ 120.388522301880514, -3.682799897183353 ], [ 120.388046194779946, -3.682217197853304 ], [ 120.388028228474255, -3.681984118014497 ], [ 120.388180942072552, -3.681455205846263 ], [ 120.388558234491882, -3.681293842749343 ], [ 120.388531285033352, -3.680415309819868 ], [ 120.388666032326, -3.680244981906723 ], [ 120.389043324745316, -3.680200158766271 ], [ 120.389231970954981, -3.680334628180859 ], [ 120.389420617164646, -3.680890434879126 ], [ 120.389995538946494, -3.68085457639293 ], [ 120.389842825348197, -3.680011901551745 ], [ 120.3903907976715, -3.67987743208844 ], [ 120.390327915601603, -3.679626422369301 ], [ 120.389456549776, -3.679088544161586 ], [ 120.389752993819783, -3.678174150463344 ], [ 120.390058421016377, -3.677851423051742 ], [ 120.391028601523232, -3.677394225685288 ], [ 120.39216946193406, -3.677519730868056 ], [ 120.392834215244292, -3.678443089883748 ], [ 120.392807265785777, -3.679411271125179 ], [ 120.393076760371002, -3.679814679665287 ], [ 120.393076760371002, -3.678927180635955 ], [ 120.393498968554553, -3.678434125237709 ], [ 120.392816248938615, -3.677205967878006 ], [ 120.392942013078383, -3.676336395585649 ], [ 120.392079630405647, -3.676488794914671 ], [ 120.391783186361877, -3.676408112920198 ], [ 120.391414877095386, -3.676013667508803 ], [ 120.391325045566987, -3.675377175681621 ], [ 120.391091483593115, -3.675386140358397 ], [ 120.390893854230612, -3.675950914813632 ], [ 120.390282999837396, -3.676452936251362 ], [ 120.390031471557847, -3.677313543772749 ], [ 120.388522301880514, -3.67803968072271 ], [ 120.385854305486689, -3.677734882568836 ], [ 120.385719558194069, -3.677941069566686 ], [ 120.385782440263966, -3.679214049105762 ], [ 120.385441080456005, -3.679348518669192 ], [ 120.384839209215627, -3.679061650242677 ], [ 120.38447089994915, -3.67803968072271 ], [ 120.383842079250257, -3.677699023955645 ], [ 120.383204275398541, -3.677788670485917 ], [ 120.382314943267261, -3.678550665629186 ], [ 120.381362729066097, -3.678855463504074 ], [ 120.380051188751281, -3.678201044409037 ], [ 120.380087121362649, -3.677725917915674 ], [ 120.380877638812677, -3.677044604011551 ], [ 120.380967470341091, -3.676757734843522 ], [ 120.381317813301891, -3.676426042252934 ], [ 120.38140764483029, -3.675735762682379 ], [ 120.380015256139913, -3.676354324919827 ], [ 120.379889492000146, -3.676255713577388 ], [ 120.377985063597805, -3.677421119654512 ], [ 120.378074895126218, -3.677573518798119 ], [ 120.376700472741518, -3.678326549478204 ], [ 120.37620639933526, -3.678389302006159 ], [ 120.376260298252305, -3.677869352355453 ], [ 120.375963854208521, -3.677349402401446 ], [ 120.375308084051127, -3.676937028084356 ], [ 120.37418518994599, -3.677026674691254 ], [ 120.373978577430648, -3.676192960899248 ], [ 120.372981447465264, -3.675413034388184 ], [ 120.372765851797084, -3.674893083001929 ], [ 120.372020250111248, -3.674919977046581 ], [ 120.371876519665804, -3.675547504524957 ], [ 120.371993300652733, -3.675708868662324 ], [ 120.371696856608978, -3.676085384869307 ], [ 120.371346513648149, -3.676183996230582 ], [ 120.36977446190096, -3.675314422941667 ], [ 120.368229359612272, -3.675690939315169 ], [ 120.367654437830424, -3.675574398549879 ], [ 120.367196297035534, -3.675242705519171 ], [ 120.366082386083235, -3.675153058732941 ], [ 120.365264919174678, -3.674767577449496 ], [ 120.365175087646264, -3.675224776162645 ], [ 120.366917819297441, -3.675735762682379 ], [ 120.367789185123044, -3.676175031561825 ], [ 120.367879016651457, -3.676945992745452 ], [ 120.367582572607702, -3.676981851388933 ], [ 120.367654437830424, -3.679949149138061 ], [ 120.367411892703728, -3.679976043030182 ], [ 120.367411892703728, -3.68038841594101 ], [ 120.367735286205999, -3.680415309819868 ], [ 120.367753252511676, -3.683024012208733 ], [ 120.367950881874179, -3.682952295406751 ], [ 120.368426988974775, -3.683893577972956 ], [ 120.370070905944701, -3.685820962977866 ], [ 120.369909209193565, -3.687210470506908 ], [ 120.370079889097553, -3.687882812080125 ], [ 120.370295484765734, -3.688080032178477 ] ], [ [ 120.389133156273729, -3.671629932901837 ], [ 120.389357735094748, -3.671845086023037 ], [ 120.390130286239099, -3.671432709161859 ], [ 120.38990570741808, -3.671199626503904 ], [ 120.389133156273729, -3.671629932901837 ] ], [ [ 120.377122680925041, -3.674301413814449 ], [ 120.378029979362012, -3.672992568460383 ], [ 120.378676766366581, -3.67136099142743 ], [ 120.378452187545562, -3.670132824331488 ], [ 120.379027109327382, -3.667703379336138 ], [ 120.379009143021705, -3.667398577652724 ], [ 120.378542019073961, -3.66659174916557 ], [ 120.378533035921123, -3.665426328954362 ], [ 120.377994046750644, -3.664646393041706 ], [ 120.378092861431895, -3.665193244729875 ], [ 120.377715569012565, -3.665318751627531 ], [ 120.378065911973366, -3.666053863102974 ], [ 120.37793116468076, -3.666878621599979 ], [ 120.377805400540979, -3.667111705385159 ], [ 120.37755387226143, -3.667192388219717 ], [ 120.376880135798331, -3.666788973974115 ], [ 120.376026736278419, -3.666986198739152 ], [ 120.375379949273864, -3.666887586362071 ], [ 120.375002656854534, -3.666260052798545 ], [ 120.373008396923794, -3.665049808253847 ], [ 120.372936531701058, -3.665372540292565 ], [ 120.374319937238596, -3.666690361575281 ], [ 120.374598414976674, -3.667613731792982 ], [ 120.375577578636367, -3.667837850634013 ], [ 120.376143517265376, -3.667542013751984 ], [ 120.37655674229606, -3.667550978507423 ], [ 120.377059798855157, -3.667954392409142 ], [ 120.377607771178475, -3.668053004668534 ], [ 120.377760484776772, -3.668277123399417 ], [ 120.377508956497223, -3.670034212301635 ], [ 120.377185562994924, -3.670850002402902 ], [ 120.377167596689247, -3.671692685900876 ], [ 120.376898102104022, -3.671845086023037 ], [ 120.376368096086395, -3.671629932901837 ], [ 120.376008769972728, -3.671719580041971 ], [ 120.376466910767647, -3.672176780316641 ], [ 120.376511826531853, -3.672562262719234 ], [ 120.37634114662788, -3.672920850851265 ], [ 120.375604528094883, -3.673198756554501 ], [ 120.375694359623296, -3.673691814847278 ], [ 120.375361982968187, -3.674229696310516 ], [ 120.375335033509657, -3.67471378935019 ], [ 120.374697229657926, -3.675646115945705 ], [ 120.374796044339178, -3.676470865583196 ], [ 120.375496730260792, -3.676793593494573 ], [ 120.376089618348303, -3.676686017537093 ], [ 120.376404028697763, -3.675493716472681 ], [ 120.377122680925041, -3.674301413814449 ] ], [ [ 120.370169720625952, -3.659007525820033 ], [ 120.369945141804934, -3.658953736772547 ], [ 120.369864293429359, -3.659186822621656 ], [ 120.37077159186633, -3.659366119387398 ], [ 120.370834473936213, -3.659141998424614 ], [ 120.370169720625952, -3.659007525820033 ] ], [ [ 120.369217506424789, -3.673476662171202 ], [ 120.370331417377102, -3.673225650650222 ], [ 120.37077159186633, -3.672902921448084 ], [ 120.370807524477698, -3.672642945061501 ], [ 120.370681760337916, -3.672445721545307 ], [ 120.370430232058368, -3.672409862719499 ], [ 120.368876146616827, -3.672768450912754 ], [ 120.368974961298079, -3.67346769747524 ], [ 120.369217506424789, -3.673476662171202 ] ], [ [ 120.346633860182052, -3.663391322329509 ], [ 120.347604040688879, -3.663516829479948 ], [ 120.348735917946868, -3.663158237574851 ], [ 120.348574221195733, -3.662772751116619 ], [ 120.34824184454061, -3.662916187957683 ], [ 120.348044215178106, -3.662692067883419 ], [ 120.346957253684323, -3.662781715919859 ], [ 120.345618763910991, -3.662181073904266 ], [ 120.345403168242782, -3.662423123720228 ], [ 120.346337416138269, -3.66303273037412 ], [ 120.346633860182052, -3.663391322329509 ] ], [ [ 120.33544983489476, -3.665399434623867 ], [ 120.335503733811805, -3.665596659695381 ], [ 120.337920201926082, -3.664798794365453 ], [ 120.337839353550507, -3.664413308613991 ], [ 120.33658171215275, -3.664816723931245 ], [ 120.33544983489476, -3.665399434623867 ] ] ], [ [ [ 120.382476640018396, -3.696766637613806 ], [ 120.382494606324087, -3.696775602074982 ], [ 120.382485623171235, -3.696775602074982 ], [ 120.382476640018396, -3.696766637613806 ] ] ], [ [ [ 120.319046597806718, -3.68728218696561 ], [ 120.32003474461925, -3.687040143894307 ], [ 120.321822392034662, -3.68728218696561 ], [ 120.322532061109101, -3.687049108453679 ], [ 120.323574106838677, -3.687479407197211 ], [ 120.325595316227961, -3.687820060221472 ], [ 120.325882777118863, -3.688761337636089 ], [ 120.326763126097305, -3.69059010233422 ], [ 120.326933806001293, -3.691352086514013 ], [ 120.327670424534276, -3.69206924749777 ], [ 120.32829924523314, -3.693189810375236 ], [ 120.328460941984304, -3.693951792323924 ], [ 120.328963998543401, -3.694391052208835 ], [ 120.329601802395146, -3.695386109511231 ], [ 120.330616898666179, -3.696354272301739 ], [ 120.331299618282117, -3.69685628222149 ], [ 120.332179967260558, -3.697089358159058 ], [ 120.332063186273629, -3.697869265658491 ], [ 120.33262912490261, -3.698505741385223 ], [ 120.33362625486798, -3.700343450425436 ], [ 120.335234239226551, -3.701571575805456 ], [ 120.335575599034527, -3.702028760730934 ], [ 120.335503733811805, -3.703911284407365 ], [ 120.335189323462345, -3.704960117290357 ], [ 120.33431795763677, -3.705838625927877 ], [ 120.333374726588431, -3.70739842482835 ], [ 120.332305731400325, -3.708778934203654 ], [ 120.332835737417952, -3.710473192762793 ], [ 120.331596062325872, -3.710715229434622 ], [ 120.330545033443443, -3.71066144351328 ], [ 120.32843399252576, -3.709522974076731 ], [ 120.327625508770069, -3.70848311094757 ], [ 120.326475665206402, -3.704888402261029 ], [ 120.326026507564322, -3.704502933878806 ], [ 120.324948529223377, -3.704153322875307 ], [ 120.324544287345532, -3.705605552292738 ], [ 120.32444547266428, -3.706627490083429 ], [ 120.325352771101251, -3.707254995159253 ], [ 120.325406670018296, -3.707604604936916 ], [ 120.324921579764862, -3.708142465863387 ], [ 120.324723950402358, -3.709173365057754 ], [ 120.325002428140422, -3.710150477097212 ], [ 120.324589203109738, -3.710320799268734 ], [ 120.325209040655793, -3.711486160614005 ], [ 120.327212283739357, -3.711817840100445 ], [ 120.32695177230697, -3.712122626545729 ], [ 120.326466682053564, -3.712167448072928 ], [ 120.324391573747235, -3.711719232698568 ], [ 120.323870550882432, -3.710957266040142 ], [ 120.322002055091474, -3.711127588056125 ], [ 120.322343414899436, -3.712427412885822 ], [ 120.322720707318766, -3.713126628209701 ], [ 120.32369088782562, -3.714327842986025 ], [ 120.324741916708035, -3.716362732943403 ], [ 120.326556513581963, -3.717940441750253 ], [ 120.326879907084248, -3.719258185010568 ], [ 120.327176351127989, -3.7195540046554 ], [ 120.328523824054201, -3.72001118027484 ], [ 120.329502987713866, -3.720898638153129 ], [ 120.329916212744578, -3.723157617809012 ], [ 120.331407416116207, -3.724887705451929 ], [ 120.331676910701432, -3.726357829066335 ], [ 120.331676910701432, -3.727496276762843 ], [ 120.331236736212233, -3.727505240912085 ], [ 120.33079656172302, -3.72726320885044 ], [ 120.330706730194606, -3.726913606866034 ], [ 120.330859443792903, -3.725819979248439 ], [ 120.330095875801391, -3.724851848747724 ], [ 120.329206543670111, -3.7241167859896 ], [ 120.329062813224652, -3.723023154896444 ], [ 120.328559756665555, -3.722530124041359 ], [ 120.327975851730869, -3.722449446238792 ], [ 120.327409913101889, -3.72269147962432 ], [ 120.326996688071176, -3.722592873438245 ], [ 120.32579294559045, -3.72127513516477 ], [ 120.325541417310916, -3.721248242526417 ], [ 120.325352771101251, -3.721391669921477 ], [ 120.325101242821702, -3.722350840025617 ], [ 120.324607169415415, -3.722090878137962 ], [ 120.32420292753757, -3.721266170952078 ], [ 120.323744786742665, -3.721445455188605 ], [ 120.323268679642084, -3.72208191393357 ], [ 120.32296325244549, -3.722063985524514 ], [ 120.3228554546114, -3.721544061503142 ], [ 120.32323274703073, -3.720298035444373 ], [ 120.323124949196625, -3.719491255042067 ], [ 120.321786459423294, -3.718074905438482 ], [ 120.320780346305085, -3.716550982437961 ], [ 120.320196441370385, -3.715367699233397 ], [ 120.319747283728347, -3.713951343008133 ], [ 120.319468805990269, -3.713718271512768 ], [ 120.318229130898189, -3.713368664154335 ], [ 120.316791826443577, -3.712481198699626 ], [ 120.315417404058877, -3.709800868326488 ], [ 120.31529163991911, -3.70934368741761 ], [ 120.315408420906039, -3.708241073664413 ], [ 120.314995195875355, -3.707003993182355 ], [ 120.314680785525894, -3.706439238473861 ], [ 120.313611790337788, -3.705811732819265 ], [ 120.313252464224149, -3.704538791409818 ], [ 120.31247092992696, -3.704189180420484 ], [ 120.312237367953088, -3.703902320018393 ], [ 120.311707361935476, -3.700486881214568 ], [ 120.31120430537635, -3.699653189427972 ], [ 120.311159389612143, -3.699097394467791 ], [ 120.31020717541098, -3.698254736927848 ], [ 120.309910731367225, -3.697035571409673 ], [ 120.309731068310398, -3.695153033126072 ], [ 120.307763757838174, -3.69517096208095 ], [ 120.309147163375741, -3.693664928608258 ], [ 120.310862945568388, -3.692454721287203 ], [ 120.317258950391334, -3.686690526008323 ], [ 120.318615406470343, -3.68586578583527 ], [ 120.318669305387402, -3.686457447341298 ], [ 120.319046597806718, -3.68728218696561 ] ] ], [ [ [ 120.221687187313833, -3.727092889952319 ], [ 120.221372776964401, -3.729038109088858 ], [ 120.220824804641097, -3.728876754669784 ], [ 120.220923619322349, -3.728787113313056 ], [ 120.220034287191069, -3.728912611209916 ], [ 120.219315634963763, -3.729862808990466 ], [ 120.218938342544448, -3.730884718664546 ], [ 120.219297668658086, -3.731234319069689 ], [ 120.218965292002963, -3.731960411774316 ], [ 120.219755809453005, -3.732471365540015 ], [ 120.219243769741041, -3.734013189136273 ], [ 120.21956716324334, -3.734120758123348 ], [ 120.219881573592772, -3.733502236267677 ], [ 120.220321748081986, -3.733036103566792 ], [ 120.220627175278608, -3.734004225053421 ], [ 120.220384630151869, -3.734497249474316 ], [ 120.219477331714899, -3.734658602861014 ], [ 120.219162921365466, -3.735572938158678 ], [ 120.218605965889324, -3.736424524098689 ], [ 120.21820172401145, -3.736137674190154 ], [ 120.217626802229631, -3.735223339480871 ], [ 120.217536970701218, -3.733896656052067 ], [ 120.217249509810316, -3.733224349495013 ], [ 120.217276459268831, -3.732327939951581 ], [ 120.21685425108528, -3.731207426735771 ], [ 120.216279329303461, -3.731243283180813 ], [ 120.215416946630697, -3.73103710860184 ], [ 120.215416946630697, -3.730553046356726 ], [ 120.215192367809678, -3.730140696826491 ], [ 120.214069473704527, -3.729065001489157 ], [ 120.213665231826653, -3.729038109088858 ], [ 120.212686068166988, -3.729647669960297 ], [ 120.21233572520616, -3.729414602618188 ], [ 120.212111146385141, -3.729531136296967 ], [ 120.211967415939682, -3.729952450237492 ], [ 120.212147078996495, -3.730902646893834 ], [ 120.211823685494224, -3.73160184755074 ], [ 120.211751820271502, -3.732453437342742 ], [ 120.211437409922041, -3.733080924029553 ], [ 120.212299792594791, -3.733529128531331 ], [ 120.211904533869799, -3.734685495089246 ], [ 120.212479455651618, -3.734882704737777 ], [ 120.213898793800539, -3.734775135844071 ], [ 120.214231170455662, -3.734882704737777 ], [ 120.214114389468733, -3.736352811630348 ], [ 120.214392867206797, -3.737213360863557 ], [ 120.213737097049375, -3.738674499815327 ], [ 120.212614202944238, -3.738898600666213 ], [ 120.212766916542549, -3.739597794952813 ], [ 120.212668101861283, -3.739902571775012 ], [ 120.21278488284824, -3.741668482452794 ], [ 120.213099293197672, -3.741919474544527 ], [ 120.214051507398835, -3.742036006562675 ], [ 120.215336098255122, -3.74294137017557 ], [ 120.213054377433465, -3.742098754566026 ], [ 120.212632169249915, -3.741820870517066 ], [ 120.212362674664689, -3.741265102154725 ], [ 120.212183011607863, -3.739436442474631 ], [ 120.211895550716946, -3.738190441781944 ], [ 120.210889437598738, -3.735572938158678 ], [ 120.209344335310064, -3.734371752375268 ], [ 120.2088322955981, -3.73413868628658 ], [ 120.208221441204913, -3.734111794041596 ], [ 120.208580767318551, -3.733287098128785 ], [ 120.208688565152642, -3.732014196395228 ], [ 120.208383137956048, -3.726348864905397 ], [ 120.208877211362307, -3.725040096428502 ], [ 120.210134852760063, -3.723838896250412 ], [ 120.211617072978882, -3.723032119091255 ], [ 120.212407590428882, -3.722799049996535 ], [ 120.21324302364313, -3.722781121602079 ], [ 120.221633288396788, -3.724027144147835 ], [ 120.221336844353033, -3.724950454680772 ], [ 120.221687187313833, -3.727092889952319 ] ], [ [ 120.212722000778342, -3.728607830572184 ], [ 120.213485568769826, -3.728052053843153 ], [ 120.213898793800539, -3.728150659417485 ], [ 120.21399760848179, -3.7275231692103 ], [ 120.213467602464149, -3.72726320885044 ], [ 120.212650135555592, -3.727594882399497 ], [ 120.212533354568663, -3.728249264980762 ], [ 120.212722000778342, -3.728607830572184 ] ] ] ] } }
]
}
