{
"type": "FeatureCollection",
"name": "Sistem_Infrastruktur_Energi",
"crs": { "type": "name", "properties": { "name": "urn:ogc:def:crs:OGC:1.3:CRS84" } },
"features": [
{ "type": "Feature", "properties": { "FID": 0, "OBJECTID": 1, "NAMOBJ": "Infrastruktur Minyak dan Gas Bumi", "STSJRN": 2, "WADMPR": "Provinsi Sulawesi Selatan", "WADMKK": "Kabupaten Wajo", "REMARK": "Kilang Gas Wajo", "SBDATA": "Dinas ESDM Provinsi Sulawesi Selatan, 2022" }, "geometry": { "type": "Point", "coordinates": [ 120.167572674598489, -3.955101827494528 ] } },
{ "type": "Feature", "properties": { "FID": 1, "OBJECTID": 2, "NAMOBJ": "Infrastruktur Minyak dan Gas Bumi", "STSJRN": 2, "WADMPR": "Provinsi Sulawesi Selatan", "WADMKK": "Kabupaten Wajo", "REMARK": "Depot LNG Langkenna", "SBDATA": "Dinas ESDM Provinsi Sulawesi Selatan, 2022" }, "geometry": { "type": "Point", "coordinates": [ 120.343435857770572, -3.90878616973789 ] } },
{ "type": "Feature", "properties": { "FID": 2, "OBJECTID": 3, "NAMOBJ": "Pembangkit Listrik Tenaga Gas (PLTG)", "STSJRN": 2, "WADMPR": "Provinsi Sulawesi Selatan", "WADMKK": "Kabupaten Wajo", "REMARK": "Pembangkit Listrik Tenaga Gas (PLTG) Sengkang", "SBDATA": "RUPTL 2021-2030" }, "geometry": { "type": "Point", "coordinates": [ 120.07458805953928, -4.175620817076703 ] } },
{ "type": "Feature", "properties": { "FID": 3, "OBJECTID": 4, "NAMOBJ": "Pembangkit Listrik Lainnya", "STSJRN": 2, "WADMPR": "Provinsi Sulawesi Selatan", "WADMKK": "Kabupaten Wajo", "REMARK": "Pembangkit Listrik Tenaga Gas Uap (PLTGU) Sengkang", "SBDATA": "RUPTL 2021-2030" }, "geometry": { "type": "Point", "coordinates": [ 120.072503968080127, -4.175817921817113 ] } },
{ "type": "Feature", "properties": { "FID": 4, "OBJECTID": 5, "NAMOBJ": "Gardu Listrik", "STSJRN": 2, "WADMPR": "Provinsi Sulawesi Selatan", "WADMKK": "Kabupaten Wajo", "REMARK": "GI Sengkang", "SBDATA": "RUPTL 2021-2030" }, "geometry": { "type": "Point", "coordinates": [ 120.073258552918787, -4.176006067204956 ] } },
{ "type": "Feature", "properties": { "FID": 5, "OBJECTID": 6, "NAMOBJ": "Gardu Listrik", "STSJRN": 1, "WADMPR": "Provinsi Sulawesi Selatan", "WADMKK": "Kabupaten Wajo", "REMARK": "GI Keera", "SBDATA": "RUPTL 2021-2030" }, "geometry": { "type": "Point", "coordinates": [ 120.339483270520432, -3.910157393870997 ] } },
{ "type": "Feature", "properties": { "FID": 6, "OBJECTID": 7, "NAMOBJ": "Pembangkit Listrik Lainnya", "STSJRN": 1, "WADMPR": "Provinsi Sulawesi Selatan", "WADMKK": "Kabupaten Wajo", "REMARK": "PLTU/GU Makassar", "SBDATA": "RUPTL 2021-2030" }, "geometry": { "type": "Point", "coordinates": [ 120.070240213564134, -4.176462991530485 ] } },
{ "type": "Feature", "properties": { "FID": 7, "OBJECTID": 8, "NAMOBJ": "Gardu Listrik", "STSJRN": 2, "WADMPR": "Provinsi Sulawesi Selatan", "WADMKK": "Kabupaten Wajo", "REMARK": "GI Siwa", "SBDATA": "RUPTL 2021-2030" }, "geometry": { "type": "Point", "coordinates": [ 120.386905334369118, -3.717044016638059 ] } }
]
}
