{
"type": "FeatureCollection",
"name": "Sistem_Infrastruktur_Telekomunikasi",
"crs": { "type": "name", "properties": { "name": "urn:ogc:def:crs:OGC:1.3:CRS84" } },
"features": [
{ "type": "Feature", "properties": { "FID": 0, "OBJECTID": 1, "NAMOBJ": "Jaringan Bergerak Seluler", "STSJRN": 2, "WADMPR": "Provinsi Sulawesi Selatan", "WADMKK": "Kabupaten Wajo", "REMARK": "Menara Base Transciever Station (BTS)", "SBDATA": "PT. Telkom Kabupaten Wajo, 2022" }, "geometry": { "type": "Point", "coordinates": [ 120.38753415506801, -3.692427827772441 ] } },
{ "type": "Feature", "properties": { "FID": 1, "OBJECTID": 2, "NAMOBJ": "Jaringan Bergerak Seluler", "STSJRN": 2, "WADMPR": "Provinsi Sulawesi Selatan", "WADMKK": "Kabupaten Wajo", "REMARK": "Menara Base Transciever Station (BTS)", "SBDATA": "PT. Telkom Kabupaten Wajo, 2022" }, "geometry": { "type": "Point", "coordinates": [ 120.399571579875186, -3.672167815607623 ] } },
{ "type": "Feature", "properties": { "FID": 2, "OBJECTID": 3, "NAMOBJ": "Jaringan Bergerak Seluler", "STSJRN": 2, "WADMPR": "Provinsi Sulawesi Selatan", "WADMKK": "Kabupaten Wajo", "REMARK": "Menara Base Transciever Station (BTS)", "SBDATA": "PT. Telkom Kabupaten Wajo, 2022" }, "geometry": { "type": "Point", "coordinates": [ 120.412453421049477, -3.697179002734117 ] } },
{ "type": "Feature", "properties": { "FID": 3, "OBJECTID": 4, "NAMOBJ": "Jaringan Bergerak Seluler", "STSJRN": 2, "WADMPR": "Provinsi Sulawesi Selatan", "WADMKK": "Kabupaten Wajo", "REMARK": "Menara Base Transciever Station (BTS)", "SBDATA": "PT. Telkom Kabupaten Wajo, 2022" }, "geometry": { "type": "Point", "coordinates": [ 120.420259780868463, -3.704565684557123 ] } },
{ "type": "Feature", "properties": { "FID": 4, "OBJECTID": 5, "NAMOBJ": "Jaringan Bergerak Seluler", "STSJRN": 2, "WADMPR": "Provinsi Sulawesi Selatan", "WADMKK": "Kabupaten Wajo", "REMARK": "Menara Base Transciever Station (BTS)", "SBDATA": "PT. Telkom Kabupaten Wajo, 2022" }, "geometry": { "type": "Point", "coordinates": [ 120.366145268153119, -3.745047905652349 ] } },
{ "type": "Feature", "properties": { "FID": 5, "OBJECTID": 6, "NAMOBJ": "Jaringan Bergerak Seluler", "STSJRN": 2, "WADMPR": "Provinsi Sulawesi Selatan", "WADMKK": "Kabupaten Wajo", "REMARK": "Menara Base Transciever Station (BTS)", "SBDATA": "PT. Telkom Kabupaten Wajo, 2022" }, "geometry": { "type": "Point", "coordinates": [ 120.291082043012096, -3.749511951308826 ] } },
{ "type": "Feature", "properties": { "FID": 6, "OBJECTID": 7, "NAMOBJ": "Jaringan Bergerak Seluler", "STSJRN": 2, "WADMPR": "Provinsi Sulawesi Selatan", "WADMKK": "Kabupaten Wajo", "REMARK": "Menara Base Transciever Station (BTS)", "SBDATA": "PT. Telkom Kabupaten Wajo, 2022" }, "geometry": { "type": "Point", "coordinates": [ 120.322936302986975, -3.829959443349755 ] } },
{ "type": "Feature", "properties": { "FID": 7, "OBJECTID": 8, "NAMOBJ": "Jaringan Bergerak Seluler", "STSJRN": 2, "WADMPR": "Provinsi Sulawesi Selatan", "WADMKK": "Kabupaten Wajo", "REMARK": "Menara Base Transciever Station (BTS)", "SBDATA": "PT. Telkom Kabupaten Wajo, 2022" }, "geometry": { "type": "Point", "coordinates": [ 120.324211910690423, -3.828328159312139 ] } },
{ "type": "Feature", "properties": { "FID": 8, "OBJECTID": 9, "NAMOBJ": "Jaringan Bergerak Seluler", "STSJRN": 2, "WADMPR": "Provinsi Sulawesi Selatan", "WADMKK": "Kabupaten Wajo", "REMARK": "Menara Base Transciever Station (BTS)", "SBDATA": "PT. Telkom Kabupaten Wajo, 2022" }, "geometry": { "type": "Point", "coordinates": [ 120.256451988809275, -3.956634286802061 ] } },
{ "type": "Feature", "properties": { "FID": 9, "OBJECTID": 10, "NAMOBJ": "Jaringan Bergerak Seluler", "STSJRN": 2, "WADMPR": "Provinsi Sulawesi Selatan", "WADMKK": "Kabupaten Wajo", "REMARK": "Menara Base Transciever Station (BTS)", "SBDATA": "PT. Telkom Kabupaten Wajo, 2022" }, "geometry": { "type": "Point", "coordinates": [ 120.27825410075485, -3.942125099517117 ] } },
{ "type": "Feature", "properties": { "FID": 10, "OBJECTID": 11, "NAMOBJ": "Jaringan Bergerak Seluler", "STSJRN": 2, "WADMPR": "Provinsi Sulawesi Selatan", "WADMKK": "Kabupaten Wajo", "REMARK": "Menara Base Transciever Station (BTS)", "SBDATA": "PT. Telkom Kabupaten Wajo, 2022" }, "geometry": { "type": "Point", "coordinates": [ 120.280095647087307, -3.898551210334475 ] } },
{ "type": "Feature", "properties": { "FID": 11, "OBJECTID": 12, "NAMOBJ": "Jaringan Bergerak Seluler", "STSJRN": 2, "WADMPR": "Provinsi Sulawesi Selatan", "WADMKK": "Kabupaten Wajo", "REMARK": "Menara Base Transciever Station (BTS)", "SBDATA": "PT. Telkom Kabupaten Wajo, 2022" }, "geometry": { "type": "Point", "coordinates": [ 120.164707048842146, -3.958964336456956 ] } },
{ "type": "Feature", "properties": { "FID": 12, "OBJECTID": 13, "NAMOBJ": "Jaringan Bergerak Seluler", "STSJRN": 2, "WADMPR": "Provinsi Sulawesi Selatan", "WADMKK": "Kabupaten Wajo", "REMARK": "Menara Base Transciever Station (BTS)", "SBDATA": "PT. Telkom Kabupaten Wajo, 2022" }, "geometry": { "type": "Point", "coordinates": [ 120.16748284307009, -3.986512194605325 ] } },
{ "type": "Feature", "properties": { "FID": 13, "OBJECTID": 14, "NAMOBJ": "Jaringan Bergerak Seluler", "STSJRN": 2, "WADMPR": "Provinsi Sulawesi Selatan", "WADMKK": "Kabupaten Wajo", "REMARK": "Menara Base Transciever Station (BTS)", "SBDATA": "PT. Telkom Kabupaten Wajo, 2022" }, "geometry": { "type": "Point", "coordinates": [ 120.225702656633871, -3.95818466672536 ] } },
{ "type": "Feature", "properties": { "FID": 14, "OBJECTID": 15, "NAMOBJ": "Jaringan Bergerak Seluler", "STSJRN": 2, "WADMPR": "Provinsi Sulawesi Selatan", "WADMKK": "Kabupaten Wajo", "REMARK": "Menara Base Transciever Station (BTS)", "SBDATA": "PT. Telkom Kabupaten Wajo, 2022" }, "geometry": { "type": "Point", "coordinates": [ 120.04912980438732, -3.912568233476343 ] } },
{ "type": "Feature", "properties": { "FID": 15, "OBJECTID": 16, "NAMOBJ": "Jaringan Bergerak Seluler", "STSJRN": 2, "WADMPR": "Provinsi Sulawesi Selatan", "WADMKK": "Kabupaten Wajo", "REMARK": "Menara Base Transciever Station (BTS)", "SBDATA": "PT. Telkom Kabupaten Wajo, 2022" }, "geometry": { "type": "Point", "coordinates": [ 120.000459082293744, -3.935081017295905 ] } },
{ "type": "Feature", "properties": { "FID": 16, "OBJECTID": 17, "NAMOBJ": "Jaringan Bergerak Seluler", "STSJRN": 2, "WADMPR": "Provinsi Sulawesi Selatan", "WADMKK": "Kabupaten Wajo", "REMARK": "Menara Base Transciever Station (BTS)", "SBDATA": "PT. Telkom Kabupaten Wajo, 2022" }, "geometry": { "type": "Point", "coordinates": [ 120.066620002969145, -3.951660505039754 ] } },
{ "type": "Feature", "properties": { "FID": 17, "OBJECTID": 18, "NAMOBJ": "Jaringan Bergerak Seluler", "STSJRN": 2, "WADMPR": "Provinsi Sulawesi Selatan", "WADMKK": "Kabupaten Wajo", "REMARK": "Menara Base Transciever Station (BTS)", "SBDATA": "PT. Telkom Kabupaten Wajo, 2022" }, "geometry": { "type": "Point", "coordinates": [ 120.06361064676733, -3.965129974667136 ] } },
{ "type": "Feature", "properties": { "FID": 18, "OBJECTID": 19, "NAMOBJ": "Jaringan Bergerak Seluler", "STSJRN": 2, "WADMPR": "Provinsi Sulawesi Selatan", "WADMKK": "Kabupaten Wajo", "REMARK": "Menara Base Transciever Station (BTS)", "SBDATA": "PT. Telkom Kabupaten Wajo, 2022" }, "geometry": { "type": "Point", "coordinates": [ 120.05865194639901, -3.980364639161325 ] } },
{ "type": "Feature", "properties": { "FID": 19, "OBJECTID": 20, "NAMOBJ": "Jaringan Bergerak Seluler", "STSJRN": 2, "WADMPR": "Provinsi Sulawesi Selatan", "WADMKK": "Kabupaten Wajo", "REMARK": "Menara Base Transciever Station (BTS)", "SBDATA": "PT. Telkom Kabupaten Wajo, 2022" }, "geometry": { "type": "Point", "coordinates": [ 120.121965207623759, -3.947699381830557 ] } },
{ "type": "Feature", "properties": { "FID": 20, "OBJECTID": 21, "NAMOBJ": "Jaringan Bergerak Seluler", "STSJRN": 2, "WADMPR": "Provinsi Sulawesi Selatan", "WADMKK": "Kabupaten Wajo", "REMARK": "Menara Base Transciever Station (BTS)", "SBDATA": "PT. Telkom Kabupaten Wajo, 2022" }, "geometry": { "type": "Point", "coordinates": [ 120.068111206340774, -3.948084740800957 ] } },
{ "type": "Feature", "properties": { "FID": 21, "OBJECTID": 22, "NAMOBJ": "Jaringan Bergerak Seluler", "STSJRN": 2, "WADMPR": "Provinsi Sulawesi Selatan", "WADMKK": "Kabupaten Wajo", "REMARK": "Menara Base Transciever Station (BTS)", "SBDATA": "PT. Telkom Kabupaten Wajo, 2022" }, "geometry": { "type": "Point", "coordinates": [ 120.115641068023535, -3.947394679262219 ] } },
{ "type": "Feature", "properties": { "FID": 22, "OBJECTID": 23, "NAMOBJ": "Jaringan Bergerak Seluler", "STSJRN": 2, "WADMPR": "Provinsi Sulawesi Selatan", "WADMKK": "Kabupaten Wajo", "REMARK": "Menara Base Transciever Station (BTS)", "SBDATA": "PT. Telkom Kabupaten Wajo, 2022" }, "geometry": { "type": "Point", "coordinates": [ 120.110655418196686, -3.947260251622993 ] } },
{ "type": "Feature", "properties": { "FID": 23, "OBJECTID": 24, "NAMOBJ": "Jaringan Bergerak Seluler", "STSJRN": 2, "WADMPR": "Provinsi Sulawesi Selatan", "WADMKK": "Kabupaten Wajo", "REMARK": "Menara Base Transciever Station (BTS)", "SBDATA": "PT. Telkom Kabupaten Wajo, 2022" }, "geometry": { "type": "Point", "coordinates": [ 120.328442975678627, -4.039203634085287 ] } },
{ "type": "Feature", "properties": { "FID": 24, "OBJECTID": 25, "NAMOBJ": "Jaringan Bergerak Seluler", "STSJRN": 2, "WADMPR": "Provinsi Sulawesi Selatan", "WADMKK": "Kabupaten Wajo", "REMARK": "Menara Base Transciever Station (BTS)", "SBDATA": "PT. Telkom Kabupaten Wajo, 2022" }, "geometry": { "type": "Point", "coordinates": [ 120.290893396802403, -4.108969713434616 ] } },
{ "type": "Feature", "properties": { "FID": 25, "OBJECTID": 26, "NAMOBJ": "Jaringan Bergerak Seluler", "STSJRN": 2, "WADMPR": "Provinsi Sulawesi Selatan", "WADMKK": "Kabupaten Wajo", "REMARK": "Menara Base Transciever Station (BTS)", "SBDATA": "PT. Telkom Kabupaten Wajo, 2022" }, "geometry": { "type": "Point", "coordinates": [ 120.303326080334628, -4.068048062413392 ] } },
{ "type": "Feature", "properties": { "FID": 26, "OBJECTID": 27, "NAMOBJ": "Jaringan Bergerak Seluler", "STSJRN": 2, "WADMPR": "Provinsi Sulawesi Selatan", "WADMKK": "Kabupaten Wajo", "REMARK": "Menara Base Transciever Station (BTS)", "SBDATA": "PT. Telkom Kabupaten Wajo, 2022" }, "geometry": { "type": "Point", "coordinates": [ 120.292177987658718, -4.119381237864873 ] } },
{ "type": "Feature", "properties": { "FID": 27, "OBJECTID": 28, "NAMOBJ": "Jaringan Bergerak Seluler", "STSJRN": 2, "WADMPR": "Provinsi Sulawesi Selatan", "WADMKK": "Kabupaten Wajo", "REMARK": "Menara Base Transciever Station (BTS)", "SBDATA": "PT. Telkom Kabupaten Wajo, 2022" }, "geometry": { "type": "Point", "coordinates": [ 120.286662331814227, -4.081945708586495 ] } },
{ "type": "Feature", "properties": { "FID": 28, "OBJECTID": 29, "NAMOBJ": "Jaringan Bergerak Seluler", "STSJRN": 2, "WADMPR": "Provinsi Sulawesi Selatan", "WADMKK": "Kabupaten Wajo", "REMARK": "Menara Base Transciever Station (BTS)", "SBDATA": "PT. Telkom Kabupaten Wajo, 2022" }, "geometry": { "type": "Point", "coordinates": [ 120.313584840879273, -4.000545654651283 ] } },
{ "type": "Feature", "properties": { "FID": 29, "OBJECTID": 30, "NAMOBJ": "Jaringan Bergerak Seluler", "STSJRN": 2, "WADMPR": "Provinsi Sulawesi Selatan", "WADMKK": "Kabupaten Wajo", "REMARK": "Menara Base Transciever Station (BTS)", "SBDATA": "PT. Telkom Kabupaten Wajo, 2022" }, "geometry": { "type": "Point", "coordinates": [ 120.312219401647411, -4.218848281138897 ] } },
{ "type": "Feature", "properties": { "FID": 30, "OBJECTID": 31, "NAMOBJ": "Jaringan Bergerak Seluler", "STSJRN": 2, "WADMPR": "Provinsi Sulawesi Selatan", "WADMKK": "Kabupaten Wajo", "REMARK": "Menara Base Transciever Station (BTS)", "SBDATA": "PT. Telkom Kabupaten Wajo, 2022" }, "geometry": { "type": "Point", "coordinates": [ 120.274562024937126, -4.153141593181168 ] } },
{ "type": "Feature", "properties": { "FID": 31, "OBJECTID": 32, "NAMOBJ": "Jaringan Bergerak Seluler", "STSJRN": 2, "WADMPR": "Provinsi Sulawesi Selatan", "WADMKK": "Kabupaten Wajo", "REMARK": "Menara Base Transciever Station (BTS)", "SBDATA": "PT. Telkom Kabupaten Wajo, 2022" }, "geometry": { "type": "Point", "coordinates": [ 120.267420418428387, -4.148303414094175 ] } },
{ "type": "Feature", "properties": { "FID": 32, "OBJECTID": 33, "NAMOBJ": "Jaringan Bergerak Seluler", "STSJRN": 2, "WADMPR": "Provinsi Sulawesi Selatan", "WADMKK": "Kabupaten Wajo", "REMARK": "Menara Base Transciever Station (BTS)", "SBDATA": "PT. Telkom Kabupaten Wajo, 2022" }, "geometry": { "type": "Point", "coordinates": [ 120.284434509909602, -4.177457472966217 ] } },
{ "type": "Feature", "properties": { "FID": 33, "OBJECTID": 34, "NAMOBJ": "Jaringan Bergerak Seluler", "STSJRN": 2, "WADMPR": "Provinsi Sulawesi Selatan", "WADMKK": "Kabupaten Wajo", "REMARK": "Menara Base Transciever Station (BTS)", "SBDATA": "PT. Telkom Kabupaten Wajo, 2022" }, "geometry": { "type": "Point", "coordinates": [ 120.177993131894283, -4.021245913359627 ] } },
{ "type": "Feature", "properties": { "FID": 34, "OBJECTID": 35, "NAMOBJ": "Jaringan Bergerak Seluler", "STSJRN": 2, "WADMPR": "Provinsi Sulawesi Selatan", "WADMKK": "Kabupaten Wajo", "REMARK": "Menara Base Transciever Station (BTS)", "SBDATA": "PT. Telkom Kabupaten Wajo, 2022" }, "geometry": { "type": "Point", "coordinates": [ 120.135475869496887, -4.023952142146529 ] } },
{ "type": "Feature", "properties": { "FID": 35, "OBJECTID": 36, "NAMOBJ": "Jaringan Bergerak Seluler", "STSJRN": 2, "WADMPR": "Provinsi Sulawesi Selatan", "WADMKK": "Kabupaten Wajo", "REMARK": "Menara Base Transciever Station (BTS)", "SBDATA": "PT. Telkom Kabupaten Wajo, 2022" }, "geometry": { "type": "Point", "coordinates": [ 120.215928986342632, -4.038997534751257 ] } },
{ "type": "Feature", "properties": { "FID": 36, "OBJECTID": 37, "NAMOBJ": "Jaringan Bergerak Seluler", "STSJRN": 2, "WADMPR": "Provinsi Sulawesi Selatan", "WADMKK": "Kabupaten Wajo", "REMARK": "Menara Base Transciever Station (BTS)", "SBDATA": "PT. Telkom Kabupaten Wajo, 2022" }, "geometry": { "type": "Point", "coordinates": [ 120.152013853877534, -4.021102536749355 ] } },
{ "type": "Feature", "properties": { "FID": 37, "OBJECTID": 38, "NAMOBJ": "Jaringan Bergerak Seluler", "STSJRN": 2, "WADMPR": "Provinsi Sulawesi Selatan", "WADMKK": "Kabupaten Wajo", "REMARK": "Menara Base Transciever Station (BTS)", "SBDATA": "PT. Telkom Kabupaten Wajo, 2022" }, "geometry": { "type": "Point", "coordinates": [ 120.208643649388435, -4.122866648922583 ] } },
{ "type": "Feature", "properties": { "FID": 38, "OBJECTID": 39, "NAMOBJ": "Jaringan Bergerak Seluler", "STSJRN": 2, "WADMPR": "Provinsi Sulawesi Selatan", "WADMKK": "Kabupaten Wajo", "REMARK": "Menara Base Transciever Station (BTS)", "SBDATA": "PT. Telkom Kabupaten Wajo, 2022" }, "geometry": { "type": "Point", "coordinates": [ 120.006657457754159, -4.017168631168536 ] } },
{ "type": "Feature", "properties": { "FID": 39, "OBJECTID": 40, "NAMOBJ": "Jaringan Bergerak Seluler", "STSJRN": 2, "WADMPR": "Provinsi Sulawesi Selatan", "WADMKK": "Kabupaten Wajo", "REMARK": "Menara Base Transciever Station (BTS)", "SBDATA": "PT. Telkom Kabupaten Wajo, 2022" }, "geometry": { "type": "Point", "coordinates": [ 120.233464100688664, -4.233666013795452 ] } },
{ "type": "Feature", "properties": { "FID": 40, "OBJECTID": 41, "NAMOBJ": "Jaringan Bergerak Seluler", "STSJRN": 2, "WADMPR": "Provinsi Sulawesi Selatan", "WADMKK": "Kabupaten Wajo", "REMARK": "Menara Base Transciever Station (BTS)", "SBDATA": "PT. Telkom Kabupaten Wajo, 2022" }, "geometry": { "type": "Point", "coordinates": [ 120.222783131960469, -4.192768744043397 ] } },
{ "type": "Feature", "properties": { "FID": 41, "OBJECTID": 42, "NAMOBJ": "Jaringan Bergerak Seluler", "STSJRN": 2, "WADMPR": "Provinsi Sulawesi Selatan", "WADMKK": "Kabupaten Wajo", "REMARK": "Menara Base Transciever Station (BTS)", "SBDATA": "PT. Telkom Kabupaten Wajo, 2022" }, "geometry": { "type": "Point", "coordinates": [ 120.011140051021911, -4.222440756226403 ] } },
{ "type": "Feature", "properties": { "FID": 42, "OBJECTID": 43, "NAMOBJ": "Jaringan Bergerak Seluler", "STSJRN": 2, "WADMPR": "Provinsi Sulawesi Selatan", "WADMKK": "Kabupaten Wajo", "REMARK": "Menara Base Transciever Station (BTS)", "SBDATA": "PT. Telkom Kabupaten Wajo, 2022" }, "geometry": { "type": "Point", "coordinates": [ 120.052570351925496, -4.125420218018481 ] } },
{ "type": "Feature", "properties": { "FID": 43, "OBJECTID": 44, "NAMOBJ": "Jaringan Bergerak Seluler", "STSJRN": 2, "WADMPR": "Provinsi Sulawesi Selatan", "WADMKK": "Kabupaten Wajo", "REMARK": "Menara Base Transciever Station (BTS)", "SBDATA": "PT. Telkom Kabupaten Wajo, 2022" }, "geometry": { "type": "Point", "coordinates": [ 120.03529574901188, -4.139388543571408 ] } },
{ "type": "Feature", "properties": { "FID": 44, "OBJECTID": 45, "NAMOBJ": "Jaringan Bergerak Seluler", "STSJRN": 2, "WADMPR": "Provinsi Sulawesi Selatan", "WADMKK": "Kabupaten Wajo", "REMARK": "Menara Base Transciever Station (BTS)", "SBDATA": "PT. Telkom Kabupaten Wajo, 2022" }, "geometry": { "type": "Point", "coordinates": [ 120.403766712252036, -3.719249220777357 ] } },
{ "type": "Feature", "properties": { "FID": 45, "OBJECTID": 46, "NAMOBJ": "Jaringan Bergerak Seluler", "STSJRN": 2, "WADMPR": "Provinsi Sulawesi Selatan", "WADMKK": "Kabupaten Wajo", "REMARK": "Menara Base Transciever Station (BTS)", "SBDATA": "PT. Telkom Kabupaten Wajo, 2022" }, "geometry": { "type": "Point", "coordinates": [ 120.331973354745216, -3.795952804145947 ] } },
{ "type": "Feature", "properties": { "FID": 46, "OBJECTID": 47, "NAMOBJ": "Jaringan Bergerak Seluler", "STSJRN": 2, "WADMPR": "Provinsi Sulawesi Selatan", "WADMKK": "Kabupaten Wajo", "REMARK": "Menara Base Transciever Station (BTS)", "SBDATA": "PT. Telkom Kabupaten Wajo, 2022" }, "geometry": { "type": "Point", "coordinates": [ 120.035655075125547, -4.091506361010596 ] } },
{ "type": "Feature", "properties": { "FID": 47, "OBJECTID": 48, "NAMOBJ": "Jaringan Bergerak Seluler", "STSJRN": 2, "WADMPR": "Provinsi Sulawesi Selatan", "WADMKK": "Kabupaten Wajo", "REMARK": "Menara Base Transciever Station (BTS)", "SBDATA": "PT. Telkom Kabupaten Wajo, 2022" }, "geometry": { "type": "Point", "coordinates": [ 120.10358567691064, -4.034069056828645 ] } },
{ "type": "Feature", "properties": { "FID": 48, "OBJECTID": 49, "NAMOBJ": "Jaringan Bergerak Seluler", "STSJRN": 2, "WADMPR": "Provinsi Sulawesi Selatan", "WADMKK": "Kabupaten Wajo", "REMARK": "Menara Base Transciever Station (BTS)", "SBDATA": "PT. Telkom Kabupaten Wajo, 2022" }, "geometry": { "type": "Point", "coordinates": [ 120.322639858943191, -4.039114025685619 ] } },
{ "type": "Feature", "properties": { "FID": 49, "OBJECTID": 50, "NAMOBJ": "Jaringan Bergerak Seluler", "STSJRN": 2, "WADMPR": "Provinsi Sulawesi Selatan", "WADMKK": "Kabupaten Wajo", "REMARK": "Menara Base Transciever Station (BTS)", "SBDATA": "PT. Telkom Kabupaten Wajo, 2022" }, "geometry": { "type": "Point", "coordinates": [ 120.033912343474341, -4.126522282145423 ] } },
{ "type": "Feature", "properties": { "FID": 50, "OBJECTID": 51, "NAMOBJ": "Jaringan Bergerak Seluler", "STSJRN": 2, "WADMPR": "Provinsi Sulawesi Selatan", "WADMKK": "Kabupaten Wajo", "REMARK": "Menara Base Transciever Station (BTS)", "SBDATA": "PT. Telkom Kabupaten Wajo, 2022" }, "geometry": { "type": "Point", "coordinates": [ 120.03736187416537, -4.1338962165672 ] } },
{ "type": "Feature", "properties": { "FID": 51, "OBJECTID": 52, "NAMOBJ": "Jaringan Bergerak Seluler", "STSJRN": 2, "WADMPR": "Provinsi Sulawesi Selatan", "WADMKK": "Kabupaten Wajo", "REMARK": "Menara Base Transciever Station (BTS)", "SBDATA": "PT. Telkom Kabupaten Wajo, 2022" }, "geometry": { "type": "Point", "coordinates": [ 120.037748149737524, -4.180897831449407 ] } },
{ "type": "Feature", "properties": { "FID": 52, "OBJECTID": 53, "NAMOBJ": "Jaringan Bergerak Seluler", "STSJRN": 2, "WADMPR": "Provinsi Sulawesi Selatan", "WADMKK": "Kabupaten Wajo", "REMARK": "Menara Base Transciever Station (BTS)", "SBDATA": "PT. Telkom Kabupaten Wajo, 2022" }, "geometry": { "type": "Point", "coordinates": [ 120.010726825991227, -4.212989196351998 ] } },
{ "type": "Feature", "properties": { "FID": 53, "OBJECTID": 55, "NAMOBJ": "Jaringan Bergerak Seluler", "STSJRN": 2, "WADMPR": "Provinsi Sulawesi Selatan", "WADMKK": "Kabupaten Wajo", "REMARK": "Menara Base Transciever Station (BTS)", "SBDATA": "PT. Telkom Kabupaten Wajo, 2022" }, "geometry": { "type": "Point", "coordinates": [ 119.936175640562141, -4.002615704103725 ] } },
{ "type": "Feature", "properties": { "FID": 54, "OBJECTID": 56, "NAMOBJ": "Jaringan Bergerak Seluler", "STSJRN": 2, "WADMPR": "Provinsi Sulawesi Selatan", "WADMKK": "Kabupaten Wajo", "REMARK": "Menara Base Transciever Station (BTS)", "SBDATA": "PT. Telkom Kabupaten Wajo, 2022" }, "geometry": { "type": "Point", "coordinates": [ 119.933211200124546, -4.001988416943373 ] } },
{ "type": "Feature", "properties": { "FID": 55, "OBJECTID": 57, "NAMOBJ": "Jaringan Bergerak Seluler", "STSJRN": 2, "WADMPR": "Provinsi Sulawesi Selatan", "WADMKK": "Kabupaten Wajo", "REMARK": "Menara Base Transciever Station (BTS)", "SBDATA": "PT. Telkom Kabupaten Wajo, 2022" }, "geometry": { "type": "Point", "coordinates": [ 119.942778257900429, -3.954474504153438 ] } },
{ "type": "Feature", "properties": { "FID": 56, "OBJECTID": 58, "NAMOBJ": "Jaringan Bergerak Seluler", "STSJRN": 2, "WADMPR": "Provinsi Sulawesi Selatan", "WADMKK": "Kabupaten Wajo", "REMARK": "Menara Base Transciever Station (BTS)", "SBDATA": "PT. Telkom Kabupaten Wajo, 2022" }, "geometry": { "type": "Point", "coordinates": [ 119.939822800615659, -3.979020415381087 ] } },
{ "type": "Feature", "properties": { "FID": 57, "OBJECTID": 59, "NAMOBJ": "Infrastruktur Jaringan Tetap", "STSJRN": 2, "WADMPR": "Provinsi Sulawesi Selatan", "WADMKK": "Kabupaten Wajo", "REMARK": "Stasiun Telepon Otomat (STO)", "SBDATA": "PT. Telkom Kabupaten Wajo, 2022" }, "geometry": { "type": "Point", "coordinates": [ 120.034083023378329, -4.126800037903619 ] } }
]
}
