{
"type": "FeatureCollection",
"name": "Sistem_Infrastruktur_Sumber_Daya_Air",
"crs": { "type": "name", "properties": { "name": "urn:ogc:def:crs:OGC:1.3:CRS84" } },
"features": [
{ "type": "Feature", "properties": { "FID": 0, "OBJECTID": 60, "NAMOBJ": "Bangunan Sumber Daya Air", "STSJRN": 2, "WADMPR": "Provinsi Sulawesi Selatan", "WADMKK": "Kabupaten Wajo", "REMARK": "Bendungan Paselloreng", "SBDATA": "BBWS Pompengan Jeneberang, 2022" }, "geometry": { "type": "Point", "coordinates": [ 120.182269112646694, -3.886048617167901 ] } },
{ "type": "Feature", "properties": { "FID": 1, "OBJECTID": 61, "NAMOBJ": "Bangunan Sumber Daya Air", "STSJRN": 2, "WADMPR": "Provinsi Sulawesi Selatan", "WADMKK": "Kabupaten Wajo", "REMARK": "Embung Tempe", "SBDATA": "Dinas PUPR dan Pertanahan Kabupaten Wajo, 2022" }, "geometry": { "type": "Point", "coordinates": [ 120.054932921122756, -4.159655168906433 ] } },
{ "type": "Feature", "properties": { "FID": 2, "OBJECTID": 62, "NAMOBJ": "Bangunan Sumber Daya Air", "STSJRN": 2, "WADMPR": "Provinsi Sulawesi Selatan", "WADMKK": "Kabupaten Wajo", "REMARK": "Embung Sanreseng Ade", "SBDATA": "Dinas PUPR dan Pertanahan Kabupaten Wajo, 2022" }, "geometry": { "type": "Point", "coordinates": [ 120.255688420817762, -4.220451906735641 ] } },
{ "type": "Feature", "properties": { "FID": 3, "OBJECTID": 63, "NAMOBJ": "Bangunan Sumber Daya Air", "STSJRN": 2, "WADMPR": "Provinsi Sulawesi Selatan", "WADMKK": "Kabupaten Wajo", "REMARK": "Embung Ujung Tanah", "SBDATA": "Dinas PUPR dan Pertanahan Kabupaten Wajo, 2022" }, "geometry": { "type": "Point", "coordinates": [ 120.246229160875998, -4.2162412626281 ] } },
{ "type": "Feature", "properties": { "FID": 4, "OBJECTID": 64, "NAMOBJ": "Bangunan Sumber Daya Air", "STSJRN": 2, "WADMPR": "Provinsi Sulawesi Selatan", "WADMKK": "Kabupaten Wajo", "REMARK": "Embung Rajamawellang", "SBDATA": "Dinas PUPR dan Pertanahan Kabupaten Wajo, 2022" }, "geometry": { "type": "Point", "coordinates": [ 120.240201465319558, -4.213455057920401 ] } },
{ "type": "Feature", "properties": { "FID": 5, "OBJECTID": 65, "NAMOBJ": "Bangunan Sumber Daya Air", "STSJRN": 2, "WADMPR": "Provinsi Sulawesi Selatan", "WADMKK": "Kabupaten Wajo", "REMARK": "Embung Tocule", "SBDATA": "Dinas PUPR dan Pertanahan Kabupaten Wajo, 2022" }, "geometry": { "type": "Point", "coordinates": [ 120.220519377444489, -4.170334807852846 ] } },
{ "type": "Feature", "properties": { "FID": 6, "OBJECTID": 66, "NAMOBJ": "Bangunan Sumber Daya Air", "STSJRN": 2, "WADMPR": "Provinsi Sulawesi Selatan", "WADMKK": "Kabupaten Wajo", "REMARK": "Embung Laree", "SBDATA": "Dinas PUPR dan Pertanahan Kabupaten Wajo, 2022" }, "geometry": { "type": "Point", "coordinates": [ 120.081406272545749, -4.226920128300502 ] } },
{ "type": "Feature", "properties": { "FID": 7, "OBJECTID": 67, "NAMOBJ": "Bangunan Sumber Daya Air", "STSJRN": 2, "WADMPR": "Provinsi Sulawesi Selatan", "WADMKK": "Kabupaten Wajo", "REMARK": "Embung Kampiri", "SBDATA": "Dinas PUPR dan Pertanahan Kabupaten Wajo, 2022" }, "geometry": { "type": "Point", "coordinates": [ 120.109083366449468, -4.217316322867655 ] } },
{ "type": "Feature", "properties": { "FID": 8, "OBJECTID": 68, "NAMOBJ": "Bangunan Sumber Daya Air", "STSJRN": 2, "WADMPR": "Provinsi Sulawesi Selatan", "WADMKK": "Kabupaten Wajo", "REMARK": "Embung Pammana", "SBDATA": "Dinas PUPR dan Pertanahan Kabupaten Wajo, 2022" }, "geometry": { "type": "Point", "coordinates": [ 120.080858300222417, -4.213526728906156 ] } },
{ "type": "Feature", "properties": { "FID": 9, "OBJECTID": 69, "NAMOBJ": "Bangunan Sumber Daya Air", "STSJRN": 2, "WADMPR": "Provinsi Sulawesi Selatan", "WADMKK": "Kabupaten Wajo", "REMARK": "Embung Sarasa", "SBDATA": "Dinas PUPR dan Pertanahan Kabupaten Wajo, 2022" }, "geometry": { "type": "Point", "coordinates": [ 120.084703089638467, -4.211941006802957 ] } },
{ "type": "Feature", "properties": { "FID": 10, "OBJECTID": 70, "NAMOBJ": "Bangunan Sumber Daya Air", "STSJRN": 2, "WADMPR": "Provinsi Sulawesi Selatan", "WADMKK": "Kabupaten Wajo", "REMARK": "Embung Takkalalla", "SBDATA": "Dinas PUPR dan Pertanahan Kabupaten Wajo, 2022" }, "geometry": { "type": "Point", "coordinates": [ 120.263404949108349, -4.110349561841976 ] } },
{ "type": "Feature", "properties": { "FID": 11, "OBJECTID": 71, "NAMOBJ": "Bangunan Sumber Daya Air", "STSJRN": 2, "WADMPR": "Provinsi Sulawesi Selatan", "WADMKK": "Kabupaten Wajo", "REMARK": "Embung Benteng", "SBDATA": "Dinas PUPR dan Pertanahan Kabupaten Wajo, 2022" }, "geometry": { "type": "Point", "coordinates": [ 120.26304562299471, -4.105161677850006 ] } },
{ "type": "Feature", "properties": { "FID": 12, "OBJECTID": 72, "NAMOBJ": "Bangunan Sumber Daya Air", "STSJRN": 2, "WADMPR": "Provinsi Sulawesi Selatan", "WADMKK": "Kabupaten Wajo", "REMARK": "Embung Lameku", "SBDATA": "Dinas PUPR dan Pertanahan Kabupaten Wajo, 2022" }, "geometry": { "type": "Point", "coordinates": [ 120.243031158464518, -3.999246270288134 ] } },
{ "type": "Feature", "properties": { "FID": 13, "OBJECTID": 73, "NAMOBJ": "Bangunan Sumber Daya Air", "STSJRN": 2, "WADMPR": "Provinsi Sulawesi Selatan", "WADMKK": "Kabupaten Wajo", "REMARK": "Embung Tosora", "SBDATA": "Dinas PUPR dan Pertanahan Kabupaten Wajo, 2022" }, "geometry": { "type": "Point", "coordinates": [ 120.134954846632112, -4.104857034218292 ] } },
{ "type": "Feature", "properties": { "FID": 14, "OBJECTID": 74, "NAMOBJ": "Bangunan Sumber Daya Air", "STSJRN": 2, "WADMPR": "Provinsi Sulawesi Selatan", "WADMKK": "Kabupaten Wajo", "REMARK": "Embung Uraiyang", "SBDATA": "Dinas PUPR dan Pertanahan Kabupaten Wajo, 2022" }, "geometry": { "type": "Point", "coordinates": [ 120.123294714244238, -4.043397296116926 ] } },
{ "type": "Feature", "properties": { "FID": 15, "OBJECTID": 75, "NAMOBJ": "Bangunan Sumber Daya Air", "STSJRN": 2, "WADMPR": "Provinsi Sulawesi Selatan", "WADMKK": "Kabupaten Wajo", "REMARK": "Embung Sakkoli", "SBDATA": "Dinas PUPR dan Pertanahan Kabupaten Wajo, 2022" }, "geometry": { "type": "Point", "coordinates": [ 120.223385003200832, -3.93932002048472 ] } },
{ "type": "Feature", "properties": { "FID": 16, "OBJECTID": 76, "NAMOBJ": "Bangunan Sumber Daya Air", "STSJRN": 2, "WADMPR": "Provinsi Sulawesi Selatan", "WADMKK": "Kabupaten Wajo", "REMARK": "Embung Tarumpaje", "SBDATA": "Dinas PUPR dan Pertanahan Kabupaten Wajo, 2022" }, "geometry": { "type": "Point", "coordinates": [ 120.129699702219995, -3.879541817902236 ] } },
{ "type": "Feature", "properties": { "FID": 17, "OBJECTID": 77, "NAMOBJ": "Bangunan Sumber Daya Air", "STSJRN": 2, "WADMPR": "Provinsi Sulawesi Selatan", "WADMKK": "Kabupaten Wajo", "REMARK": "Embung Callacu I", "SBDATA": "Dinas PUPR dan Pertanahan Kabupaten Wajo, 2022" }, "geometry": { "type": "Point", "coordinates": [ 120.124040315930046, -3.879111614530872 ] } },
{ "type": "Feature", "properties": { "FID": 18, "OBJECTID": 78, "NAMOBJ": "Bangunan Sumber Daya Air", "STSJRN": 2, "WADMPR": "Provinsi Sulawesi Selatan", "WADMKK": "Kabupaten Wajo", "REMARK": "Embung Callacu II", "SBDATA": "Dinas PUPR dan Pertanahan Kabupaten Wajo, 2022" }, "geometry": { "type": "Point", "coordinates": [ 120.12387861917891, -3.878762074130361 ] } },
{ "type": "Feature", "properties": { "FID": 19, "OBJECTID": 79, "NAMOBJ": "Bangunan Sumber Daya Air", "STSJRN": 2, "WADMPR": "Provinsi Sulawesi Selatan", "WADMKK": "Kabupaten Wajo", "REMARK": "Embung Abbanungnge I", "SBDATA": "Dinas PUPR dan Pertanahan Kabupaten Wajo, 2022" }, "geometry": { "type": "Point", "coordinates": [ 120.127373065634131, -3.87579545619378 ] } },
{ "type": "Feature", "properties": { "FID": 20, "OBJECTID": 80, "NAMOBJ": "Bangunan Sumber Daya Air", "STSJRN": 2, "WADMPR": "Provinsi Sulawesi Selatan", "WADMKK": "Kabupaten Wajo", "REMARK": "Embung Abbanungnge II", "SBDATA": "Dinas PUPR dan Pertanahan Kabupaten Wajo, 2022" }, "geometry": { "type": "Point", "coordinates": [ 120.127480863468222, -3.874639279013196 ] } },
{ "type": "Feature", "properties": { "FID": 21, "OBJECTID": 81, "NAMOBJ": "Bangunan Sumber Daya Air", "STSJRN": 2, "WADMPR": "Provinsi Sulawesi Selatan", "WADMKK": "Kabupaten Wajo", "REMARK": "Embung Abbanungnge III", "SBDATA": "Dinas PUPR dan Pertanahan Kabupaten Wajo, 2022" }, "geometry": { "type": "Point", "coordinates": [ 120.122055039152158, -3.873518950780408 ] } },
{ "type": "Feature", "properties": { "FID": 22, "OBJECTID": 82, "NAMOBJ": "Bangunan Sumber Daya Air", "STSJRN": 2, "WADMPR": "Provinsi Sulawesi Selatan", "WADMKK": "Kabupaten Wajo", "REMARK": "Embung Lokasie Satu", "SBDATA": "Dinas PUPR dan Pertanahan Kabupaten Wajo, 2022" }, "geometry": { "type": "Point", "coordinates": [ 120.111490851410906, -3.873043931161904 ] } },
{ "type": "Feature", "properties": { "FID": 23, "OBJECTID": 83, "NAMOBJ": "Bangunan Sumber Daya Air", "STSJRN": 2, "WADMPR": "Provinsi Sulawesi Selatan", "WADMKK": "Kabupaten Wajo", "REMARK": "Embung Tingaraposi", "SBDATA": "Dinas PUPR dan Pertanahan Kabupaten Wajo, 2022" }, "geometry": { "type": "Point", "coordinates": [ 120.110215243707458, -3.8410556774706 ] } },
{ "type": "Feature", "properties": { "FID": 24, "OBJECTID": 84, "NAMOBJ": "Bangunan Sumber Daya Air", "STSJRN": 2, "WADMPR": "Provinsi Sulawesi Selatan", "WADMKK": "Kabupaten Wajo", "REMARK": "Embung Mamminassae", "SBDATA": "Dinas PUPR dan Pertanahan Kabupaten Wajo, 2022" }, "geometry": { "type": "Point", "coordinates": [ 120.200711525429654, -3.934005579651305 ] } },
{ "type": "Feature", "properties": { "FID": 25, "OBJECTID": 85, "NAMOBJ": "Bangunan Sumber Daya Air", "STSJRN": 2, "WADMPR": "Provinsi Sulawesi Selatan", "WADMKK": "Kabupaten Wajo", "REMARK": "Embung Poleonro", "SBDATA": "Dinas PUPR dan Pertanahan Kabupaten Wajo, 2022" }, "geometry": { "type": "Point", "coordinates": [ 120.16869556870364, -3.931845738188627 ] } },
{ "type": "Feature", "properties": { "FID": 26, "OBJECTID": 86, "NAMOBJ": "Bangunan Sumber Daya Air", "STSJRN": 2, "WADMPR": "Provinsi Sulawesi Selatan", "WADMKK": "Kabupaten Wajo", "REMARK": "Embung Alelimpo", "SBDATA": "Dinas PUPR dan Pertanahan Kabupaten Wajo, 2022" }, "geometry": { "type": "Point", "coordinates": [ 120.168992012747395, -3.930492473673567 ] } },
{ "type": "Feature", "properties": { "FID": 27, "OBJECTID": 87, "NAMOBJ": "Bangunan Sumber Daya Air", "STSJRN": 2, "WADMPR": "Provinsi Sulawesi Selatan", "WADMKK": "Kabupaten Wajo", "REMARK": "Embung Polewalie", "SBDATA": "Dinas PUPR dan Pertanahan Kabupaten Wajo, 2022" }, "geometry": { "type": "Point", "coordinates": [ 120.151753342445147, -3.917497437836285 ] } },
{ "type": "Feature", "properties": { "FID": 28, "OBJECTID": 88, "NAMOBJ": "Bangunan Sumber Daya Air", "STSJRN": 2, "WADMPR": "Provinsi Sulawesi Selatan", "WADMKK": "Kabupaten Wajo", "REMARK": "Embung Arajang II", "SBDATA": "Dinas PUPR dan Pertanahan Kabupaten Wajo, 2022" }, "geometry": { "type": "Point", "coordinates": [ 120.163844666169382, -3.899841790020588 ] } },
{ "type": "Feature", "properties": { "FID": 29, "OBJECTID": 89, "NAMOBJ": "Bangunan Sumber Daya Air", "STSJRN": 2, "WADMPR": "Provinsi Sulawesi Selatan", "WADMKK": "Kabupaten Wajo", "REMARK": "Embung Apetae", "SBDATA": "Dinas PUPR dan Pertanahan Kabupaten Wajo, 2022" }, "geometry": { "type": "Point", "coordinates": [ 120.235377512243844, -3.886030692169963 ] } },
{ "type": "Feature", "properties": { "FID": 30, "OBJECTID": 90, "NAMOBJ": "Bangunan Sumber Daya Air", "STSJRN": 2, "WADMPR": "Provinsi Sulawesi Selatan", "WADMKK": "Kabupaten Wajo", "REMARK": "Embung Arajang", "SBDATA": "Dinas PUPR dan Pertanahan Kabupaten Wajo, 2022" }, "geometry": { "type": "Point", "coordinates": [ 120.250837518283518, -3.85835404207519 ] } },
{ "type": "Feature", "properties": { "FID": 31, "OBJECTID": 91, "NAMOBJ": "Bangunan Sumber Daya Air", "STSJRN": 2, "WADMPR": "Provinsi Sulawesi Selatan", "WADMKK": "Kabupaten Wajo", "REMARK": "Embung Lauwa", "SBDATA": "Dinas PUPR dan Pertanahan Kabupaten Wajo, 2022" }, "geometry": { "type": "Point", "coordinates": [ 120.340552265708538, -3.764257482147265 ] } },
{ "type": "Feature", "properties": { "FID": 32, "OBJECTID": 92, "NAMOBJ": "Bangunan Sumber Daya Air", "STSJRN": 2, "WADMPR": "Provinsi Sulawesi Selatan", "WADMKK": "Kabupaten Wajo", "REMARK": "Embung Lompo", "SBDATA": "Dinas PUPR dan Pertanahan Kabupaten Wajo, 2022" }, "geometry": { "type": "Point", "coordinates": [ 120.317564377587928, -3.74038662886304 ] } },
{ "type": "Feature", "properties": { "FID": 33, "OBJECTID": 93, "NAMOBJ": "Bangunan Sumber Daya Air", "STSJRN": 2, "WADMPR": "Provinsi Sulawesi Selatan", "WADMKK": "Kabupaten Wajo", "REMARK": "Embung Labawi Masara", "SBDATA": "Dinas PUPR dan Pertanahan Kabupaten Wajo, 2022" }, "geometry": { "type": "Point", "coordinates": [ 120.315120960015122, -3.737957376707609 ] } },
{ "type": "Feature", "properties": { "FID": 34, "OBJECTID": 94, "NAMOBJ": "Bangunan Sumber Daya Air", "STSJRN": 2, "WADMPR": "Provinsi Sulawesi Selatan", "WADMKK": "Kabupaten Wajo", "REMARK": "Embung Batucokong", "SBDATA": "Dinas PUPR dan Pertanahan Kabupaten Wajo, 2022" }, "geometry": { "type": "Point", "coordinates": [ 120.301825893810147, -3.872739201454935 ] } },
{ "type": "Feature", "properties": { "FID": 35, "OBJECTID": 95, "NAMOBJ": "Bangunan Sumber Daya Air", "STSJRN": 2, "WADMPR": "Provinsi Sulawesi Selatan", "WADMKK": "Kabupaten Wajo", "REMARK": "Embung Laliseng", "SBDATA": "Dinas PUPR dan Pertanahan Kabupaten Wajo, 2022" }, "geometry": { "type": "Point", "coordinates": [ 120.288063703657443, -3.87003247983166 ] } },
{ "type": "Feature", "properties": { "FID": 36, "OBJECTID": 96, "NAMOBJ": "Bangunan Sumber Daya Air", "STSJRN": 2, "WADMPR": "Provinsi Sulawesi Selatan", "WADMKK": "Kabupaten Wajo", "REMARK": "Embung Bakkae", "SBDATA": "Dinas PUPR dan Pertanahan Kabupaten Wajo, 2022" }, "geometry": { "type": "Point", "coordinates": [ 120.313288396835517, -3.836574178611666 ] } },
{ "type": "Feature", "properties": { "FID": 37, "OBJECTID": 97, "NAMOBJ": "Bangunan Sumber Daya Air", "STSJRN": 2, "WADMPR": "Provinsi Sulawesi Selatan", "WADMKK": "Kabupaten Wajo", "REMARK": "Embung Lempa", "SBDATA": "Dinas PUPR dan Pertanahan Kabupaten Wajo, 2022" }, "geometry": { "type": "Point", "coordinates": [ 120.305607801156285, -3.828570163184413 ] } },
{ "type": "Feature", "properties": { "FID": 38, "OBJECTID": 98, "NAMOBJ": "Bangunan Sumber Daya Air", "STSJRN": 2, "WADMPR": "Provinsi Sulawesi Selatan", "WADMKK": "Kabupaten Wajo", "REMARK": "Embung Bulucironge", "SBDATA": "Dinas PUPR dan Pertanahan Kabupaten Wajo, 2022" }, "geometry": { "type": "Point", "coordinates": [ 120.33214403464919, -3.807416974288113 ] } },
{ "type": "Feature", "properties": { "FID": 39, "OBJECTID": 99, "NAMOBJ": "Bangunan Sumber Daya Air", "STSJRN": 2, "WADMPR": "Provinsi Sulawesi Selatan", "WADMKK": "Kabupaten Wajo", "REMARK": "Embung Ciromanie", "SBDATA": "Dinas PUPR dan Pertanahan Kabupaten Wajo, 2022" }, "geometry": { "type": "Point", "coordinates": [ 120.332593192291242, -3.801787987198111 ] } },
{ "type": "Feature", "properties": { "FID": 40, "OBJECTID": 100, "NAMOBJ": "Bangunan Sumber Daya Air", "STSJRN": 2, "WADMPR": "Provinsi Sulawesi Selatan", "WADMKK": "Kabupaten Wajo", "REMARK": "Embung Paojepe", "SBDATA": "Dinas PUPR dan Pertanahan Kabupaten Wajo, 2022" }, "geometry": { "type": "Point", "coordinates": [ 120.337623757882326, -3.783170836906233 ] } },
{ "type": "Feature", "properties": { "FID": 41, "OBJECTID": 101, "NAMOBJ": "Bangunan Sumber Daya Air", "STSJRN": 2, "WADMPR": "Provinsi Sulawesi Selatan", "WADMKK": "Kabupaten Wajo", "REMARK": "Embung Awo", "SBDATA": "Dinas PUPR dan Pertanahan Kabupaten Wajo, 2022" }, "geometry": { "type": "Point", "coordinates": [ 120.248133589278339, -3.77681563711145 ] } },
{ "type": "Feature", "properties": { "FID": 42, "OBJECTID": 102, "NAMOBJ": "Bangunan Sumber Daya Air", "STSJRN": 2, "WADMPR": "Provinsi Sulawesi Selatan", "WADMKK": "Kabupaten Wajo", "REMARK": "Bendungan Kalola", "SBDATA": "BBWS Pompengan Jeneberang, 2022" }, "geometry": { "type": "Point", "coordinates": [ 120.076995544500718, -3.88425611548886 ] } },
{ "type": "Feature", "properties": { "FID": 43, "OBJECTID": 104, "NAMOBJ": "Bangunan Sumber Daya Air", "STSJRN": 2, "WADMPR": "Provinsi Sulawesi Selatan", "WADMKK": "Kabupaten Wajo", "REMARK": "Bendung Awo", "SBDATA": "Dinas PUPR dan Pertanahan Kabupaten Wajo, 2022" }, "geometry": { "type": "Point", "coordinates": [ 120.274939317356441, -3.759685946053563 ] } },
{ "type": "Feature", "properties": { "FID": 44, "OBJECTID": 105, "NAMOBJ": "Bangunan Pengendalian Banjir", "STSJRN": 2, "WADMPR": "Provinsi Sulawesi Selatan", "WADMKK": "Kabupaten Wajo", "REMARK": "Bendung Gerak Tempe", "SBDATA": "Dinas PUPR dan Pertanahan Kabupaten Wajo, 2022\r\n" }, "geometry": { "type": "Point", "coordinates": [ 120.031918083543601, -4.153087835798671 ] } },
{ "type": "Feature", "properties": { "FID": 45, "OBJECTID": 106, "NAMOBJ": "Bangunan Sumber Daya Air", "STSJRN": 2, "WADMPR": "Provinsi Sulawesi Selatan", "WADMKK": "Kabupaten Wajo", "REMARK": "Bendung Cilellang", "SBDATA": "Dinas PUPR dan Pertanahan Kabupaten Wajo, 2022" }, "geometry": { "type": "Point", "coordinates": [ 119.942939954651564, -4.237267378797675 ] } },
{ "type": "Feature", "properties": { "FID": 46, "OBJECTID": 107, "NAMOBJ": "Bangunan Sumber Daya Air", "STSJRN": 2, "WADMPR": "Provinsi Sulawesi Selatan", "WADMKK": "Kabupaten Wajo", "REMARK": "Bendung Cenrana", "SBDATA": "Dinas PUPR dan Pertanahan Kabupaten Wajo, 2022" }, "geometry": { "type": "Point", "coordinates": [ 120.111616615550673, -4.123484882193363 ] } },
{ "type": "Feature", "properties": { "FID": 47, "OBJECTID": 108, "NAMOBJ": "Bangunan Sumber Daya Air", "STSJRN": 2, "WADMPR": "Provinsi Sulawesi Selatan", "WADMKK": "Kabupaten Wajo", "REMARK": "Embung Callacu III", "SBDATA": "Dinas PUPR dan Pertanahan Kabupaten Wajo, 2022" }, "geometry": { "type": "Point", "coordinates": [ 120.124210995834048, -3.878600747742901 ] } },
{ "type": "Feature", "properties": { "FID": 48, "OBJECTID": 109, "NAMOBJ": "Bangunan Sumber Daya Air", "STSJRN": 2, "WADMPR": "Provinsi Sulawesi Selatan", "WADMKK": "Kabupaten Wajo", "REMARK": "Embung Lamatadua", "SBDATA": "BBWS Pompengan Jeneberang, 2022" }, "geometry": { "type": "Point", "coordinates": [ 120.128981049992717, -3.940494032349083 ] } },
{ "type": "Feature", "properties": { "FID": 49, "OBJECTID": 110, "NAMOBJ": "Bangunan Sumber Daya Air", "STSJRN": 2, "WADMPR": "Provinsi Sulawesi Selatan", "WADMKK": "Kabupaten Wajo", "REMARK": "Embung Salojampu", "SBDATA": "BBWS Pompengan Jeneberang, 2022" }, "geometry": { "type": "Point", "coordinates": [ 120.025701741777496, -4.223399344025634 ] } },
{ "type": "Feature", "properties": { "FID": 50, "OBJECTID": 111, "NAMOBJ": "Bangunan Sumber Daya Air", "STSJRN": 2, "WADMPR": "Provinsi Sulawesi Selatan", "WADMKK": "Kabupaten Wajo", "REMARK": "Embung Sompe", "SBDATA": "BBWS Pompengan Jeneberang, 2022" }, "geometry": { "type": "Point", "coordinates": [ 120.031864184626542, -4.227609949300766 ] } },
{ "type": "Feature", "properties": { "FID": 51, "OBJECTID": 112, "NAMOBJ": "Bangunan Sumber Daya Air", "STSJRN": 2, "WADMPR": "Provinsi Sulawesi Selatan", "WADMKK": "Kabupaten Wajo", "REMARK": "Embung Palaguna", "SBDATA": "BBWS Pompengan Jeneberang, 2022" }, "geometry": { "type": "Point", "coordinates": [ 120.039769359126808, -4.170200417324127 ] } },
{ "type": "Feature", "properties": { "FID": 52, "OBJECTID": 113, "NAMOBJ": "Bangunan Sumber Daya Air", "STSJRN": 2, "WADMPR": "Provinsi Sulawesi Selatan", "WADMKK": "Kabupaten Wajo", "REMARK": "Embung Talotenreng", "SBDATA": "BBWS Pompengan Jeneberang, 2022" }, "geometry": { "type": "Point", "coordinates": [ 120.01025970204347, -4.258481048723837 ] } },
{ "type": "Feature", "properties": { "FID": 53, "OBJECTID": 114, "NAMOBJ": "Bangunan Sumber Daya Air", "STSJRN": 2, "WADMPR": "Provinsi Sulawesi Selatan", "WADMKK": "Kabupaten Wajo", "REMARK": "Embung Lamagarang", "SBDATA": "BBWS Pompengan Jeneberang, 2022" }, "geometry": { "type": "Point", "coordinates": [ 120.126331019904555, -3.863857178592931 ] } },
{ "type": "Feature", "properties": { "FID": 54, "OBJECTID": 116, "NAMOBJ": "Bangunan Sumber Daya Air", "STSJRN": 2, "WADMPR": "Provinsi Sulawesi Selatan", "WADMKK": "Kabupaten Wajo", "REMARK": "Bendung Gilireng", "SBDATA": "Ditjen SDA Kementerian PUPR, 2022" }, "geometry": { "type": "Point", "coordinates": [ 120.185260502542789, -3.919146474268607 ] } }
]
}
