{
"type": "FeatureCollection",
"name": "Sistem_Infrastruktur_Transportasi",
"crs": { "type": "name", "properties": { "name": "urn:ogc:def:crs:OGC:1.3:CRS84" } },
"features": [
{ "type": "Feature", "properties": { "FID": 0, "OBJECTID": 1, "NAMOBJ": "Pelabuhan Penyeberangan Kelas I", "STSJRN": 2, "WADMPR": "Provinsi Sulawesi Selatan", "WADMKK": "Kabupaten Wajo", "REMARK": "Pelabuhan Siwa", "SBDATA": "Keputusan Menteri Perhubungan Republik Indonesia Nomor KP 432 Tahun 2017" }, "geometry": { "type": "Point", "coordinates": [ 120.428560214093736, -3.679617457735167 ] } },
{ "type": "Feature", "properties": { "FID": 1, "OBJECTID": 2, "NAMOBJ": "Pelabuhan Pengumpan Lokal", "STSJRN": 2, "WADMPR": "Provinsi Sulawesi Selatan", "WADMKK": "Kabupaten Wajo", "REMARK": "Pelabuhan Jalang/Cendrane", "SBDATA": "Keputusan Menteri Perhubungan Republik Indonesia Nomor KP 432 Tahun 2017" }, "geometry": { "type": "Point", "coordinates": [ 120.34032768688752, -4.046067608071231 ] } },
{ "type": "Feature", "properties": { "FID": 2, "OBJECTID": 3, "NAMOBJ": "Pelabuhan Pengumpan Lokal", "STSJRN": 2, "WADMPR": "Provinsi Sulawesi Selatan", "WADMKK": "Kabupaten Wajo", "REMARK": "Pelabuhan Doping", "SBDATA": "Keputusan Menteri Perhubungan Republik Indonesia Nomor KP 432 Tahun 2017" }, "geometry": { "type": "Point", "coordinates": [ 120.301825893810147, -4.08685597355361 ] } },
{ "type": "Feature", "properties": { "FID": 3, "OBJECTID": 4, "NAMOBJ": "Terminal Penumpang Tipe B", "STSJRN": 2, "WADMPR": "Provinsi Sulawesi Selatan", "WADMKK": "Kabupaten Wajo", "REMARK": "Terminal Penumpang Tipe B", "SBDATA": "Dinas Perhubungan Provinsi Sulawesi Selatan, 2019" }, "geometry": { "type": "Point", "coordinates": [ 120.04008376947624, -4.122544092242591 ] } },
{ "type": "Feature", "properties": { "FID": 4, "OBJECTID": 5, "NAMOBJ": "Pelabuhan Pengumpan Regional", "STSJRN": 2, "WADMPR": "Provinsi Sulawesi Selatan", "WADMKK": "Kabupaten Wajo", "REMARK": "Pelabuhan Siwa/Bangsalae", "SBDATA": "Keputusan Menteri Perhubungan Republik Indonesia Nomor KP 432 Tahun 2017" }, "geometry": { "type": "Point", "coordinates": [ 120.4240147387561, -3.696901104521933 ] } },
{ "type": "Feature", "properties": { "FID": 5, "OBJECTID": 6, "NAMOBJ": "Pangkalan Pendaratan Ikan", "STSJRN": 1, "WADMPR": "Provinsi Sulawesi Selatan", "WADMKK": "Kabupaten Wajo", "REMARK": "Pangkalan Pendaratan Ikan Cendanae", "SBDATA": "Kepmen KKP Nomor 109 RIPPN Tahun 2021" }, "geometry": { "type": "Point", "coordinates": [ 120.322981218751181, -3.830927456583527 ] } },
{ "type": "Feature", "properties": { "FID": 6, "OBJECTID": 7, "NAMOBJ": "Pelabuhan Sungai dan Danau Pengumpan", "STSJRN": 2, "WADMPR": "Provinsi Sulawesi Selatan", "WADMKK": "Kabupaten Wajo", "REMARK": "Dermaga Danau Tempe", "SBDATA": "Dinas Perhubungan Provinsi Sulawesi Selatan, 2019" }, "geometry": { "type": "Point", "coordinates": [ 120.022081531182508, -4.128762245169518 ] } },
{ "type": "Feature", "properties": { "FID": 7, "OBJECTID": 9, "NAMOBJ": "Terminal Penumpang Tipe C", "STSJRN": 1, "WADMPR": "Provinsi Sulawesi Selatan", "WADMKK": "Kabupaten Wajo", "REMARK": "Terminal Penumpang Tipe C", "SBDATA": "Dinas Perhubungan Kabupaten Wajo, 2022" }, "geometry": { "type": "Point", "coordinates": [ 120.324005298175067, -3.820073097403468 ] } },
{ "type": "Feature", "properties": { "FID": 8, "OBJECTID": 10, "NAMOBJ": "Terminal Penumpang Tipe C", "STSJRN": 1, "WADMPR": "Provinsi Sulawesi Selatan", "WADMKK": "Kabupaten Wajo", "REMARK": "Terminal Penumpang Tipe C", "SBDATA": "Dinas Perhubungan Kabupaten Wajo, 2022" }, "geometry": { "type": "Point", "coordinates": [ 120.41731330673656, -3.701625362279527 ] } },
{ "type": "Feature", "properties": { "FID": 9, "OBJECTID": 11, "NAMOBJ": "Terminal Barang", "STSJRN": 1, "WADMPR": "Provinsi Sulawesi Selatan", "WADMKK": "Kabupaten Wajo", "REMARK": "Terminal Barang", "SBDATA": "Dinas Perhubungan Kabupaten Wajo, 2022" }, "geometry": { "type": "Point", "coordinates": [ 120.039859190655207, -4.121164264967487 ] } },
{ "type": "Feature", "properties": { "FID": 10, "OBJECTID": 12, "NAMOBJ": "Terminal Barang", "STSJRN": 1, "WADMPR": "Provinsi Sulawesi Selatan", "WADMKK": "Kabupaten Wajo", "REMARK": "Terminal Barang", "SBDATA": "Analisis Perencanaan, 2019" }, "geometry": { "type": "Point", "coordinates": [ 120.428371567884085, -3.68325709177527 ] } },
{ "type": "Feature", "properties": { "FID": 11, "OBJECTID": 13, "NAMOBJ": "Stasiun Penumpang", "STSJRN": 2, "WADMPR": "Provinsi Sulawesi Selatan", "WADMKK": "Kabupaten Wajo", "REMARK": "Stasiun Penumpang Sajoanging", "SBDATA": "Analisis Perencanaan, 2019" }, "geometry": { "type": "Point", "coordinates": [ 120.195968420729514, -3.967961851227559 ] } },
{ "type": "Feature", "properties": { "FID": 12, "OBJECTID": 14, "NAMOBJ": "Terminal Khusus", "STSJRN": 2, "WADMPR": "Provinsi Sulawesi Selatan", "WADMKK": "Kabupaten Wajo", "REMARK": "Terminal Khusus", "SBDATA": "RZWP3K Provinsi Sulawesi Selatan Tahun 2019" }, "geometry": { "type": "Point", "coordinates": [ 120.34347179038194, -3.908597962328913 ] } },
{ "type": "Feature", "properties": { "FID": 13, "OBJECTID": 15, "NAMOBJ": "Terminal Penumpang Tipe C", "STSJRN": 1, "WADMPR": "Provinsi Sulawesi Selatan", "WADMKK": "Kabupaten Wajo", "REMARK": "Terminal Penumpang Tipe C", "SBDATA": "Dinas Perhubungan Kabupaten Wajo, 2022" }, "geometry": { "type": "Point", "coordinates": [ 120.291396453361529, -4.083952827824402 ] } },
{ "type": "Feature", "properties": { "FID": 14, "OBJECTID": 16, "NAMOBJ": "Terminal Penumpang Tipe C", "STSJRN": 1, "WADMPR": "Provinsi Sulawesi Selatan", "WADMKK": "Kabupaten Wajo", "REMARK": "Terminal Penumpang Tipe C", "SBDATA": "Dinas Perhubungan Kabupaten Wajo, 2022" }, "geometry": { "type": "Point", "coordinates": [ 120.229664227036821, -4.238333451290798 ] } },
{ "type": "Feature", "properties": { "FID": 15, "OBJECTID": 17, "NAMOBJ": "Terminal Penumpang Tipe C", "STSJRN": 1, "WADMPR": "Provinsi Sulawesi Selatan", "WADMKK": "Kabupaten Wajo", "REMARK": "Terminal Penumpang Tipe C", "SBDATA": "Dinas Perhubungan Kabupaten Wajo, 2022" }, "geometry": { "type": "Point", "coordinates": [ 120.152894202855975, -4.020582796325701 ] } },
{ "type": "Feature", "properties": { "FID": 16, "OBJECTID": 18, "NAMOBJ": "Terminal Penumpang Tipe C", "STSJRN": 1, "WADMPR": "Provinsi Sulawesi Selatan", "WADMKK": "Kabupaten Wajo", "REMARK": "Terminal Penumpang Tipe C", "SBDATA": "Dinas Perhubungan Kabupaten Wajo, 2022" }, "geometry": { "type": "Point", "coordinates": [ 120.062865045081537, -3.951544001685874 ] } },
{ "type": "Feature", "properties": { "FID": 17, "OBJECTID": 19, "NAMOBJ": "Terminal Penumpang Tipe C", "STSJRN": 1, "WADMPR": "Provinsi Sulawesi Selatan", "WADMKK": "Kabupaten Wajo", "REMARK": "Terminal Penumpang Tipe C", "SBDATA": "Dinas Perhubungan Kabupaten Wajo, 2022" }, "geometry": { "type": "Point", "coordinates": [ 119.933301031652945, -4.002400634274307 ] } },
{ "type": "Feature", "properties": { "FID": 18, "OBJECTID": 20, "NAMOBJ": "Pelabuhan Pengumpan Lokal", "STSJRN": 2, "WADMPR": "Provinsi Sulawesi Selatan", "WADMKK": "Kabupaten Wajo", "REMARK": "Pelabuhan Danggae", "SBDATA": "Keputusan Menteri Perhubungan Republik Indonesia Nomor KP 432 Tahun 2017" }, "geometry": { "type": "Point", "coordinates": [ 120.327427879407566, -3.832047840903465 ] } },
{ "type": "Feature", "properties": { "FID": 19, "OBJECTID": 21, "NAMOBJ": "Jembatan Timbang", "STSJRN": 2, "WADMPR": "Provinsi Sulawesi Selatan", "WADMKK": "Kabupaten Wajo", "REMARK": "Jembatan Timbang Salobulo", "SBDATA": "Dinas Perhubungan Kabupaten Wajo, 2022" }, "geometry": { "type": "Point", "coordinates": [ 120.265767518305594, -3.940995899510737 ] } },
{ "type": "Feature", "properties": { "FID": 20, "OBJECTID": 22, "NAMOBJ": "Terminal Penumpang Tipe C", "STSJRN": 1, "WADMPR": "Provinsi Sulawesi Selatan", "WADMKK": "Kabupaten Wajo", "REMARK": "Terminal Penumpang Tipe C", "SBDATA": "Dinas Perhubungan Kabupaten Wajo, 2022" }, "geometry": { "type": "Point", "coordinates": [ 120.040434112437055, -4.121988577653579 ] } },
{ "type": "Feature", "properties": { "FID": 21, "OBJECTID": 23, "NAMOBJ": "Jembatan", "STSJRN": 2, "WADMPR": "Provinsi Sulawesi Selatan", "WADMKK": "Kabupaten Wajo", "REMARK": "S.LAELO 11", "SBDATA": "Dinas PUPR dan Pertanahan Kabupaten Wajo, 2022" }, "geometry": { "type": "Point", "coordinates": [ 120.075450442212045, -4.161599375712473 ] } },
{ "type": "Feature", "properties": { "FID": 22, "OBJECTID": 24, "NAMOBJ": "Jembatan", "STSJRN": 2, "WADMPR": "Provinsi Sulawesi Selatan", "WADMKK": "Kabupaten Wajo", "REMARK": "S. JL. PELABUHAN", "SBDATA": "Dinas PUPR dan Pertanahan Kabupaten Wajo, 2022" }, "geometry": { "type": "Point", "coordinates": [ 120.023860195445039, -4.051220030748873 ] } },
{ "type": "Feature", "properties": { "FID": 23, "OBJECTID": 25, "NAMOBJ": "Jembatan", "STSJRN": 2, "WADMPR": "Provinsi Sulawesi Selatan", "WADMKK": "Kabupaten Wajo", "REMARK": "S. BAKKE", "SBDATA": "Dinas PUPR dan Pertanahan Kabupaten Wajo, 2022" }, "geometry": { "type": "Point", "coordinates": [ 120.025746657541703, -4.130419813737872 ] } },
{ "type": "Feature", "properties": { "FID": 24, "OBJECTID": 26, "NAMOBJ": "Jembatan", "STSJRN": 2, "WADMPR": "Provinsi Sulawesi Selatan", "WADMKK": "Kabupaten Wajo", "REMARK": "S. UJUNG KESSI 1", "SBDATA": "Dinas PUPR dan Pertanahan Kabupaten Wajo, 2022" }, "geometry": { "type": "Point", "coordinates": [ 120.008256458959877, -4.016819148889445 ] } },
{ "type": "Feature", "properties": { "FID": 25, "OBJECTID": 27, "NAMOBJ": "Jembatan", "STSJRN": 2, "WADMPR": "Provinsi Sulawesi Selatan", "WADMKK": "Kabupaten Wajo", "REMARK": "S. UJUNG KESSI 2", "SBDATA": "Dinas PUPR dan Pertanahan Kabupaten Wajo, 2022" }, "geometry": { "type": "Point", "coordinates": [ 120.006334064251888, -4.016514471908615 ] } },
{ "type": "Feature", "properties": { "FID": 26, "OBJECTID": 28, "NAMOBJ": "Jembatan", "STSJRN": 2, "WADMPR": "Provinsi Sulawesi Selatan", "WADMKK": "Kabupaten Wajo", "REMARK": "S. LAIKKI", "SBDATA": "Dinas PUPR dan Pertanahan Kabupaten Wajo, 2022" }, "geometry": { "type": "Point", "coordinates": [ 119.987056218254679, -3.996154623349664 ] } },
{ "type": "Feature", "properties": { "FID": 27, "OBJECTID": 29, "NAMOBJ": "Jembatan", "STSJRN": 2, "WADMPR": "Provinsi Sulawesi Selatan", "WADMKK": "Kabupaten Wajo", "REMARK": "S. MACERO 1", "SBDATA": "Dinas PUPR dan Pertanahan Kabupaten Wajo, 2022" }, "geometry": { "type": "Point", "coordinates": [ 119.973716236285497, -4.002230370619291 ] } },
{ "type": "Feature", "properties": { "FID": 28, "OBJECTID": 30, "NAMOBJ": "Jembatan", "STSJRN": 2, "WADMPR": "Provinsi Sulawesi Selatan", "WADMKK": "Kabupaten Wajo", "REMARK": "S. MACERO 2", "SBDATA": "Dinas PUPR dan Pertanahan Kabupaten Wajo, 2022" }, "geometry": { "type": "Point", "coordinates": [ 119.963726970326078, -3.99974810173468 ] } },
{ "type": "Feature", "properties": { "FID": 29, "OBJECTID": 31, "NAMOBJ": "Jembatan", "STSJRN": 2, "WADMPR": "Provinsi Sulawesi Selatan", "WADMKK": "Kabupaten Wajo", "REMARK": "S. MACERO 3", "SBDATA": "Dinas PUPR dan Pertanahan Kabupaten Wajo, 2022" }, "geometry": { "type": "Point", "coordinates": [ 119.965927842772174, -4.000276816676249 ] } },
{ "type": "Feature", "properties": { "FID": 30, "OBJECTID": 32, "NAMOBJ": "Jembatan", "STSJRN": 2, "WADMPR": "Provinsi Sulawesi Selatan", "WADMKK": "Kabupaten Wajo", "REMARK": "S. MACERO 4", "SBDATA": "Dinas PUPR dan Pertanahan Kabupaten Wajo, 2022" }, "geometry": { "type": "Point", "coordinates": [ 119.95986421460438, -3.998251567762696 ] } },
{ "type": "Feature", "properties": { "FID": 31, "OBJECTID": 33, "NAMOBJ": "Jembatan", "STSJRN": 2, "WADMPR": "Provinsi Sulawesi Selatan", "WADMKK": "Kabupaten Wajo", "REMARK": "S. MACERO 5", "SBDATA": "Dinas PUPR dan Pertanahan Kabupaten Wajo, 2022" }, "geometry": { "type": "Point", "coordinates": [ 119.958202331328749, -3.997695967628488 ] } },
{ "type": "Feature", "properties": { "FID": 32, "OBJECTID": 34, "NAMOBJ": "Jembatan", "STSJRN": 2, "WADMPR": "Provinsi Sulawesi Selatan", "WADMKK": "Kabupaten Wajo", "REMARK": "S. MACERO 6", "SBDATA": "Dinas PUPR dan Pertanahan Kabupaten Wajo, 2022" }, "geometry": { "type": "Point", "coordinates": [ 119.952039888479703, -3.997678045037244 ] } },
{ "type": "Feature", "properties": { "FID": 33, "OBJECTID": 35, "NAMOBJ": "Jembatan", "STSJRN": 2, "WADMPR": "Provinsi Sulawesi Selatan", "WADMKK": "Kabupaten Wajo", "REMARK": "S.DATA ALAU", "SBDATA": "Dinas PUPR dan Pertanahan Kabupaten Wajo, 2022" }, "geometry": { "type": "Point", "coordinates": [ 120.060026368783696, -4.095529506797859 ] } },
{ "type": "Feature", "properties": { "FID": 34, "OBJECTID": 36, "NAMOBJ": "Jembatan", "STSJRN": 2, "WADMPR": "Provinsi Sulawesi Selatan", "WADMKK": "Kabupaten Wajo", "REMARK": "S. TOTINCO", "SBDATA": "Dinas PUPR dan Pertanahan Kabupaten Wajo, 2022" }, "geometry": { "type": "Point", "coordinates": [ 120.056522939175636, -4.103710139503424 ] } },
{ "type": "Feature", "properties": { "FID": 35, "OBJECTID": 37, "NAMOBJ": "Jembatan", "STSJRN": 2, "WADMPR": "Provinsi Sulawesi Selatan", "WADMKK": "Kabupaten Wajo", "REMARK": "S. LEPPANGENG", "SBDATA": "Dinas PUPR dan Pertanahan Kabupaten Wajo, 2022" }, "geometry": { "type": "Point", "coordinates": [ 120.055444960834691, -4.11956939669248 ] } },
{ "type": "Feature", "properties": { "FID": 36, "OBJECTID": 38, "NAMOBJ": "Jembatan", "STSJRN": 2, "WADMPR": "Provinsi Sulawesi Selatan", "WADMKK": "Kabupaten Wajo", "REMARK": "S. JL. MERAK", "SBDATA": "Dinas PUPR dan Pertanahan Kabupaten Wajo, 2022" }, "geometry": { "type": "Point", "coordinates": [ 120.036625255632373, -4.156877722289547 ] } },
{ "type": "Feature", "properties": { "FID": 37, "OBJECTID": 39, "NAMOBJ": "Jembatan", "STSJRN": 2, "WADMPR": "Provinsi Sulawesi Selatan", "WADMKK": "Kabupaten Wajo", "REMARK": "S. CAPPABULU", "SBDATA": "Dinas PUPR dan Pertanahan Kabupaten Wajo, 2022" }, "geometry": { "type": "Point", "coordinates": [ 120.032636735770893, -4.16624036609759 ] } },
{ "type": "Feature", "properties": { "FID": 38, "OBJECTID": 40, "NAMOBJ": "Jembatan", "STSJRN": 2, "WADMPR": "Provinsi Sulawesi Selatan", "WADMKK": "Kabupaten Wajo", "REMARK": "S. CENRANAE", "SBDATA": "Dinas PUPR dan Pertanahan Kabupaten Wajo, 2022" }, "geometry": { "type": "Point", "coordinates": [ 120.004061326583056, -4.032886217677001 ] } },
{ "type": "Feature", "properties": { "FID": 39, "OBJECTID": 41, "NAMOBJ": "Jembatan", "STSJRN": 2, "WADMPR": "Provinsi Sulawesi Selatan", "WADMKK": "Kabupaten Wajo", "REMARK": "BACU BACUE", "SBDATA": "Dinas PUPR dan Pertanahan Kabupaten Wajo, 2022" }, "geometry": { "type": "Point", "coordinates": [ 120.040703607022294, -4.019579158707778 ] } },
{ "type": "Feature", "properties": { "FID": 40, "OBJECTID": 42, "NAMOBJ": "Jembatan", "STSJRN": 2, "WADMPR": "Provinsi Sulawesi Selatan", "WADMKK": "Kabupaten Wajo", "REMARK": "LAJOKKA", "SBDATA": "Dinas PUPR dan Pertanahan Kabupaten Wajo, 2022" }, "geometry": { "type": "Point", "coordinates": [ 120.042275658769483, -4.018387337431964 ] } },
{ "type": "Feature", "properties": { "FID": 41, "OBJECTID": 43, "NAMOBJ": "Jembatan", "STSJRN": 2, "WADMPR": "Provinsi Sulawesi Selatan", "WADMKK": "Kabupaten Wajo", "REMARK": "S. BKL. 1822", "SBDATA": "Dinas PUPR dan Pertanahan Kabupaten Wajo, 2022" }, "geometry": { "type": "Point", "coordinates": [ 120.046291128089521, -4.021577471674274 ] } },
{ "type": "Feature", "properties": { "FID": 42, "OBJECTID": 44, "NAMOBJ": "Jembatan", "STSJRN": 2, "WADMPR": "Provinsi Sulawesi Selatan", "WADMKK": "Kabupaten Wajo", "REMARK": "S. LAJOKKA - WEWANGREWU 1", "SBDATA": "Dinas PUPR dan Pertanahan Kabupaten Wajo, 2022" }, "geometry": { "type": "Point", "coordinates": [ 120.084703089638467, -4.041237742095296 ] } },
{ "type": "Feature", "properties": { "FID": 43, "OBJECTID": 45, "NAMOBJ": "Jembatan", "STSJRN": 2, "WADMPR": "Provinsi Sulawesi Selatan", "WADMKK": "Kabupaten Wajo", "REMARK": "S. LAJOKKA - WEWANGREWU 2", "SBDATA": "Dinas PUPR dan Pertanahan Kabupaten Wajo, 2022" }, "geometry": { "type": "Point", "coordinates": [ 120.088134654023804, -4.044947511846461 ] } },
{ "type": "Feature", "properties": { "FID": 44, "OBJECTID": 46, "NAMOBJ": "Jembatan", "STSJRN": 2, "WADMPR": "Provinsi Sulawesi Selatan", "WADMKK": "Kabupaten Wajo", "REMARK": "S.PADDUPPA", "SBDATA": "Dinas PUPR dan Pertanahan Kabupaten Wajo, 2022" }, "geometry": { "type": "Point", "coordinates": [ 120.027992445752005, -4.135204343581884 ] } },
{ "type": "Feature", "properties": { "FID": 45, "OBJECTID": 47, "NAMOBJ": "Jembatan", "STSJRN": 2, "WADMPR": "Provinsi Sulawesi Selatan", "WADMKK": "Kabupaten Wajo", "REMARK": "S. JL. PAHLAWAN", "SBDATA": "Dinas PUPR dan Pertanahan Kabupaten Wajo, 2022" }, "geometry": { "type": "Point", "coordinates": [ 120.033481152137981, -4.132480569831651 ] } },
{ "type": "Feature", "properties": { "FID": 46, "OBJECTID": 48, "NAMOBJ": "Jembatan", "STSJRN": 2, "WADMPR": "Provinsi Sulawesi Selatan", "WADMKK": "Kabupaten Wajo", "REMARK": "S. JL. VETERAN", "SBDATA": "Dinas PUPR dan Pertanahan Kabupaten Wajo, 2022" }, "geometry": { "type": "Point", "coordinates": [ 120.0340560739198, -4.123063766829254 ] } },
{ "type": "Feature", "properties": { "FID": 47, "OBJECTID": 49, "NAMOBJ": "Jembatan", "STSJRN": 2, "WADMPR": "Provinsi Sulawesi Selatan", "WADMKK": "Kabupaten Wajo", "REMARK": "S. TANCUNG (BENTENG POLA)", "SBDATA": "Dinas PUPR dan Pertanahan Kabupaten Wajo, 2022" }, "geometry": { "type": "Point", "coordinates": [ 120.020437614212554, -4.05921294149511 ] } },
{ "type": "Feature", "properties": { "FID": 48, "OBJECTID": 50, "NAMOBJ": "Jembatan", "STSJRN": 2, "WADMPR": "Provinsi Sulawesi Selatan", "WADMKK": "Kabupaten Wajo", "REMARK": "S. JL. RUSA", "SBDATA": "Dinas PUPR dan Pertanahan Kabupaten Wajo, 2022" }, "geometry": { "type": "Point", "coordinates": [ 120.030651458992992, -4.114444292729889 ] } },
{ "type": "Feature", "properties": { "FID": 49, "OBJECTID": 51, "NAMOBJ": "Jembatan", "STSJRN": 2, "WADMPR": "Provinsi Sulawesi Selatan", "WADMKK": "Kabupaten Wajo", "REMARK": "S. JL. LEMBU", "SBDATA": "Dinas PUPR dan Pertanahan Kabupaten Wajo, 2022" }, "geometry": { "type": "Point", "coordinates": [ 120.027022265245151, -4.11926475856834 ] } },
{ "type": "Feature", "properties": { "FID": 50, "OBJECTID": 52, "NAMOBJ": "Jembatan", "STSJRN": 2, "WADMPR": "Provinsi Sulawesi Selatan", "WADMKK": "Kabupaten Wajo", "REMARK": "S. JL. KEJAKSAAN", "SBDATA": "Dinas PUPR dan Pertanahan Kabupaten Wajo, 2022" }, "geometry": { "type": "Point", "coordinates": [ 120.03849375142336, -4.121074665710986 ] } },
{ "type": "Feature", "properties": { "FID": 51, "OBJECTID": 53, "NAMOBJ": "Jembatan", "STSJRN": 2, "WADMPR": "Provinsi Sulawesi Selatan", "WADMKK": "Kabupaten Wajo", "REMARK": "S. JL. KEJAKSAAN TIMUR 1", "SBDATA": "Dinas PUPR dan Pertanahan Kabupaten Wajo, 2022" }, "geometry": { "type": "Point", "coordinates": [ 120.049794557697581, -4.118655481970115 ] } },
{ "type": "Feature", "properties": { "FID": 52, "OBJECTID": 54, "NAMOBJ": "Jembatan", "STSJRN": 2, "WADMPR": "Provinsi Sulawesi Selatan", "WADMKK": "Kabupaten Wajo", "REMARK": "S. JL. KEJAKSAAN TIMUR 2", "SBDATA": "Dinas PUPR dan Pertanahan Kabupaten Wajo, 2022" }, "geometry": { "type": "Point", "coordinates": [ 120.051384575750461, -4.117634046626438 ] } },
{ "type": "Feature", "properties": { "FID": 53, "OBJECTID": 55, "NAMOBJ": "Jembatan", "STSJRN": 2, "WADMPR": "Provinsi Sulawesi Selatan", "WADMKK": "Kabupaten Wajo", "REMARK": "S. JL. FLAMBOYAN", "SBDATA": "Dinas PUPR dan Pertanahan Kabupaten Wajo, 2022" }, "geometry": { "type": "Point", "coordinates": [ 120.032466055866919, -4.125671094539526 ] } },
{ "type": "Feature", "properties": { "FID": 54, "OBJECTID": 56, "NAMOBJ": "Jembatan", "STSJRN": 2, "WADMPR": "Provinsi Sulawesi Selatan", "WADMKK": "Kabupaten Wajo", "REMARK": "S. JL. MAGGA AMIRULLAH", "SBDATA": "Dinas PUPR dan Pertanahan Kabupaten Wajo, 2022" }, "geometry": { "type": "Point", "coordinates": [ 120.031154515552117, -4.126038449302382 ] } },
{ "type": "Feature", "properties": { "FID": 55, "OBJECTID": 57, "NAMOBJ": "Jembatan", "STSJRN": 2, "WADMPR": "Provinsi Sulawesi Selatan", "WADMKK": "Kabupaten Wajo", "REMARK": "S. JL. ANGGREK", "SBDATA": "Dinas PUPR dan Pertanahan Kabupaten Wajo, 2022" }, "geometry": { "type": "Point", "coordinates": [ 120.039859190655207, -4.125689014287998 ] } },
{ "type": "Feature", "properties": { "FID": 56, "OBJECTID": 58, "NAMOBJ": "Jembatan", "STSJRN": 2, "WADMPR": "Provinsi Sulawesi Selatan", "WADMKK": "Kabupaten Wajo", "REMARK": "S. JL. IRIAN", "SBDATA": "Dinas PUPR dan Pertanahan Kabupaten Wajo, 2022" }, "geometry": { "type": "Point", "coordinates": [ 120.0340560739198, -4.1232160851782 ] } },
{ "type": "Feature", "properties": { "FID": 57, "OBJECTID": 59, "NAMOBJ": "Jembatan", "STSJRN": 2, "WADMPR": "Provinsi Sulawesi Selatan", "WADMKK": "Kabupaten Wajo", "REMARK": "S. JL. BAU MAHMUD", "SBDATA": "Dinas PUPR dan Pertanahan Kabupaten Wajo, 2022" }, "geometry": { "type": "Point", "coordinates": [ 120.030633492687301, -4.128323212914758 ] } },
{ "type": "Feature", "properties": { "FID": 58, "OBJECTID": 60, "NAMOBJ": "Jembatan", "STSJRN": 2, "WADMPR": "Provinsi Sulawesi Selatan", "WADMKK": "Kabupaten Wajo", "REMARK": "S. JL. EMPAT LIMA", "SBDATA": "Dinas PUPR dan Pertanahan Kabupaten Wajo, 2022" }, "geometry": { "type": "Point", "coordinates": [ 120.022144413252391, -4.129335674687557 ] } },
{ "type": "Feature", "properties": { "FID": 59, "OBJECTID": 61, "NAMOBJ": "Jembatan", "STSJRN": 2, "WADMPR": "Provinsi Sulawesi Selatan", "WADMKK": "Kabupaten Wajo", "REMARK": "S. JL. MELATI", "SBDATA": "Dinas PUPR dan Pertanahan Kabupaten Wajo, 2022" }, "geometry": { "type": "Point", "coordinates": [ 120.030561627464579, -4.126441643358719 ] } },
{ "type": "Feature", "properties": { "FID": 60, "OBJECTID": 62, "NAMOBJ": "Jembatan", "STSJRN": 2, "WADMPR": "Provinsi Sulawesi Selatan", "WADMKK": "Kabupaten Wajo", "REMARK": "S. BARU ORAI 11", "SBDATA": "Dinas PUPR dan Pertanahan Kabupaten Wajo, 2022" }, "geometry": { "type": "Point", "coordinates": [ 120.030112469822527, -4.125859251878311 ] } },
{ "type": "Feature", "properties": { "FID": 61, "OBJECTID": 63, "NAMOBJ": "Jembatan", "STSJRN": 2, "WADMPR": "Provinsi Sulawesi Selatan", "WADMKK": "Kabupaten Wajo", "REMARK": "S. LAELO 11", "SBDATA": "Dinas PUPR dan Pertanahan Kabupaten Wajo, 2022" }, "geometry": { "type": "Point", "coordinates": [ 120.031962999307794, -4.15306095710605 ] } },
{ "type": "Feature", "properties": { "FID": 62, "OBJECTID": 64, "NAMOBJ": "Jembatan", "STSJRN": 2, "WADMPR": "Provinsi Sulawesi Selatan", "WADMKK": "Kabupaten Wajo", "REMARK": "S. JL. A. MALINGKAAN", "SBDATA": "Dinas PUPR dan Pertanahan Kabupaten Wajo, 2022" }, "geometry": { "type": "Point", "coordinates": [ 120.02995975622423, -4.13116347851085 ] } },
{ "type": "Feature", "properties": { "FID": 63, "OBJECTID": 65, "NAMOBJ": "Jembatan", "STSJRN": 2, "WADMPR": "Provinsi Sulawesi Selatan", "WADMKK": "Kabupaten Wajo", "REMARK": "S. JL. CENDANA 11", "SBDATA": "Dinas PUPR dan Pertanahan Kabupaten Wajo, 2022" }, "geometry": { "type": "Point", "coordinates": [ 120.028387704477012, -4.132803122474745 ] } },
{ "type": "Feature", "properties": { "FID": 64, "OBJECTID": 66, "NAMOBJ": "Jembatan", "STSJRN": 2, "WADMPR": "Provinsi Sulawesi Selatan", "WADMKK": "Kabupaten Wajo", "REMARK": "S. JL. R. A. KARTINI", "SBDATA": "Dinas PUPR dan Pertanahan Kabupaten Wajo, 2022" }, "geometry": { "type": "Point", "coordinates": [ 120.029726194250344, -4.132677685351355 ] } },
{ "type": "Feature", "properties": { "FID": 65, "OBJECTID": 67, "NAMOBJ": "Jembatan", "STSJRN": 2, "WADMPR": "Provinsi Sulawesi Selatan", "WADMKK": "Kabupaten Wajo", "REMARK": "S. JL. BELIBIS", "SBDATA": "Dinas PUPR dan Pertanahan Kabupaten Wajo, 2022" }, "geometry": { "type": "Point", "coordinates": [ 120.030238233962308, -4.140096361083572 ] } },
{ "type": "Feature", "properties": { "FID": 66, "OBJECTID": 68, "NAMOBJ": "Jembatan", "STSJRN": 2, "WADMPR": "Provinsi Sulawesi Selatan", "WADMKK": "Kabupaten Wajo", "REMARK": "S. TOKAMPU", "SBDATA": "Dinas PUPR dan Pertanahan Kabupaten Wajo, 2022" }, "geometry": { "type": "Point", "coordinates": [ 120.029034491481582, -4.140598104759479 ] } },
{ "type": "Feature", "properties": { "FID": 67, "OBJECTID": 69, "NAMOBJ": "Jembatan", "STSJRN": 2, "WADMPR": "Provinsi Sulawesi Selatan", "WADMKK": "Kabupaten Wajo", "REMARK": "S. JL. A. PAWELLANGI", "SBDATA": "Dinas PUPR dan Pertanahan Kabupaten Wajo, 2022" }, "geometry": { "type": "Point", "coordinates": [ 120.03066044214583, -4.125868211750476 ] } },
{ "type": "Feature", "properties": { "FID": 68, "OBJECTID": 70, "NAMOBJ": "Jembatan", "STSJRN": 2, "WADMPR": "Provinsi Sulawesi Selatan", "WADMKK": "Kabupaten Wajo", "REMARK": "S. JL. SAWERIGADING 1", "SBDATA": "Dinas PUPR dan Pertanahan Kabupaten Wajo, 2022" }, "geometry": { "type": "Point", "coordinates": [ 120.038942909065398, -4.132767283298659 ] } },
{ "type": "Feature", "properties": { "FID": 69, "OBJECTID": 71, "NAMOBJ": "Jembatan", "STSJRN": 2, "WADMPR": "Provinsi Sulawesi Selatan", "WADMKK": "Kabupaten Wajo", "REMARK": "S. JL. SAWERIGADING 2", "SBDATA": "Dinas PUPR dan Pertanahan Kabupaten Wajo, 2022" }, "geometry": { "type": "Point", "coordinates": [ 120.039320201484756, -4.121450982520446 ] } },
{ "type": "Feature", "properties": { "FID": 70, "OBJECTID": 72, "NAMOBJ": "Jembatan", "STSJRN": 2, "WADMPR": "Provinsi Sulawesi Selatan", "WADMKK": "Kabupaten Wajo", "REMARK": "S. CEPPIE", "SBDATA": "Dinas PUPR dan Pertanahan Kabupaten Wajo, 2022" }, "geometry": { "type": "Point", "coordinates": [ 120.013134310952665, -4.143232253838576 ] } },
{ "type": "Feature", "properties": { "FID": 71, "OBJECTID": 73, "NAMOBJ": "Jembatan", "STSJRN": 2, "WADMPR": "Provinsi Sulawesi Selatan", "WADMKK": "Kabupaten Wajo", "REMARK": "S. JL. A. UNRU 1", "SBDATA": "Dinas PUPR dan Pertanahan Kabupaten Wajo, 2022" }, "geometry": { "type": "Point", "coordinates": [ 120.035053203885184, -4.112795650876476 ] } },
{ "type": "Feature", "properties": { "FID": 72, "OBJECTID": 74, "NAMOBJ": "Jembatan", "STSJRN": 2, "WADMPR": "Provinsi Sulawesi Selatan", "WADMKK": "Kabupaten Wajo", "REMARK": "S. JL. A. UNRU 2", "SBDATA": "Dinas PUPR dan Pertanahan Kabupaten Wajo, 2022" }, "geometry": { "type": "Point", "coordinates": [ 120.043290755040545, -4.090368407421546 ] } },
{ "type": "Feature", "properties": { "FID": 73, "OBJECTID": 75, "NAMOBJ": "Jembatan", "STSJRN": 2, "WADMPR": "Provinsi Sulawesi Selatan", "WADMKK": "Kabupaten Wajo", "REMARK": "S. CILELLANG (WEWANGREWU)", "SBDATA": "Dinas PUPR dan Pertanahan Kabupaten Wajo, 2022" }, "geometry": { "type": "Point", "coordinates": [ 120.083894605882762, -4.071175277746769 ] } },
{ "type": "Feature", "properties": { "FID": 74, "OBJECTID": 76, "NAMOBJ": "Jembatan", "STSJRN": 2, "WADMPR": "Provinsi Sulawesi Selatan", "WADMKK": "Kabupaten Wajo", "REMARK": "S. WAE TUO", "SBDATA": "Dinas PUPR dan Pertanahan Kabupaten Wajo, 2022" }, "geometry": { "type": "Point", "coordinates": [ 120.090766717806275, -4.07610352939828 ] } },
{ "type": "Feature", "properties": { "FID": 75, "OBJECTID": 77, "NAMOBJ": "Jembatan", "STSJRN": 2, "WADMPR": "Provinsi Sulawesi Selatan", "WADMKK": "Kabupaten Wajo", "REMARK": "S.J.LAWARA 1", "SBDATA": "Dinas PUPR dan Pertanahan Kabupaten Wajo, 2022" }, "geometry": { "type": "Point", "coordinates": [ 120.310566501524647, -4.066515812073431 ] } },
{ "type": "Feature", "properties": { "FID": 76, "OBJECTID": 78, "NAMOBJ": "Jembatan", "STSJRN": 2, "WADMPR": "Provinsi Sulawesi Selatan", "WADMKK": "Kabupaten Wajo", "REMARK": "S.J.LAWARA 2", "SBDATA": "Dinas PUPR dan Pertanahan Kabupaten Wajo, 2022" }, "geometry": { "type": "Point", "coordinates": [ 120.329934179050255, -4.073953023299364 ] } },
{ "type": "Feature", "properties": { "FID": 77, "OBJECTID": 79, "NAMOBJ": "Jembatan", "STSJRN": 2, "WADMPR": "Provinsi Sulawesi Selatan", "WADMKK": "Kabupaten Wajo", "REMARK": "S.J.TAWAROE", "SBDATA": "Dinas PUPR dan Pertanahan Kabupaten Wajo, 2022" }, "geometry": { "type": "Point", "coordinates": [ 120.265560905790238, -4.002705316515978 ] } },
{ "type": "Feature", "properties": { "FID": 78, "OBJECTID": 80, "NAMOBJ": "Jembatan", "STSJRN": 2, "WADMPR": "Provinsi Sulawesi Selatan", "WADMKK": "Kabupaten Wajo", "REMARK": "S.J.PADEWAKENG", "SBDATA": "Dinas PUPR dan Pertanahan Kabupaten Wajo, 2022" }, "geometry": { "type": "Point", "coordinates": [ 120.311626513559901, -4.011155722892537 ] } },
{ "type": "Feature", "properties": { "FID": 79, "OBJECTID": 81, "NAMOBJ": "Jembatan", "STSJRN": 2, "WADMPR": "Provinsi Sulawesi Selatan", "WADMKK": "Kabupaten Wajo", "REMARK": "S.J.KALOSI", "SBDATA": "Dinas PUPR dan Pertanahan Kabupaten Wajo, 2022" }, "geometry": { "type": "Point", "coordinates": [ 120.303029636290873, -4.02236604225905 ] } },
{ "type": "Feature", "properties": { "FID": 80, "OBJECTID": 82, "NAMOBJ": "Jembatan", "STSJRN": 2, "WADMPR": "Provinsi Sulawesi Selatan", "WADMKK": "Kabupaten Wajo", "REMARK": "S.J.POLEWALI", "SBDATA": "Dinas PUPR dan Pertanahan Kabupaten Wajo, 2022" }, "geometry": { "type": "Point", "coordinates": [ 120.28743488295855, -4.018369415294222 ] } },
{ "type": "Feature", "properties": { "FID": 81, "OBJECTID": 83, "NAMOBJ": "Jembatan", "STSJRN": 2, "WADMPR": "Provinsi Sulawesi Selatan", "WADMKK": "Kabupaten Wajo", "REMARK": "S.J.WIRIKALE", "SBDATA": "Dinas PUPR dan Pertanahan Kabupaten Wajo, 2022" }, "geometry": { "type": "Point", "coordinates": [ 120.256218426835403, -4.044598041507387 ] } },
{ "type": "Feature", "properties": { "FID": 82, "OBJECTID": 84, "NAMOBJ": "Jembatan", "STSJRN": 2, "WADMPR": "Provinsi Sulawesi Selatan", "WADMKK": "Kabupaten Wajo", "REMARK": "S.J.TOGEGE", "SBDATA": "Dinas PUPR dan Pertanahan Kabupaten Wajo, 2022" }, "geometry": { "type": "Point", "coordinates": [ 120.262039509876502, -4.01799305031069 ] } },
{ "type": "Feature", "properties": { "FID": 83, "OBJECTID": 85, "NAMOBJ": "Jembatan", "STSJRN": 2, "WADMPR": "Provinsi Sulawesi Selatan", "WADMKK": "Kabupaten Wajo", "REMARK": "S.J.LAMALOANG", "SBDATA": "Dinas PUPR dan Pertanahan Kabupaten Wajo, 2022" }, "geometry": { "type": "Point", "coordinates": [ 120.274813553216674, -4.019113183679501 ] } },
{ "type": "Feature", "properties": { "FID": 84, "OBJECTID": 86, "NAMOBJ": "Jembatan", "STSJRN": 2, "WADMPR": "Provinsi Sulawesi Selatan", "WADMKK": "Kabupaten Wajo", "REMARK": "S.J.CENRANAE", "SBDATA": "Dinas PUPR dan Pertanahan Kabupaten Wajo, 2022" }, "geometry": { "type": "Point", "coordinates": [ 120.330715713347445, -4.042366804251522 ] } },
{ "type": "Feature", "properties": { "FID": 85, "OBJECTID": 87, "NAMOBJ": "Jembatan", "STSJRN": 2, "WADMPR": "Provinsi Sulawesi Selatan", "WADMKK": "Kabupaten Wajo", "REMARK": "S.J.PATTIROLOKKA 1", "SBDATA": "Dinas PUPR dan Pertanahan Kabupaten Wajo, 2022" }, "geometry": { "type": "Point", "coordinates": [ 120.282512115201584, -3.890135506749503 ] } },
{ "type": "Feature", "properties": { "FID": 86, "OBJECTID": 88, "NAMOBJ": "Jembatan", "STSJRN": 2, "WADMPR": "Provinsi Sulawesi Selatan", "WADMKK": "Kabupaten Wajo", "REMARK": "S.J.PATTIROLOKKA 2", "SBDATA": "Dinas PUPR dan Pertanahan Kabupaten Wajo, 2022" }, "geometry": { "type": "Point", "coordinates": [ 120.313908234381572, -3.882965511922199 ] } },
{ "type": "Feature", "properties": { "FID": 87, "OBJECTID": 89, "NAMOBJ": "Jembatan", "STSJRN": 2, "WADMPR": "Provinsi Sulawesi Selatan", "WADMKK": "Kabupaten Wajo", "REMARK": "S.J.SALOBULO 1", "SBDATA": "Dinas PUPR dan Pertanahan Kabupaten Wajo, 2022" }, "geometry": { "type": "Point", "coordinates": [ 120.265920231903891, -3.955908385378132 ] } },
{ "type": "Feature", "properties": { "FID": 88, "OBJECTID": 90, "NAMOBJ": "Jembatan", "STSJRN": 2, "WADMPR": "Provinsi Sulawesi Selatan", "WADMKK": "Kabupaten Wajo", "REMARK": "S.J.SALOBULO 2", "SBDATA": "Dinas PUPR dan Pertanahan Kabupaten Wajo, 2022" }, "geometry": { "type": "Point", "coordinates": [ 120.271723348639313, -3.956688057252604 ] } },
{ "type": "Feature", "properties": { "FID": 89, "OBJECTID": 91, "NAMOBJ": "Jembatan", "STSJRN": 2, "WADMPR": "Provinsi Sulawesi Selatan", "WADMKK": "Kabupaten Wajo", "REMARK": "S.J.SALOBULO 3", "SBDATA": "Dinas PUPR dan Pertanahan Kabupaten Wajo, 2022" }, "geometry": { "type": "Point", "coordinates": [ 120.273582861277433, -3.956930024236857 ] } },
{ "type": "Feature", "properties": { "FID": 90, "OBJECTID": 92, "NAMOBJ": "Jembatan", "STSJRN": 2, "WADMPR": "Provinsi Sulawesi Selatan", "WADMKK": "Kabupaten Wajo", "REMARK": "S.J.SALOBULO 4", "SBDATA": "Dinas PUPR dan Pertanahan Kabupaten Wajo, 2022" }, "geometry": { "type": "Point", "coordinates": [ 120.274238631434855, -3.962844750748764 ] } },
{ "type": "Feature", "properties": { "FID": 91, "OBJECTID": 93, "NAMOBJ": "Jembatan", "STSJRN": 2, "WADMPR": "Provinsi Sulawesi Selatan", "WADMKK": "Kabupaten Wajo", "REMARK": "S.J.G.TODUMA", "SBDATA": "Dinas PUPR dan Pertanahan Kabupaten Wajo, 2022" }, "geometry": { "type": "Point", "coordinates": [ 120.292528330619518, -3.972980342798717 ] } },
{ "type": "Feature", "properties": { "FID": 92, "OBJECTID": 94, "NAMOBJ": "Jembatan", "STSJRN": 2, "WADMPR": "Provinsi Sulawesi Selatan", "WADMKK": "Kabupaten Wajo", "REMARK": "S.J.TOTAKKI", "SBDATA": "Dinas PUPR dan Pertanahan Kabupaten Wajo, 2022" }, "geometry": { "type": "Point", "coordinates": [ 120.302778108011324, -3.972388879306943 ] } },
{ "type": "Feature", "properties": { "FID": 93, "OBJECTID": 95, "NAMOBJ": "Jembatan", "STSJRN": 2, "WADMPR": "Provinsi Sulawesi Selatan", "WADMKK": "Kabupaten Wajo", "REMARK": "S.J.BARANGMAMASE", "SBDATA": "Dinas PUPR dan Pertanahan Kabupaten Wajo, 2022" }, "geometry": { "type": "Point", "coordinates": [ 120.31123125483488, -3.945512690332902 ] } },
{ "type": "Feature", "properties": { "FID": 94, "OBJECTID": 96, "NAMOBJ": "Jembatan", "STSJRN": 2, "WADMPR": "Provinsi Sulawesi Selatan", "WADMKK": "Kabupaten Wajo", "REMARK": "S.J.TANETE", "SBDATA": "Dinas PUPR dan Pertanahan Kabupaten Wajo, 2022" }, "geometry": { "type": "Point", "coordinates": [ 120.285593336626121, -3.763002553059023 ] } },
{ "type": "Feature", "properties": { "FID": 95, "OBJECTID": 97, "NAMOBJ": "Jembatan", "STSJRN": 2, "WADMPR": "Provinsi Sulawesi Selatan", "WADMKK": "Kabupaten Wajo", "REMARK": "S.J.G.TANETE", "SBDATA": "Dinas PUPR dan Pertanahan Kabupaten Wajo, 2022" }, "geometry": { "type": "Point", "coordinates": [ 120.280715484633333, -3.761944825709189 ] } },
{ "type": "Feature", "properties": { "FID": 96, "OBJECTID": 98, "NAMOBJ": "Jembatan", "STSJRN": 2, "WADMPR": "Provinsi Sulawesi Selatan", "WADMKK": "Kabupaten Wajo", "REMARK": "S.J.BENDUNGAN AWO", "SBDATA": "Dinas PUPR dan Pertanahan Kabupaten Wajo, 2022" }, "geometry": { "type": "Point", "coordinates": [ 120.276026278850225, -3.759945896788171 ] } },
{ "type": "Feature", "properties": { "FID": 97, "OBJECTID": 99, "NAMOBJ": "Jembatan", "STSJRN": 2, "WADMPR": "Provinsi Sulawesi Selatan", "WADMKK": "Kabupaten Wajo", "REMARK": "S.J.SALOKERRANG", "SBDATA": "Dinas PUPR dan Pertanahan Kabupaten Wajo, 2022" }, "geometry": { "type": "Point", "coordinates": [ 120.264644624200443, -3.766516349948498 ] } },
{ "type": "Feature", "properties": { "FID": 98, "OBJECTID": 100, "NAMOBJ": "Jembatan", "STSJRN": 2, "WADMPR": "Provinsi Sulawesi Selatan", "WADMKK": "Kabupaten Wajo", "REMARK": "S.J.SALOPOKKI", "SBDATA": "Dinas PUPR dan Pertanahan Kabupaten Wajo, 2022" }, "geometry": { "type": "Point", "coordinates": [ 120.263854106750429, -3.766372929944909 ] } },
{ "type": "Feature", "properties": { "FID": 99, "OBJECTID": 101, "NAMOBJ": "Jembatan", "STSJRN": 2, "WADMPR": "Provinsi Sulawesi Selatan", "WADMKK": "Kabupaten Wajo", "REMARK": "S.J.AWO", "SBDATA": "Dinas PUPR dan Pertanahan Kabupaten Wajo, 2022" }, "geometry": { "type": "Point", "coordinates": [ 120.259362530329838, -3.763513488691738 ] } },
{ "type": "Feature", "properties": { "FID": 100, "OBJECTID": 102, "NAMOBJ": "Jembatan", "STSJRN": 2, "WADMPR": "Provinsi Sulawesi Selatan", "WADMKK": "Kabupaten Wajo", "REMARK": "S.J.TANAH CELLAE", "SBDATA": "Dinas PUPR dan Pertanahan Kabupaten Wajo, 2022" }, "geometry": { "type": "Point", "coordinates": [ 120.243561164482173, -3.770146660916392 ] } },
{ "type": "Feature", "properties": { "FID": 101, "OBJECTID": 103, "NAMOBJ": "Jembatan", "STSJRN": 2, "WADMPR": "Provinsi Sulawesi Selatan", "WADMKK": "Kabupaten Wajo", "REMARK": "S.J.TANGKOLI", "SBDATA": "Dinas PUPR dan Pertanahan Kabupaten Wajo, 2022" }, "geometry": { "type": "Point", "coordinates": [ 120.237353805868892, -3.765539300706152 ] } },
{ "type": "Feature", "properties": { "FID": 102, "OBJECTID": 104, "NAMOBJ": "Jembatan", "STSJRN": 2, "WADMPR": "Provinsi Sulawesi Selatan", "WADMKK": "Kabupaten Wajo", "REMARK": "S.J.ABBUENGNGE", "SBDATA": "Dinas PUPR dan Pertanahan Kabupaten Wajo, 2022" }, "geometry": { "type": "Point", "coordinates": [ 120.224912139183829, -3.762921878984358 ] } },
{ "type": "Feature", "properties": { "FID": 103, "OBJECTID": 105, "NAMOBJ": "Jembatan", "STSJRN": 2, "WADMPR": "Provinsi Sulawesi Selatan", "WADMKK": "Kabupaten Wajo", "REMARK": "S.J.ONGKOE", "SBDATA": "Dinas PUPR dan Pertanahan Kabupaten Wajo, 2022" }, "geometry": { "type": "Point", "coordinates": [ 120.324436489511442, -3.768398735304521 ] } },
{ "type": "Feature", "properties": { "FID": 104, "OBJECTID": 106, "NAMOBJ": "Jembatan", "STSJRN": 2, "WADMPR": "Provinsi Sulawesi Selatan", "WADMKK": "Kabupaten Wajo", "REMARK": "S.J.TODA", "SBDATA": "Dinas PUPR dan Pertanahan Kabupaten Wajo, 2022" }, "geometry": { "type": "Point", "coordinates": [ 120.318875917902744, -3.768694538347316 ] } },
{ "type": "Feature", "properties": { "FID": 105, "OBJECTID": 107, "NAMOBJ": "Jembatan", "STSJRN": 2, "WADMPR": "Provinsi Sulawesi Selatan", "WADMKK": "Kabupaten Wajo", "REMARK": "S.J.PANGI", "SBDATA": "Dinas PUPR dan Pertanahan Kabupaten Wajo, 2022" }, "geometry": { "type": "Point", "coordinates": [ 120.312318216328663, -3.771168523492752 ] } },
{ "type": "Feature", "properties": { "FID": 106, "OBJECTID": 108, "NAMOBJ": "Jembatan", "STSJRN": 2, "WADMPR": "Provinsi Sulawesi Selatan", "WADMKK": "Kabupaten Wajo", "REMARK": "S.J.SUMPANG DORIANG 1", "SBDATA": "Dinas PUPR dan Pertanahan Kabupaten Wajo, 2022" }, "geometry": { "type": "Point", "coordinates": [ 120.296427018952585, -3.777882310004459 ] } },
{ "type": "Feature", "properties": { "FID": 107, "OBJECTID": 109, "NAMOBJ": "Jembatan", "STSJRN": 2, "WADMPR": "Provinsi Sulawesi Selatan", "WADMKK": "Kabupaten Wajo", "REMARK": "S.J.SUMPANG DORIANG 2", "SBDATA": "Dinas PUPR dan Pertanahan Kabupaten Wajo, 2022" }, "geometry": { "type": "Point", "coordinates": [ 120.295798198253721, -3.778733854650077 ] } },
{ "type": "Feature", "properties": { "FID": 108, "OBJECTID": 110, "NAMOBJ": "Jembatan", "STSJRN": 2, "WADMPR": "Provinsi Sulawesi Selatan", "WADMKK": "Kabupaten Wajo", "REMARK": "S.J.PAILA", "SBDATA": "Dinas PUPR dan Pertanahan Kabupaten Wajo, 2022" }, "geometry": { "type": "Point", "coordinates": [ 120.290561020147294, -3.777792673677356 ] } },
{ "type": "Feature", "properties": { "FID": 109, "OBJECTID": 111, "NAMOBJ": "Jembatan", "STSJRN": 2, "WADMPR": "Provinsi Sulawesi Selatan", "WADMKK": "Kabupaten Wajo", "REMARK": "S.J.JONGA-JONGA", "SBDATA": "Dinas PUPR dan Pertanahan Kabupaten Wajo, 2022" }, "geometry": { "type": "Point", "coordinates": [ 120.286985725316498, -3.774753996712433 ] } },
{ "type": "Feature", "properties": { "FID": 110, "OBJECTID": 112, "NAMOBJ": "Jembatan", "STSJRN": 2, "WADMPR": "Provinsi Sulawesi Selatan", "WADMKK": "Kabupaten Wajo", "REMARK": "S.J.WIRISALOE", "SBDATA": "Dinas PUPR dan Pertanahan Kabupaten Wajo, 2022" }, "geometry": { "type": "Point", "coordinates": [ 120.285018414844274, -3.76895448639279 ] } },
{ "type": "Feature", "properties": { "FID": 111, "OBJECTID": 113, "NAMOBJ": "Jembatan", "STSJRN": 2, "WADMPR": "Provinsi Sulawesi Selatan", "WADMKK": "Kabupaten Wajo", "REMARK": "S.J.BALETAFA", "SBDATA": "Dinas PUPR dan Pertanahan Kabupaten Wajo, 2022" }, "geometry": { "type": "Point", "coordinates": [ 120.125567451913071, -4.140848976478154 ] } },
{ "type": "Feature", "properties": { "FID": 112, "OBJECTID": 114, "NAMOBJ": "Jembatan", "STSJRN": 2, "WADMPR": "Provinsi Sulawesi Selatan", "WADMKK": "Kabupaten Wajo", "REMARK": "S.J.CELLU'E", "SBDATA": "Dinas PUPR dan Pertanahan Kabupaten Wajo, 2022" }, "geometry": { "type": "Point", "coordinates": [ 120.164060261837591, -4.1542704973675 ] } },
{ "type": "Feature", "properties": { "FID": 113, "OBJECTID": 115, "NAMOBJ": "Jembatan", "STSJRN": 2, "WADMPR": "Provinsi Sulawesi Selatan", "WADMKK": "Kabupaten Wajo", "REMARK": "S.J.PASA-PASA'E 1", "SBDATA": "Dinas PUPR dan Pertanahan Kabupaten Wajo, 2022" }, "geometry": { "type": "Point", "coordinates": [ 120.136490965767948, -3.989720375844118 ] } },
{ "type": "Feature", "properties": { "FID": 114, "OBJECTID": 116, "NAMOBJ": "Jembatan", "STSJRN": 2, "WADMPR": "Provinsi Sulawesi Selatan", "WADMKK": "Kabupaten Wajo", "REMARK": "S.J.PASA-PASA'E 2", "SBDATA": "Dinas PUPR dan Pertanahan Kabupaten Wajo, 2022" }, "geometry": { "type": "Point", "coordinates": [ 120.134559587907106, -3.988806314308951 ] } },
{ "type": "Feature", "properties": { "FID": 115, "OBJECTID": 117, "NAMOBJ": "Jembatan", "STSJRN": 2, "WADMPR": "Provinsi Sulawesi Selatan", "WADMKK": "Kabupaten Wajo", "REMARK": "S.J.PASA-PASA'E 3", "SBDATA": "Dinas PUPR dan Pertanahan Kabupaten Wajo, 2022" }, "geometry": { "type": "Point", "coordinates": [ 120.128630707031903, -3.98549955379321 ] } },
{ "type": "Feature", "properties": { "FID": 116, "OBJECTID": 118, "NAMOBJ": "Jembatan", "STSJRN": 2, "WADMPR": "Provinsi Sulawesi Selatan", "WADMKK": "Kabupaten Wajo", "REMARK": "S.J.LABAJE", "SBDATA": "Dinas PUPR dan Pertanahan Kabupaten Wajo, 2022" }, "geometry": { "type": "Point", "coordinates": [ 120.177930249824385, -4.016953565168349 ] } },
{ "type": "Feature", "properties": { "FID": 117, "OBJECTID": 119, "NAMOBJ": "Jembatan", "STSJRN": 2, "WADMPR": "Provinsi Sulawesi Selatan", "WADMKK": "Kabupaten Wajo", "REMARK": "S.J.LAMASEWANUA", "SBDATA": "Dinas PUPR dan Pertanahan Kabupaten Wajo, 2022" }, "geometry": { "type": "Point", "coordinates": [ 120.150217223309284, -4.117392127537232 ] } },
{ "type": "Feature", "properties": { "FID": 118, "OBJECTID": 120, "NAMOBJ": "Jembatan", "STSJRN": 2, "WADMPR": "Provinsi Sulawesi Selatan", "WADMKK": "Kabupaten Wajo", "REMARK": "S.J.LIMPUA", "SBDATA": "Dinas PUPR dan Pertanahan Kabupaten Wajo, 2022" }, "geometry": { "type": "Point", "coordinates": [ 120.090003149814763, -4.128592008201598 ] } },
{ "type": "Feature", "properties": { "FID": 119, "OBJECTID": 121, "NAMOBJ": "Jembatan", "STSJRN": 2, "WADMPR": "Provinsi Sulawesi Selatan", "WADMKK": "Kabupaten Wajo", "REMARK": "S.J.LAMESSI", "SBDATA": "Dinas PUPR dan Pertanahan Kabupaten Wajo, 2022" }, "geometry": { "type": "Point", "coordinates": [ 120.093578444645573, -4.126119088130024 ] } },
{ "type": "Feature", "properties": { "FID": 120, "OBJECTID": 122, "NAMOBJ": "Jembatan", "STSJRN": 2, "WADMPR": "Provinsi Sulawesi Selatan", "WADMKK": "Kabupaten Wajo", "REMARK": "S.J.LAPONRANG", "SBDATA": "Dinas PUPR dan Pertanahan Kabupaten Wajo, 2022" }, "geometry": { "type": "Point", "coordinates": [ 120.241809449678129, -3.996369694818304 ] } },
{ "type": "Feature", "properties": { "FID": 121, "OBJECTID": 123, "NAMOBJ": "Jembatan", "STSJRN": 2, "WADMPR": "Provinsi Sulawesi Selatan", "WADMKK": "Kabupaten Wajo", "REMARK": "S.J.LIMPOMAJANG 1", "SBDATA": "Dinas PUPR dan Pertanahan Kabupaten Wajo, 2022" }, "geometry": { "type": "Point", "coordinates": [ 120.162622957382979, -3.997651161149643 ] } },
{ "type": "Feature", "properties": { "FID": 122, "OBJECTID": 124, "NAMOBJ": "Jembatan", "STSJRN": 2, "WADMPR": "Provinsi Sulawesi Selatan", "WADMKK": "Kabupaten Wajo", "REMARK": "S.J.LIMPOMAJANG 2", "SBDATA": "Dinas PUPR dan Pertanahan Kabupaten Wajo, 2022" }, "geometry": { "type": "Point", "coordinates": [ 120.164257891200094, -3.99428170692652 ] } },
{ "type": "Feature", "properties": { "FID": 123, "OBJECTID": 125, "NAMOBJ": "Jembatan", "STSJRN": 2, "WADMPR": "Provinsi Sulawesi Selatan", "WADMKK": "Kabupaten Wajo", "REMARK": "S.J.GANCENGNGE 1", "SBDATA": "Dinas PUPR dan Pertanahan Kabupaten Wajo, 2022" }, "geometry": { "type": "Point", "coordinates": [ 120.162838553051188, -4.103002289599567 ] } },
{ "type": "Feature", "properties": { "FID": 124, "OBJECTID": 126, "NAMOBJ": "Jembatan", "STSJRN": 2, "WADMPR": "Provinsi Sulawesi Selatan", "WADMKK": "Kabupaten Wajo", "REMARK": "S.J.GANCENGNGE 2", "SBDATA": "Dinas PUPR dan Pertanahan Kabupaten Wajo, 2022" }, "geometry": { "type": "Point", "coordinates": [ 120.171417464014525, -4.10617416908481 ] } },
{ "type": "Feature", "properties": { "FID": 125, "OBJECTID": 127, "NAMOBJ": "Jembatan", "STSJRN": 2, "WADMPR": "Provinsi Sulawesi Selatan", "WADMKK": "Kabupaten Wajo", "REMARK": "S.J.GANCENGNGE 3", "SBDATA": "Dinas PUPR dan Pertanahan Kabupaten Wajo, 2022" }, "geometry": { "type": "Point", "coordinates": [ 120.159308173984584, -4.101362584248268 ] } },
{ "type": "Feature", "properties": { "FID": 126, "OBJECTID": 128, "NAMOBJ": "Jembatan", "STSJRN": 2, "WADMPR": "Provinsi Sulawesi Selatan", "WADMKK": "Kabupaten Wajo", "REMARK": "S.J.WAJO-WAJO 1", "SBDATA": "Dinas PUPR dan Pertanahan Kabupaten Wajo, 2022" }, "geometry": { "type": "Point", "coordinates": [ 120.128999016298408, -4.098728296475345 ] } },
{ "type": "Feature", "properties": { "FID": 127, "OBJECTID": 129, "NAMOBJ": "Jembatan", "STSJRN": 2, "WADMPR": "Provinsi Sulawesi Selatan", "WADMKK": "Kabupaten Wajo", "REMARK": "S.J.WAJO-WAJO 2", "SBDATA": "Dinas PUPR dan Pertanahan Kabupaten Wajo, 2022" }, "geometry": { "type": "Point", "coordinates": [ 120.135170442300293, -4.097554512393267 ] } },
{ "type": "Feature", "properties": { "FID": 128, "OBJECTID": 130, "NAMOBJ": "Jembatan", "STSJRN": 2, "WADMPR": "Provinsi Sulawesi Selatan", "WADMKK": "Kabupaten Wajo", "REMARK": "S.J.WAJO-WAJO 3", "SBDATA": "Dinas PUPR dan Pertanahan Kabupaten Wajo, 2022" }, "geometry": { "type": "Point", "coordinates": [ 120.140820845437403, -4.098835818595193 ] } },
{ "type": "Feature", "properties": { "FID": 129, "OBJECTID": 131, "NAMOBJ": "Jembatan", "STSJRN": 2, "WADMPR": "Provinsi Sulawesi Selatan", "WADMKK": "Kabupaten Wajo", "REMARK": "S.J.CINNONGTABI", "SBDATA": "Dinas PUPR dan Pertanahan Kabupaten Wajo, 2022" }, "geometry": { "type": "Point", "coordinates": [ 120.138242680571992, -4.054436918009079 ] } },
{ "type": "Feature", "properties": { "FID": 130, "OBJECTID": 132, "NAMOBJ": "Jembatan", "STSJRN": 2, "WADMPR": "Provinsi Sulawesi Selatan", "WADMKK": "Kabupaten Wajo", "REMARK": "S.J.LAPENNE-PENNE", "SBDATA": "Dinas PUPR dan Pertanahan Kabupaten Wajo, 2022" }, "geometry": { "type": "Point", "coordinates": [ 120.125082361659622, -4.09449012140455 ] } },
{ "type": "Feature", "properties": { "FID": 131, "OBJECTID": 133, "NAMOBJ": "Jembatan", "STSJRN": 2, "WADMPR": "Provinsi Sulawesi Selatan", "WADMKK": "Kabupaten Wajo", "REMARK": "S.J.LECE-LECENGNGE 1", "SBDATA": "Dinas PUPR dan Pertanahan Kabupaten Wajo, 2022" }, "geometry": { "type": "Point", "coordinates": [ 120.114868516879184, -4.130258536948141 ] } },
{ "type": "Feature", "properties": { "FID": 132, "OBJECTID": 134, "NAMOBJ": "Jembatan", "STSJRN": 2, "WADMPR": "Provinsi Sulawesi Selatan", "WADMKK": "Kabupaten Wajo", "REMARK": "S.J.LECE-LECENGNGE 2", "SBDATA": "Dinas PUPR dan Pertanahan Kabupaten Wajo, 2022" }, "geometry": { "type": "Point", "coordinates": [ 120.113727656468356, -4.132328253260142 ] } },
{ "type": "Feature", "properties": { "FID": 133, "OBJECTID": 135, "NAMOBJ": "Jembatan", "STSJRN": 2, "WADMPR": "Provinsi Sulawesi Selatan", "WADMKK": "Kabupaten Wajo", "REMARK": "S.J.G.LOMPOLOANG 1", "SBDATA": "Dinas PUPR dan Pertanahan Kabupaten Wajo, 2022" }, "geometry": { "type": "Point", "coordinates": [ 120.339941411315351, -3.726438506510658 ] } },
{ "type": "Feature", "properties": { "FID": 134, "OBJECTID": 136, "NAMOBJ": "Jembatan", "STSJRN": 2, "WADMPR": "Provinsi Sulawesi Selatan", "WADMKK": "Kabupaten Wajo", "REMARK": "S.J.G.LOMPOLOANG 2", "SBDATA": "Dinas PUPR dan Pertanahan Kabupaten Wajo, 2022" }, "geometry": { "type": "Point", "coordinates": [ 120.339321573769297, -3.725882728410803 ] } },
{ "type": "Feature", "properties": { "FID": 135, "OBJECTID": 137, "NAMOBJ": "Jembatan", "STSJRN": 2, "WADMPR": "Provinsi Sulawesi Selatan", "WADMKK": "Kabupaten Wajo", "REMARK": "S.J.MASARA", "SBDATA": "Dinas PUPR dan Pertanahan Kabupaten Wajo, 2022" }, "geometry": { "type": "Point", "coordinates": [ 120.340606164625584, -3.722090878137962 ] } },
{ "type": "Feature", "properties": { "FID": 136, "OBJECTID": 138, "NAMOBJ": "Jembatan", "STSJRN": 2, "WADMPR": "Provinsi Sulawesi Selatan", "WADMKK": "Kabupaten Wajo", "REMARK": "S.J.BENTENG", "SBDATA": "Dinas PUPR dan Pertanahan Kabupaten Wajo, 2022" }, "geometry": { "type": "Point", "coordinates": [ 120.333644221173657, -3.706806777293383 ] } },
{ "type": "Feature", "properties": { "FID": 137, "OBJECTID": 139, "NAMOBJ": "Jembatan", "STSJRN": 2, "WADMPR": "Provinsi Sulawesi Selatan", "WADMKK": "Kabupaten Wajo", "REMARK": "S.J.BENTENG 1", "SBDATA": "Dinas PUPR dan Pertanahan Kabupaten Wajo, 2022" }, "geometry": { "type": "Point", "coordinates": [ 120.382207145433171, -3.737733275616185 ] } },
{ "type": "Feature", "properties": { "FID": 138, "OBJECTID": 140, "NAMOBJ": "Jembatan", "STSJRN": 2, "WADMPR": "Provinsi Sulawesi Selatan", "WADMKK": "Kabupaten Wajo", "REMARK": "S.J.BENTENG 2", "SBDATA": "Dinas PUPR dan Pertanahan Kabupaten Wajo, 2022" }, "geometry": { "type": "Point", "coordinates": [ 120.394460165908569, -3.749942219565778 ] } },
{ "type": "Feature", "properties": { "FID": 139, "OBJECTID": 141, "NAMOBJ": "Jembatan", "STSJRN": 2, "WADMPR": "Provinsi Sulawesi Selatan", "WADMKK": "Kabupaten Wajo", "REMARK": "S.J.TOKKE-TOKKE", "SBDATA": "Dinas PUPR dan Pertanahan Kabupaten Wajo, 2022" }, "geometry": { "type": "Point", "coordinates": [ 120.398763096119481, -3.761577309973502 ] } },
{ "type": "Feature", "properties": { "FID": 140, "OBJECTID": 142, "NAMOBJ": "Jembatan", "STSJRN": 2, "WADMPR": "Provinsi Sulawesi Selatan", "WADMKK": "Kabupaten Wajo", "REMARK": "S.J.DOPING-DOPING", "SBDATA": "Dinas PUPR dan Pertanahan Kabupaten Wajo, 2022" }, "geometry": { "type": "Point", "coordinates": [ 120.397568336791593, -3.769438527373886 ] } },
{ "type": "Feature", "properties": { "FID": 141, "OBJECTID": 143, "NAMOBJ": "Jembatan", "STSJRN": 2, "WADMPR": "Provinsi Sulawesi Selatan", "WADMKK": "Kabupaten Wajo", "REMARK": "S.J.LAPOKKO", "SBDATA": "Dinas PUPR dan Pertanahan Kabupaten Wajo, 2022" }, "geometry": { "type": "Point", "coordinates": [ 120.376152500418215, -3.678317584830991 ] } },
{ "type": "Feature", "properties": { "FID": 142, "OBJECTID": 144, "NAMOBJ": "Jembatan", "STSJRN": 2, "WADMPR": "Provinsi Sulawesi Selatan", "WADMKK": "Kabupaten Wajo", "REMARK": "S.J.JAUHPANDANG", "SBDATA": "Dinas PUPR dan Pertanahan Kabupaten Wajo, 2022" }, "geometry": { "type": "Point", "coordinates": [ 120.352598673668595, -3.660172954389155 ] } },
{ "type": "Feature", "properties": { "FID": 143, "OBJECTID": 145, "NAMOBJ": "Jembatan", "STSJRN": 2, "WADMPR": "Provinsi Sulawesi Selatan", "WADMKK": "Kabupaten Wajo", "REMARK": "S.J.KERA-KERA", "SBDATA": "Dinas PUPR dan Pertanahan Kabupaten Wajo, 2022" }, "geometry": { "type": "Point", "coordinates": [ 120.34075887822388, -3.662548631006441 ] } },
{ "type": "Feature", "properties": { "FID": 144, "OBJECTID": 146, "NAMOBJ": "Jembatan", "STSJRN": 2, "WADMPR": "Provinsi Sulawesi Selatan", "WADMKK": "Kabupaten Wajo", "REMARK": "S.J.G.LACINDE", "SBDATA": "Dinas PUPR dan Pertanahan Kabupaten Wajo, 2022" }, "geometry": { "type": "Point", "coordinates": [ 120.358186194735822, -3.676524653576538 ] } },
{ "type": "Feature", "properties": { "FID": 145, "OBJECTID": 147, "NAMOBJ": "Jembatan", "STSJRN": 2, "WADMPR": "Provinsi Sulawesi Selatan", "WADMKK": "Kabupaten Wajo", "REMARK": "S.J.KOMPONGE", "SBDATA": "Dinas PUPR dan Pertanahan Kabupaten Wajo, 2022" }, "geometry": { "type": "Point", "coordinates": [ 120.357422626744309, -3.685811998406113 ] } },
{ "type": "Feature", "properties": { "FID": 146, "OBJECTID": 148, "NAMOBJ": "Jembatan", "STSJRN": 2, "WADMPR": "Provinsi Sulawesi Selatan", "WADMKK": "Kabupaten Wajo", "REMARK": "S.J.BULU SIWA 1", "SBDATA": "Dinas PUPR dan Pertanahan Kabupaten Wajo, 2022" }, "geometry": { "type": "Point", "coordinates": [ 120.419496212876979, -3.691405873607885 ] } },
{ "type": "Feature", "properties": { "FID": 147, "OBJECTID": 149, "NAMOBJ": "Jembatan", "STSJRN": 2, "WADMPR": "Provinsi Sulawesi Selatan", "WADMKK": "Kabupaten Wajo", "REMARK": "S.J.BULU SIWA 2", "SBDATA": "Dinas PUPR dan Pertanahan Kabupaten Wajo, 2022" }, "geometry": { "type": "Point", "coordinates": [ 120.426080863909576, -3.684969328258026 ] } },
{ "type": "Feature", "properties": { "FID": 148, "OBJECTID": 150, "NAMOBJ": "Jembatan", "STSJRN": 2, "WADMPR": "Provinsi Sulawesi Selatan", "WADMKK": "Kabupaten Wajo", "REMARK": "S.J.TELLANG", "SBDATA": "Dinas PUPR dan Pertanahan Kabupaten Wajo, 2022" }, "geometry": { "type": "Point", "coordinates": [ 120.383976826542877, -3.715340806414849 ] } },
{ "type": "Feature", "properties": { "FID": 149, "OBJECTID": 151, "NAMOBJ": "Jembatan", "STSJRN": 2, "WADMPR": "Provinsi Sulawesi Selatan", "WADMKK": "Kabupaten Wajo", "REMARK": "S.J.PADANGLOANG", "SBDATA": "Dinas PUPR dan Pertanahan Kabupaten Wajo, 2022" }, "geometry": { "type": "Point", "coordinates": [ 120.361779455872295, -3.69668595745914 ] } },
{ "type": "Feature", "properties": { "FID": 150, "OBJECTID": 152, "NAMOBJ": "Jembatan", "STSJRN": 2, "WADMPR": "Provinsi Sulawesi Selatan", "WADMKK": "Kabupaten Wajo", "REMARK": "S.J.SIMPELLU", "SBDATA": "Dinas PUPR dan Pertanahan Kabupaten Wajo, 2022" }, "geometry": { "type": "Point", "coordinates": [ 120.294522590550272, -3.743344749701726 ] } },
{ "type": "Feature", "properties": { "FID": 151, "OBJECTID": 154, "NAMOBJ": "Jembatan", "STSJRN": 2, "WADMPR": "Provinsi Sulawesi Selatan", "WADMKK": "Kabupaten Wajo", "REMARK": "S.J.PADANGLAMPE", "SBDATA": "Dinas PUPR dan Pertanahan Kabupaten Wajo, 2022" }, "geometry": { "type": "Point", "coordinates": [ 120.357602289801122, -3.748705197756323 ] } },
{ "type": "Feature", "properties": { "FID": 152, "OBJECTID": 155, "NAMOBJ": "Jembatan", "STSJRN": 2, "WADMPR": "Provinsi Sulawesi Selatan", "WADMKK": "Kabupaten Wajo", "REMARK": "S.J.JAMPUE", "SBDATA": "Dinas PUPR dan Pertanahan Kabupaten Wajo, 2022" }, "geometry": { "type": "Point", "coordinates": [ 120.34735251240933, -3.731682524513805 ] } },
{ "type": "Feature", "properties": { "FID": 153, "OBJECTID": 156, "NAMOBJ": "Jembatan", "STSJRN": 2, "WADMPR": "Provinsi Sulawesi Selatan", "WADMKK": "Kabupaten Wajo", "REMARK": "S.J.LAUWWA", "SBDATA": "Dinas PUPR dan Pertanahan Kabupaten Wajo, 2022" }, "geometry": { "type": "Point", "coordinates": [ 120.353200544908944, -3.737410569943936 ] } },
{ "type": "Feature", "properties": { "FID": 154, "OBJECTID": 157, "NAMOBJ": "Jembatan", "STSJRN": 2, "WADMPR": "Provinsi Sulawesi Selatan", "WADMKK": "Kabupaten Wajo", "REMARK": "S.J.LOMPOLOANG", "SBDATA": "Dinas PUPR dan Pertanahan Kabupaten Wajo, 2022" }, "geometry": { "type": "Point", "coordinates": [ 120.327239233197886, -3.732749252550955 ] } },
{ "type": "Feature", "properties": { "FID": 155, "OBJECTID": 158, "NAMOBJ": "Jembatan", "STSJRN": 2, "WADMPR": "Provinsi Sulawesi Selatan", "WADMKK": "Kabupaten Wajo", "REMARK": "S.J.MATTIROWALIE", "SBDATA": "Dinas PUPR dan Pertanahan Kabupaten Wajo, 2022" }, "geometry": { "type": "Point", "coordinates": [ 120.313611790337788, -3.753680166133852 ] } },
{ "type": "Feature", "properties": { "FID": 156, "OBJECTID": 159, "NAMOBJ": "Jembatan", "STSJRN": 2, "WADMPR": "Provinsi Sulawesi Selatan", "WADMKK": "Kabupaten Wajo", "REMARK": "S.J.MATTIROWALIE", "SBDATA": "Dinas PUPR dan Pertanahan Kabupaten Wajo, 2022" }, "geometry": { "type": "Point", "coordinates": [ 120.381820869861002, -3.696183947442975 ] } },
{ "type": "Feature", "properties": { "FID": 157, "OBJECTID": 160, "NAMOBJ": "Jembatan", "STSJRN": 2, "WADMPR": "Provinsi Sulawesi Selatan", "WADMKK": "Kabupaten Wajo", "REMARK": "S. WELLANG PELLANG", "SBDATA": "Dinas PUPR dan Pertanahan Kabupaten Wajo, 2022" }, "geometry": { "type": "Point", "coordinates": [ 120.257296405176348, -4.204003388848331 ] } },
{ "type": "Feature", "properties": { "FID": 158, "OBJECTID": 161, "NAMOBJ": "Jembatan", "STSJRN": 2, "WADMPR": "Provinsi Sulawesi Selatan", "WADMKK": "Kabupaten Wajo", "REMARK": "S. WELLANG PELLANG 2", "SBDATA": "Dinas PUPR dan Pertanahan Kabupaten Wajo, 2022" }, "geometry": { "type": "Point", "coordinates": [ 120.251241760161363, -4.201396320614446 ] } },
{ "type": "Feature", "properties": { "FID": 159, "OBJECTID": 162, "NAMOBJ": "Jembatan", "STSJRN": 2, "WADMPR": "Provinsi Sulawesi Selatan", "WADMKK": "Kabupaten Wajo", "REMARK": "S. AJURAJA 2", "SBDATA": "Dinas PUPR dan Pertanahan Kabupaten Wajo, 2022" }, "geometry": { "type": "Point", "coordinates": [ 120.305104744597188, -4.195053314096189 ] } },
{ "type": "Feature", "properties": { "FID": 160, "OBJECTID": 163, "NAMOBJ": "Jembatan", "STSJRN": 2, "WADMPR": "Provinsi Sulawesi Selatan", "WADMKK": "Kabupaten Wajo", "REMARK": "S. APALA", "SBDATA": "Dinas PUPR dan Pertanahan Kabupaten Wajo, 2022" }, "geometry": { "type": "Point", "coordinates": [ 120.243543198176482, -4.130706527949784 ] } },
{ "type": "Feature", "properties": { "FID": 161, "OBJECTID": 164, "NAMOBJ": "Jembatan", "STSJRN": 2, "WADMPR": "Provinsi Sulawesi Selatan", "WADMKK": "Kabupaten Wajo", "REMARK": "S. BOLI-BOLIE", "SBDATA": "Dinas PUPR dan Pertanahan Kabupaten Wajo, 2022" }, "geometry": { "type": "Point", "coordinates": [ 120.181352831056884, -4.118082044745602 ] } },
{ "type": "Feature", "properties": { "FID": 162, "OBJECTID": 165, "NAMOBJ": "Jembatan", "STSJRN": 2, "WADMPR": "Provinsi Sulawesi Selatan", "WADMKK": "Kabupaten Wajo", "REMARK": "S. JAMPU ALAU", "SBDATA": "Dinas PUPR dan Pertanahan Kabupaten Wajo, 2022" }, "geometry": { "type": "Point", "coordinates": [ 120.194261621689677, -4.152586100052102 ] } },
{ "type": "Feature", "properties": { "FID": 163, "OBJECTID": 166, "NAMOBJ": "Jembatan", "STSJRN": 2, "WADMPR": "Provinsi Sulawesi Selatan", "WADMKK": "Kabupaten Wajo", "REMARK": "S. LAKALUKKU", "SBDATA": "Dinas PUPR dan Pertanahan Kabupaten Wajo, 2022" }, "geometry": { "type": "Point", "coordinates": [ 120.19319262650157, -4.16971661123044 ] } },
{ "type": "Feature", "properties": { "FID": 164, "OBJECTID": 167, "NAMOBJ": "Jembatan", "STSJRN": 2, "WADMPR": "Provinsi Sulawesi Selatan", "WADMKK": "Kabupaten Wajo", "REMARK": "S. LAKALUKKU 2", "SBDATA": "Dinas PUPR dan Pertanahan Kabupaten Wajo, 2022" }, "geometry": { "type": "Point", "coordinates": [ 120.192069732396419, -4.173183881651864 ] } },
{ "type": "Feature", "properties": { "FID": 165, "OBJECTID": 168, "NAMOBJ": "Jembatan", "STSJRN": 2, "WADMPR": "Provinsi Sulawesi Selatan", "WADMKK": "Kabupaten Wajo", "REMARK": "S. DUPPAWALIE", "SBDATA": "Dinas PUPR dan Pertanahan Kabupaten Wajo, 2022" }, "geometry": { "type": "Point", "coordinates": [ 120.362668788003575, -4.192580602682558 ] } },
{ "type": "Feature", "properties": { "FID": 166, "OBJECTID": 169, "NAMOBJ": "Jembatan", "STSJRN": 2, "WADMPR": "Provinsi Sulawesi Selatan", "WADMKK": "Kabupaten Wajo", "REMARK": "S. LAKAMPORO", "SBDATA": "Dinas PUPR dan Pertanahan Kabupaten Wajo, 2022" }, "geometry": { "type": "Point", "coordinates": [ 120.356578210377236, -4.183155558498103 ] } },
{ "type": "Feature", "properties": { "FID": 167, "OBJECTID": 170, "NAMOBJ": "Jembatan", "STSJRN": 2, "WADMPR": "Provinsi Sulawesi Selatan", "WADMKK": "Kabupaten Wajo", "REMARK": "S. LAGOARI", "SBDATA": "Dinas PUPR dan Pertanahan Kabupaten Wajo, 2022" }, "geometry": { "type": "Point", "coordinates": [ 120.294405809563344, -4.148007746633333 ] } },
{ "type": "Feature", "properties": { "FID": 168, "OBJECTID": 171, "NAMOBJ": "Jembatan", "STSJRN": 2, "WADMPR": "Provinsi Sulawesi Selatan", "WADMKK": "Kabupaten Wajo", "REMARK": "S. TODORI", "SBDATA": "Dinas PUPR dan Pertanahan Kabupaten Wajo, 2022" }, "geometry": { "type": "Point", "coordinates": [ 120.2980619527697, -4.141556792684256 ] } },
{ "type": "Feature", "properties": { "FID": 169, "OBJECTID": 172, "NAMOBJ": "Jembatan", "STSJRN": 2, "WADMPR": "Provinsi Sulawesi Selatan", "WADMKK": "Kabupaten Wajo", "REMARK": "S. LAPAPPOLO", "SBDATA": "Dinas PUPR dan Pertanahan Kabupaten Wajo, 2022" }, "geometry": { "type": "Point", "coordinates": [ 120.301906742185722, -4.158373960876833 ] } },
{ "type": "Feature", "properties": { "FID": 170, "OBJECTID": 173, "NAMOBJ": "Jembatan", "STSJRN": 2, "WADMPR": "Provinsi Sulawesi Selatan", "WADMKK": "Kabupaten Wajo", "REMARK": "S. LUMPIWIE 1", "SBDATA": "Dinas PUPR dan Pertanahan Kabupaten Wajo, 2022" }, "geometry": { "type": "Point", "coordinates": [ 120.244872704796975, -4.192598520909351 ] } },
{ "type": "Feature", "properties": { "FID": 171, "OBJECTID": 174, "NAMOBJ": "Jembatan", "STSJRN": 2, "WADMPR": "Provinsi Sulawesi Selatan", "WADMKK": "Kabupaten Wajo", "REMARK": "S. LUMPIWIE 2", "SBDATA": "Dinas PUPR dan Pertanahan Kabupaten Wajo, 2022" }, "geometry": { "type": "Point", "coordinates": [ 120.245986615749288, -4.189892864012577 ] } },
{ "type": "Feature", "properties": { "FID": 172, "OBJECTID": 175, "NAMOBJ": "Jembatan", "STSJRN": 2, "WADMPR": "Provinsi Sulawesi Selatan", "WADMKK": "Kabupaten Wajo", "REMARK": "S. BOCCO", "SBDATA": "Dinas PUPR dan Pertanahan Kabupaten Wajo, 2022" }, "geometry": { "type": "Point", "coordinates": [ 120.26318037028733, -4.161052848016906 ] } },
{ "type": "Feature", "properties": { "FID": 173, "OBJECTID": 176, "NAMOBJ": "Jembatan", "STSJRN": 2, "WADMPR": "Provinsi Sulawesi Selatan", "WADMKK": "Kabupaten Wajo", "REMARK": "S. PENEKI", "SBDATA": "Dinas PUPR dan Pertanahan Kabupaten Wajo, 2022" }, "geometry": { "type": "Point", "coordinates": [ 120.267680929860774, -4.155041018344826 ] } },
{ "type": "Feature", "properties": { "FID": 174, "OBJECTID": 177, "NAMOBJ": "Jembatan", "STSJRN": 2, "WADMPR": "Provinsi Sulawesi Selatan", "WADMKK": "Kabupaten Wajo", "REMARK": "S. BUCCOLO", "SBDATA": "Dinas PUPR dan Pertanahan Kabupaten Wajo, 2022" }, "geometry": { "type": "Point", "coordinates": [ 120.326017524411483, -4.187939768117474 ] } },
{ "type": "Feature", "properties": { "FID": 175, "OBJECTID": 178, "NAMOBJ": "Jembatan", "STSJRN": 2, "WADMPR": "Provinsi Sulawesi Selatan", "WADMKK": "Kabupaten Wajo", "REMARK": "S. LEMPONG", "SBDATA": "Dinas PUPR dan Pertanahan Kabupaten Wajo, 2022" }, "geometry": { "type": "Point", "coordinates": [ 120.162829569898349, -4.189525539010127 ] } },
{ "type": "Feature", "properties": { "FID": 176, "OBJECTID": 179, "NAMOBJ": "Jembatan", "STSJRN": 2, "WADMPR": "Provinsi Sulawesi Selatan", "WADMKK": "Kabupaten Wajo", "REMARK": "S. KADING", "SBDATA": "Dinas PUPR dan Pertanahan Kabupaten Wajo, 2022" }, "geometry": { "type": "Point", "coordinates": [ 120.132852788867268, -4.218033028867687 ] } },
{ "type": "Feature", "properties": { "FID": 177, "OBJECTID": 180, "NAMOBJ": "Jembatan", "STSJRN": 2, "WADMPR": "Provinsi Sulawesi Selatan", "WADMKK": "Kabupaten Wajo", "REMARK": "S. CEMPA", "SBDATA": "Dinas PUPR dan Pertanahan Kabupaten Wajo, 2022" }, "geometry": { "type": "Point", "coordinates": [ 120.133805003068431, -4.222817024475694 ] } },
{ "type": "Feature", "properties": { "FID": 178, "OBJECTID": 181, "NAMOBJ": "Jembatan", "STSJRN": 2, "WADMPR": "Provinsi Sulawesi Selatan", "WADMKK": "Kabupaten Wajo", "REMARK": "S. LEWENG", "SBDATA": "Dinas PUPR dan Pertanahan Kabupaten Wajo, 2022" }, "geometry": { "type": "Point", "coordinates": [ 120.291585099571193, -4.134397964170525 ] } },
{ "type": "Feature", "properties": { "FID": 179, "OBJECTID": 182, "NAMOBJ": "Jembatan", "STSJRN": 2, "WADMPR": "Provinsi Sulawesi Selatan", "WADMKK": "Kabupaten Wajo", "REMARK": "S. TONRONG BOLA", "SBDATA": "Dinas PUPR dan Pertanahan Kabupaten Wajo, 2022" }, "geometry": { "type": "Point", "coordinates": [ 120.186024070534302, -4.232850777102795 ] } },
{ "type": "Feature", "properties": { "FID": 180, "OBJECTID": 183, "NAMOBJ": "Jembatan", "STSJRN": 2, "WADMPR": "Provinsi Sulawesi Selatan", "WADMKK": "Kabupaten Wajo", "REMARK": "S. LOMPO BUNNE", "SBDATA": "Dinas PUPR dan Pertanahan Kabupaten Wajo, 2022" }, "geometry": { "type": "Point", "coordinates": [ 120.295941928699179, -4.229276267625739 ] } },
{ "type": "Feature", "properties": { "FID": 181, "OBJECTID": 184, "NAMOBJ": "Jembatan", "STSJRN": 2, "WADMPR": "Provinsi Sulawesi Selatan", "WADMKK": "Kabupaten Wajo", "REMARK": "S. BAKKE MACCILERENG", "SBDATA": "Dinas PUPR dan Pertanahan Kabupaten Wajo, 2022" }, "geometry": { "type": "Point", "coordinates": [ 120.316818775902107, -4.219278303970214 ] } },
{ "type": "Feature", "properties": { "FID": 182, "OBJECTID": 185, "NAMOBJ": "Jembatan", "STSJRN": 2, "WADMPR": "Provinsi Sulawesi Selatan", "WADMKK": "Kabupaten Wajo", "REMARK": "S. PATTANGNGAE", "SBDATA": "Dinas PUPR dan Pertanahan Kabupaten Wajo, 2022" }, "geometry": { "type": "Point", "coordinates": [ 120.353820382454998, -4.220684835317814 ] } },
{ "type": "Feature", "properties": { "FID": 183, "OBJECTID": 186, "NAMOBJ": "Jembatan", "STSJRN": 2, "WADMPR": "Provinsi Sulawesi Selatan", "WADMKK": "Kabupaten Wajo", "REMARK": "S. KANUNANG", "SBDATA": "Dinas PUPR dan Pertanahan Kabupaten Wajo, 2022" }, "geometry": { "type": "Point", "coordinates": [ 120.349849828899167, -4.2046663532631 ] } },
{ "type": "Feature", "properties": { "FID": 184, "OBJECTID": 187, "NAMOBJ": "Jembatan", "STSJRN": 2, "WADMPR": "Provinsi Sulawesi Selatan", "WADMKK": "Kabupaten Wajo", "REMARK": "S. LAJAREPPA MANNYILI", "SBDATA": "Dinas PUPR dan Pertanahan Kabupaten Wajo, 2022" }, "geometry": { "type": "Point", "coordinates": [ 120.282476182590216, -4.185189299118276 ] } },
{ "type": "Feature", "properties": { "FID": 185, "OBJECTID": 188, "NAMOBJ": "Jembatan", "STSJRN": 2, "WADMPR": "Provinsi Sulawesi Selatan", "WADMKK": "Kabupaten Wajo", "REMARK": "S. WANUA 1", "SBDATA": "Dinas PUPR dan Pertanahan Kabupaten Wajo, 2022" }, "geometry": { "type": "Point", "coordinates": [ 119.995581230300957, -4.220174184104031 ] } },
{ "type": "Feature", "properties": { "FID": 186, "OBJECTID": 189, "NAMOBJ": "Jembatan", "STSJRN": 2, "WADMPR": "Provinsi Sulawesi Selatan", "WADMKK": "Kabupaten Wajo", "REMARK": "S. WANUA 2", "SBDATA": "Dinas PUPR dan Pertanahan Kabupaten Wajo, 2022" }, "geometry": { "type": "Point", "coordinates": [ 119.993380357854861, -4.220837134737605 ] } },
{ "type": "Feature", "properties": { "FID": 187, "OBJECTID": 190, "NAMOBJ": "Jembatan", "STSJRN": 2, "WADMPR": "Provinsi Sulawesi Selatan", "WADMKK": "Kabupaten Wajo", "REMARK": "S. PALLAE", "SBDATA": "Dinas PUPR dan Pertanahan Kabupaten Wajo, 2022" }, "geometry": { "type": "Point", "coordinates": [ 119.989167259172362, -4.208805388611156 ] } },
{ "type": "Feature", "properties": { "FID": 188, "OBJECTID": 191, "NAMOBJ": "Jembatan", "STSJRN": 2, "WADMPR": "Provinsi Sulawesi Selatan", "WADMKK": "Kabupaten Wajo", "REMARK": "S. BILA UGI", "SBDATA": "Dinas PUPR dan Pertanahan Kabupaten Wajo, 2022" }, "geometry": { "type": "Point", "coordinates": [ 119.987631140036498, -4.223453096577441 ] } },
{ "type": "Feature", "properties": { "FID": 189, "OBJECTID": 192, "NAMOBJ": "Jembatan", "STSJRN": 2, "WADMPR": "Provinsi Sulawesi Selatan", "WADMKK": "Kabupaten Wajo", "REMARK": "S. GANEFO", "SBDATA": "Dinas PUPR dan Pertanahan Kabupaten Wajo, 2022" }, "geometry": { "type": "Point", "coordinates": [ 119.983948047371612, -4.229168763325804 ] } },
{ "type": "Feature", "properties": { "FID": 190, "OBJECTID": 193, "NAMOBJ": "Jembatan", "STSJRN": 2, "WADMPR": "Provinsi Sulawesi Selatan", "WADMKK": "Kabupaten Wajo", "REMARK": "S. TOMPACE", "SBDATA": "Dinas PUPR dan Pertanahan Kabupaten Wajo, 2022" }, "geometry": { "type": "Point", "coordinates": [ 119.972826904154218, -4.238306575531722 ] } },
{ "type": "Feature", "properties": { "FID": 191, "OBJECTID": 194, "NAMOBJ": "Jembatan", "STSJRN": 2, "WADMPR": "Provinsi Sulawesi Selatan", "WADMKK": "Kabupaten Wajo", "REMARK": "S. TOSIANG", "SBDATA": "Dinas PUPR dan Pertanahan Kabupaten Wajo, 2022" }, "geometry": { "type": "Point", "coordinates": [ 119.966475815095507, -4.23913076505174 ] } },
{ "type": "Feature", "properties": { "FID": 192, "OBJECTID": 195, "NAMOBJ": "Jembatan", "STSJRN": 2, "WADMPR": "Provinsi Sulawesi Selatan", "WADMKK": "Kabupaten Wajo", "REMARK": "S. LIU", "SBDATA": "Dinas PUPR dan Pertanahan Kabupaten Wajo, 2022" }, "geometry": { "type": "Point", "coordinates": [ 119.958292162857163, -4.249020970698828 ] } },
{ "type": "Feature", "properties": { "FID": 193, "OBJECTID": 196, "NAMOBJ": "Jembatan", "STSJRN": 2, "WADMPR": "Provinsi Sulawesi Selatan", "WADMKK": "Kabupaten Wajo", "REMARK": "S. ABBANUANGE", "SBDATA": "Dinas PUPR dan Pertanahan Kabupaten Wajo, 2022" }, "geometry": { "type": "Point", "coordinates": [ 120.089023986155084, -4.149244173460604 ] } },
{ "type": "Feature", "properties": { "FID": 194, "OBJECTID": 197, "NAMOBJ": "Jembatan", "STSJRN": 2, "WADMPR": "Provinsi Sulawesi Selatan", "WADMKK": "Kabupaten Wajo", "REMARK": "S. ULO", "SBDATA": "Dinas PUPR dan Pertanahan Kabupaten Wajo, 2022" }, "geometry": { "type": "Point", "coordinates": [ 120.076178077592161, -4.161384348467672 ] } },
{ "type": "Feature", "properties": { "FID": 195, "OBJECTID": 198, "NAMOBJ": "Jembatan", "STSJRN": 2, "WADMPR": "Provinsi Sulawesi Selatan", "WADMKK": "Kabupaten Wajo", "REMARK": "S. CEMPA", "SBDATA": "Dinas PUPR dan Pertanahan Kabupaten Wajo, 2022" }, "geometry": { "type": "Point", "coordinates": [ 120.135754347234979, -4.193306290539088 ] } },
{ "type": "Feature", "properties": { "FID": 196, "OBJECTID": 199, "NAMOBJ": "Jembatan", "STSJRN": 2, "WADMPR": "Provinsi Sulawesi Selatan", "WADMKK": "Kabupaten Wajo", "REMARK": "S. WARASALA'E", "SBDATA": "Dinas PUPR dan Pertanahan Kabupaten Wajo, 2022" }, "geometry": { "type": "Point", "coordinates": [ 120.129636820150111, -4.205427865746286 ] } },
{ "type": "Feature", "properties": { "FID": 197, "OBJECTID": 200, "NAMOBJ": "Jembatan", "STSJRN": 2, "WADMPR": "Provinsi Sulawesi Selatan", "WADMKK": "Kabupaten Wajo", "REMARK": "S. LAKESSI", "SBDATA": "Dinas PUPR dan Pertanahan Kabupaten Wajo, 2022" }, "geometry": { "type": "Point", "coordinates": [ 120.110835081253512, -4.156662693756171 ] } },
{ "type": "Feature", "properties": { "FID": 198, "OBJECTID": 201, "NAMOBJ": "Jembatan", "STSJRN": 2, "WADMPR": "Provinsi Sulawesi Selatan", "WADMKK": "Kabupaten Wajo", "REMARK": "S. WATAMPANUA", "SBDATA": "Dinas PUPR dan Pertanahan Kabupaten Wajo, 2022" }, "geometry": { "type": "Point", "coordinates": [ 120.122369449501591, -4.216572739693884 ] } },
{ "type": "Feature", "properties": { "FID": 199, "OBJECTID": 202, "NAMOBJ": "Jembatan", "STSJRN": 2, "WADMPR": "Provinsi Sulawesi Selatan", "WADMKK": "Kabupaten Wajo", "REMARK": "S. WORONGE", "SBDATA": "Dinas PUPR dan Pertanahan Kabupaten Wajo, 2022" }, "geometry": { "type": "Point", "coordinates": [ 119.949982746479051, -4.206359597654532 ] } },
{ "type": "Feature", "properties": { "FID": 200, "OBJECTID": 203, "NAMOBJ": "Jembatan", "STSJRN": 2, "WADMPR": "Provinsi Sulawesi Selatan", "WADMKK": "Kabupaten Wajo", "REMARK": "S. SALOPOKKO", "SBDATA": "Dinas PUPR dan Pertanahan Kabupaten Wajo, 2022" }, "geometry": { "type": "Point", "coordinates": [ 119.981495646645982, -4.197794789339581 ] } },
{ "type": "Feature", "properties": { "FID": 201, "OBJECTID": 204, "NAMOBJ": "Jembatan", "STSJRN": 2, "WADMPR": "Provinsi Sulawesi Selatan", "WADMKK": "Kabupaten Wajo", "REMARK": "S. SAREPAO", "SBDATA": "Dinas PUPR dan Pertanahan Kabupaten Wajo, 2022" }, "geometry": { "type": "Point", "coordinates": [ 120.057034978887572, -4.219986049361663 ] } },
{ "type": "Feature", "properties": { "FID": 202, "OBJECTID": 205, "NAMOBJ": "Jembatan", "STSJRN": 2, "WADMPR": "Provinsi Sulawesi Selatan", "WADMKK": "Kabupaten Wajo", "REMARK": "S. CILELLANG", "SBDATA": "Dinas PUPR dan Pertanahan Kabupaten Wajo, 2022" }, "geometry": { "type": "Point", "coordinates": [ 120.057295490319987, -4.232295340622661 ] } },
{ "type": "Feature", "properties": { "FID": 203, "OBJECTID": 206, "NAMOBJ": "Jembatan", "STSJRN": 2, "WADMPR": "Provinsi Sulawesi Selatan", "WADMKK": "Kabupaten Wajo", "REMARK": "S. ALAKKANG 1", "SBDATA": "Dinas PUPR dan Pertanahan Kabupaten Wajo, 2022" }, "geometry": { "type": "Point", "coordinates": [ 120.062631483107637, -4.235502532868897 ] } },
{ "type": "Feature", "properties": { "FID": 204, "OBJECTID": 207, "NAMOBJ": "Jembatan", "STSJRN": 2, "WADMPR": "Provinsi Sulawesi Selatan", "WADMKK": "Kabupaten Wajo", "REMARK": "S. ALAKKANG 2", "SBDATA": "Dinas PUPR dan Pertanahan Kabupaten Wajo, 2022" }, "geometry": { "type": "Point", "coordinates": [ 120.060628240024073, -4.23383622794161 ] } },
{ "type": "Feature", "properties": { "FID": 205, "OBJECTID": 208, "NAMOBJ": "Jembatan", "STSJRN": 2, "WADMPR": "Provinsi Sulawesi Selatan", "WADMKK": "Kabupaten Wajo", "REMARK": "S. TOBATANG", "SBDATA": "Dinas PUPR dan Pertanahan Kabupaten Wajo, 2022" }, "geometry": { "type": "Point", "coordinates": [ 120.066494238829364, -4.24394150590561 ] } },
{ "type": "Feature", "properties": { "FID": 206, "OBJECTID": 209, "NAMOBJ": "Jembatan", "STSJRN": 2, "WADMPR": "Provinsi Sulawesi Selatan", "WADMKK": "Kabupaten Wajo", "REMARK": "S. SUMPANGALE", "SBDATA": "Dinas PUPR dan Pertanahan Kabupaten Wajo, 2022" }, "geometry": { "type": "Point", "coordinates": [ 120.071812265311337, -4.250723076639681 ] } },
{ "type": "Feature", "properties": { "FID": 207, "OBJECTID": 210, "NAMOBJ": "Jembatan", "STSJRN": 2, "WADMPR": "Provinsi Sulawesi Selatan", "WADMKK": "Kabupaten Wajo", "REMARK": "S.TADANGPALIE", "SBDATA": "Dinas PUPR dan Pertanahan Kabupaten Wajo, 2022" }, "geometry": { "type": "Point", "coordinates": [ 119.97833357684587, -4.252066841833066 ] } },
{ "type": "Feature", "properties": { "FID": 208, "OBJECTID": 211, "NAMOBJ": "Jembatan", "STSJRN": 2, "WADMPR": "Provinsi Sulawesi Selatan", "WADMKK": "Kabupaten Wajo", "REMARK": "S.KEBO", "SBDATA": "Dinas PUPR dan Pertanahan Kabupaten Wajo, 2022" }, "geometry": { "type": "Point", "coordinates": [ 119.973626404757084, -4.263246877325948 ] } },
{ "type": "Feature", "properties": { "FID": 209, "OBJECTID": 212, "NAMOBJ": "Jembatan", "STSJRN": 2, "WADMPR": "Provinsi Sulawesi Selatan", "WADMKK": "Kabupaten Wajo", "REMARK": "S.MALLUSESALO", "SBDATA": "Dinas PUPR dan Pertanahan Kabupaten Wajo, 2022" }, "geometry": { "type": "Point", "coordinates": [ 119.986642993223967, -4.202569950348357 ] } },
{ "type": "Feature", "properties": { "FID": 210, "OBJECTID": 213, "NAMOBJ": "Jembatan", "STSJRN": 2, "WADMPR": "Provinsi Sulawesi Selatan", "WADMKK": "Kabupaten Wajo", "REMARK": "S.ORAI SALO", "SBDATA": "Dinas PUPR dan Pertanahan Kabupaten Wajo, 2022" }, "geometry": { "type": "Point", "coordinates": [ 120.014302120822023, -4.18277031188266 ] } },
{ "type": "Feature", "properties": { "FID": 211, "OBJECTID": 214, "NAMOBJ": "Jembatan", "STSJRN": 2, "WADMPR": "Provinsi Sulawesi Selatan", "WADMKK": "Kabupaten Wajo", "REMARK": "S. ALLIMBANGENG", "SBDATA": "Dinas PUPR dan Pertanahan Kabupaten Wajo, 2022" }, "geometry": { "type": "Point", "coordinates": [ 120.003998444513172, -4.217020681450041 ] } },
{ "type": "Feature", "properties": { "FID": 212, "OBJECTID": 215, "NAMOBJ": "Jembatan", "STSJRN": 2, "WADMPR": "Provinsi Sulawesi Selatan", "WADMKK": "Kabupaten Wajo", "REMARK": "S.J.LAWATANAE", "SBDATA": "Dinas PUPR dan Pertanahan Kabupaten Wajo, 2022" }, "geometry": { "type": "Point", "coordinates": [ 120.057996176241588, -3.924953924501648 ] } },
{ "type": "Feature", "properties": { "FID": 213, "OBJECTID": 216, "NAMOBJ": "Jembatan", "STSJRN": 2, "WADMPR": "Provinsi Sulawesi Selatan", "WADMKK": "Kabupaten Wajo", "REMARK": "S.J.WT.KALOLA", "SBDATA": "Dinas PUPR dan Pertanahan Kabupaten Wajo, 2022" }, "geometry": { "type": "Point", "coordinates": [ 120.053854942781811, -3.899142726269896 ] } },
{ "type": "Feature", "properties": { "FID": 214, "OBJECTID": 217, "NAMOBJ": "Jembatan", "STSJRN": 2, "WADMPR": "Provinsi Sulawesi Selatan", "WADMKK": "Kabupaten Wajo", "REMARK": "S.J.ABBANUANGNGE", "SBDATA": "Dinas PUPR dan Pertanahan Kabupaten Wajo, 2022" }, "geometry": { "type": "Point", "coordinates": [ 120.081235592641775, -3.901696994847329 ] } },
{ "type": "Feature", "properties": { "FID": 215, "OBJECTID": 218, "NAMOBJ": "Jembatan", "STSJRN": 2, "WADMPR": "Provinsi Sulawesi Selatan", "WADMKK": "Kabupaten Wajo", "REMARK": "S.J.CALLACCU TINGARAPOSI 1", "SBDATA": "Dinas PUPR dan Pertanahan Kabupaten Wajo, 2022" }, "geometry": { "type": "Point", "coordinates": [ 120.098689858612204, -3.878340832942769 ] } },
{ "type": "Feature", "properties": { "FID": 216, "OBJECTID": 219, "NAMOBJ": "Jembatan", "STSJRN": 2, "WADMPR": "Provinsi Sulawesi Selatan", "WADMKK": "Kabupaten Wajo", "REMARK": "S.J.CALLACCU TINGARAPOSI 2", "SBDATA": "Dinas PUPR dan Pertanahan Kabupaten Wajo, 2022" }, "geometry": { "type": "Point", "coordinates": [ 120.103001771975983, -3.858882846644585 ] } },
{ "type": "Feature", "properties": { "FID": 217, "OBJECTID": 220, "NAMOBJ": "Jembatan", "STSJRN": 2, "WADMPR": "Provinsi Sulawesi Selatan", "WADMKK": "Kabupaten Wajo", "REMARK": "S.J.CALLACCU TINGARAPOSI 3", "SBDATA": "Dinas PUPR dan Pertanahan Kabupaten Wajo, 2022" }, "geometry": { "type": "Point", "coordinates": [ 120.096893228043953, -3.872058040536767 ] } },
{ "type": "Feature", "properties": { "FID": 218, "OBJECTID": 221, "NAMOBJ": "Jembatan", "STSJRN": 2, "WADMPR": "Provinsi Sulawesi Selatan", "WADMKK": "Kabupaten Wajo", "REMARK": "S.J.BULOE", "SBDATA": "Dinas PUPR dan Pertanahan Kabupaten Wajo, 2022" }, "geometry": { "type": "Point", "coordinates": [ 120.057097860957455, -3.979907603322221 ] } },
{ "type": "Feature", "properties": { "FID": 219, "OBJECTID": 222, "NAMOBJ": "Jembatan", "STSJRN": 2, "WADMPR": "Provinsi Sulawesi Selatan", "WADMKK": "Kabupaten Wajo", "REMARK": "S.J.AWOTARAE WT.KALOLA 1", "SBDATA": "Dinas PUPR dan Pertanahan Kabupaten Wajo, 2022" }, "geometry": { "type": "Point", "coordinates": [ 120.053890875393179, -3.900648401318108 ] } },
{ "type": "Feature", "properties": { "FID": 220, "OBJECTID": 223, "NAMOBJ": "Jembatan", "STSJRN": 2, "WADMPR": "Provinsi Sulawesi Selatan", "WADMKK": "Kabupaten Wajo", "REMARK": "S.J.LASIPONG", "SBDATA": "Dinas PUPR dan Pertanahan Kabupaten Wajo, 2022" }, "geometry": { "type": "Point", "coordinates": [ 120.079510827296247, -3.892904900923332 ] } },
{ "type": "Feature", "properties": { "FID": 221, "OBJECTID": 225, "NAMOBJ": "Jembatan", "STSJRN": 2, "WADMPR": "Provinsi Sulawesi Selatan", "WADMKK": "Kabupaten Wajo", "REMARK": "S.J.LAROPO", "SBDATA": "Dinas PUPR dan Pertanahan Kabupaten Wajo, 2022" }, "geometry": { "type": "Point", "coordinates": [ 120.130624966962642, -3.941569461610364 ] } },
{ "type": "Feature", "properties": { "FID": 222, "OBJECTID": 226, "NAMOBJ": "Jembatan", "STSJRN": 2, "WADMPR": "Provinsi Sulawesi Selatan", "WADMKK": "Kabupaten Wajo", "REMARK": "S.J.LARESANG", "SBDATA": "Dinas PUPR dan Pertanahan Kabupaten Wajo, 2022" }, "geometry": { "type": "Point", "coordinates": [ 120.181801988698936, -3.967406230642452 ] } },
{ "type": "Feature", "properties": { "FID": 223, "OBJECTID": 227, "NAMOBJ": "Jembatan", "STSJRN": 2, "WADMPR": "Provinsi Sulawesi Selatan", "WADMKK": "Kabupaten Wajo", "REMARK": "S.J.LABEMPA LARESANG 1", "SBDATA": "Dinas PUPR dan Pertanahan Kabupaten Wajo, 2022" }, "geometry": { "type": "Point", "coordinates": [ 120.196983517000575, -3.954591007095545 ] } },
{ "type": "Feature", "properties": { "FID": 224, "OBJECTID": 228, "NAMOBJ": "Jembatan", "STSJRN": 2, "WADMPR": "Provinsi Sulawesi Selatan", "WADMKK": "Kabupaten Wajo", "REMARK": "S.J.LAPUTENG", "SBDATA": "Dinas PUPR dan Pertanahan Kabupaten Wajo, 2022" }, "geometry": { "type": "Point", "coordinates": [ 120.199768294381329, -3.958095049467788 ] } },
{ "type": "Feature", "properties": { "FID": 225, "OBJECTID": 229, "NAMOBJ": "Jembatan", "STSJRN": 2, "WADMPR": "Provinsi Sulawesi Selatan", "WADMKK": "Kabupaten Wajo", "REMARK": "S.J.MERAH ABBATIRENG", "SBDATA": "Dinas PUPR dan Pertanahan Kabupaten Wajo, 2022" }, "geometry": { "type": "Point", "coordinates": [ 120.170249654145167, -3.95255668413785 ] } },
{ "type": "Feature", "properties": { "FID": 226, "OBJECTID": 230, "NAMOBJ": "Jembatan", "STSJRN": 2, "WADMPR": "Provinsi Sulawesi Selatan", "WADMKK": "Kabupaten Wajo", "REMARK": "S.J.KP.BARU GILIRENG", "SBDATA": "Dinas PUPR dan Pertanahan Kabupaten Wajo, 2022" }, "geometry": { "type": "Point", "coordinates": [ 120.174669365343036, -3.940135555619649 ] } },
{ "type": "Feature", "properties": { "FID": 227, "OBJECTID": 231, "NAMOBJ": "Jembatan", "STSJRN": 2, "WADMPR": "Provinsi Sulawesi Selatan", "WADMKK": "Kabupaten Wajo", "REMARK": "S.J.NANNA", "SBDATA": "Dinas PUPR dan Pertanahan Kabupaten Wajo, 2022" }, "geometry": { "type": "Point", "coordinates": [ 120.237084311283652, -3.846953294100027 ] } },
{ "type": "Feature", "properties": { "FID": 228, "OBJECTID": 232, "NAMOBJ": "Jembatan", "STSJRN": 2, "WADMPR": "Provinsi Sulawesi Selatan", "WADMKK": "Kabupaten Wajo", "REMARK": "S.J.BEKKAE", "SBDATA": "Dinas PUPR dan Pertanahan Kabupaten Wajo, 2022" }, "geometry": { "type": "Point", "coordinates": [ 120.191090568736726, -3.887464690801045 ] } },
{ "type": "Feature", "properties": { "FID": 229, "OBJECTID": 233, "NAMOBJ": "Jembatan", "STSJRN": 2, "WADMPR": "Provinsi Sulawesi Selatan", "WADMKK": "Kabupaten Wajo", "REMARK": "S.J.PITTAE", "SBDATA": "Dinas PUPR dan Pertanahan Kabupaten Wajo, 2022" }, "geometry": { "type": "Point", "coordinates": [ 120.187371543460472, -3.892152056806465 ] } },
{ "type": "Feature", "properties": { "FID": 230, "OBJECTID": 234, "NAMOBJ": "Jembatan", "STSJRN": 2, "WADMPR": "Provinsi Sulawesi Selatan", "WADMKK": "Kabupaten Wajo", "REMARK": "S.J.ARAJANG BEKKAE", "SBDATA": "Dinas PUPR dan Pertanahan Kabupaten Wajo, 2022" }, "geometry": { "type": "Point", "coordinates": [ 120.207071597641232, -3.87296326742662 ] } },
{ "type": "Feature", "properties": { "FID": 231, "OBJECTID": 235, "NAMOBJ": "Jembatan", "STSJRN": 2, "WADMPR": "Provinsi Sulawesi Selatan", "WADMKK": "Kabupaten Wajo", "REMARK": "S.J.GILIRENG PASELLORENG", "SBDATA": "Dinas PUPR dan Pertanahan Kabupaten Wajo, 2022" }, "geometry": { "type": "Point", "coordinates": [ 120.171884587962268, -3.922256333039222 ] } },
{ "type": "Feature", "properties": { "FID": 232, "OBJECTID": 236, "NAMOBJ": "Jembatan", "STSJRN": 2, "WADMPR": "Provinsi Sulawesi Selatan", "WADMKK": "Kabupaten Wajo", "REMARK": "S.J.ALAU SALO", "SBDATA": "Dinas PUPR dan Pertanahan Kabupaten Wajo, 2022" }, "geometry": { "type": "Point", "coordinates": [ 120.178801615649988, -3.936971991786809 ] } },
{ "type": "Feature", "properties": { "FID": 233, "OBJECTID": 237, "NAMOBJ": "Jembatan", "STSJRN": 2, "WADMPR": "Provinsi Sulawesi Selatan", "WADMKK": "Kabupaten Wajo", "REMARK": "S.J. LANRANGE", "SBDATA": "Dinas PUPR dan Pertanahan Kabupaten Wajo, 2022" }, "geometry": { "type": "Point", "coordinates": [ 120.229242018853299, -3.737840844147216 ] } },
{ "type": "Feature", "properties": { "FID": 234, "OBJECTID": 238, "NAMOBJ": "Jembatan", "STSJRN": 2, "WADMPR": "Provinsi Sulawesi Selatan", "WADMKK": "Kabupaten Wajo", "REMARK": "S.J.BULUBANGI", "SBDATA": "Dinas PUPR dan Pertanahan Kabupaten Wajo, 2022" }, "geometry": { "type": "Point", "coordinates": [ 119.935151561138241, -3.996539959690978 ] } },
{ "type": "Feature", "properties": { "FID": 235, "OBJECTID": 239, "NAMOBJ": "Jembatan", "STSJRN": 2, "WADMPR": "Provinsi Sulawesi Selatan", "WADMKK": "Kabupaten Wajo", "REMARK": "S.J.G.TANCUNG PURAI 1", "SBDATA": "Dinas PUPR dan Pertanahan Kabupaten Wajo, 2022" }, "geometry": { "type": "Point", "coordinates": [ 119.960115742883929, -4.036793164687541 ] } },
{ "type": "Feature", "properties": { "FID": 236, "OBJECTID": 240, "NAMOBJ": "Jembatan", "STSJRN": 2, "WADMPR": "Provinsi Sulawesi Selatan", "WADMKK": "Kabupaten Wajo", "REMARK": "S.J.G.TANCUNG PURAI 2", "SBDATA": "Dinas PUPR dan Pertanahan Kabupaten Wajo, 2022" }, "geometry": { "type": "Point", "coordinates": [ 119.959747433617451, -4.038934808856595 ] } },
{ "type": "Feature", "properties": { "FID": 237, "OBJECTID": 241, "NAMOBJ": "Jembatan", "STSJRN": 2, "WADMPR": "Provinsi Sulawesi Selatan", "WADMKK": "Kabupaten Wajo", "REMARK": "S.J.G.TANCUNG PURAI 3", "SBDATA": "Dinas PUPR dan Pertanahan Kabupaten Wajo, 2022" }, "geometry": { "type": "Point", "coordinates": [ 119.959738450464613, -4.041515527374781 ] } },
{ "type": "Feature", "properties": { "FID": 238, "OBJECTID": 242, "NAMOBJ": "Jembatan", "STSJRN": 2, "WADMPR": "Provinsi Sulawesi Selatan", "WADMKK": "Kabupaten Wajo", "REMARK": "S.J.KAE 1", "SBDATA": "Dinas PUPR dan Pertanahan Kabupaten Wajo, 2022" }, "geometry": { "type": "Point", "coordinates": [ 119.937496164029795, -3.95933176676558 ] } },
{ "type": "Feature", "properties": { "FID": 239, "OBJECTID": 243, "NAMOBJ": "Jembatan", "STSJRN": 2, "WADMPR": "Provinsi Sulawesi Selatan", "WADMKK": "Kabupaten Wajo", "REMARK": "S.J.KAE 2", "SBDATA": "Dinas PUPR dan Pertanahan Kabupaten Wajo, 2022" }, "geometry": { "type": "Point", "coordinates": [ 119.93472036980188, -3.959125647344239 ] } },
{ "type": "Feature", "properties": { "FID": 240, "OBJECTID": 244, "NAMOBJ": "Jembatan", "STSJRN": 2, "WADMPR": "Provinsi Sulawesi Selatan", "WADMKK": "Kabupaten Wajo", "REMARK": "S.J.KARAMAE 1", "SBDATA": "Dinas PUPR dan Pertanahan Kabupaten Wajo, 2022" }, "geometry": { "type": "Point", "coordinates": [ 119.939903648991233, -3.954205651147618 ] } },
{ "type": "Feature", "properties": { "FID": 241, "OBJECTID": 245, "NAMOBJ": "Jembatan", "STSJRN": 2, "WADMPR": "Provinsi Sulawesi Selatan", "WADMKK": "Kabupaten Wajo", "REMARK": "S.J.KARAMAE 2", "SBDATA": "Dinas PUPR dan Pertanahan Kabupaten Wajo, 2022" }, "geometry": { "type": "Point", "coordinates": [ 119.927003841511294, -3.951857664524423 ] } },
{ "type": "Feature", "properties": { "FID": 242, "OBJECTID": 246, "NAMOBJ": "Jembatan", "STSJRN": 2, "WADMPR": "Provinsi Sulawesi Selatan", "WADMKK": "Kabupaten Wajo", "REMARK": "S.J.KARAMAE 3", "SBDATA": "Dinas PUPR dan Pertanahan Kabupaten Wajo, 2022" }, "geometry": { "type": "Point", "coordinates": [ 119.93946347450202, -3.952655263779515 ] } },
{ "type": "Feature", "properties": { "FID": 243, "OBJECTID": 247, "NAMOBJ": "Jembatan", "STSJRN": 2, "WADMPR": "Provinsi Sulawesi Selatan", "WADMKK": "Kabupaten Wajo", "REMARK": "S.J.KH. YUNUS MARATANG", "SBDATA": "Dinas PUPR dan Pertanahan Kabupaten Wajo, 2022" }, "geometry": { "type": "Point", "coordinates": [ 119.928432162813024, -4.003018959881625 ] } },
{ "type": "Feature", "properties": { "FID": 244, "OBJECTID": 248, "NAMOBJ": "Jembatan", "STSJRN": 2, "WADMPR": "Provinsi Sulawesi Selatan", "WADMKK": "Kabupaten Wajo", "REMARK": "S.J. LABISSU", "SBDATA": "Dinas PUPR dan Pertanahan Kabupaten Wajo, 2022" }, "geometry": { "type": "Point", "coordinates": [ 119.955633149616176, -4.032509859404047 ] } },
{ "type": "Feature", "properties": { "FID": 245, "OBJECTID": 249, "NAMOBJ": "Jembatan", "STSJRN": 2, "WADMPR": "Provinsi Sulawesi Selatan", "WADMKK": "Kabupaten Wajo", "REMARK": "S.J. LAKARAMPULU", "SBDATA": "Dinas PUPR dan Pertanahan Kabupaten Wajo, 2022" }, "geometry": { "type": "Point", "coordinates": [ 119.935043763304151, -4.010187918318735 ] } },
{ "type": "Feature", "properties": { "FID": 246, "OBJECTID": 250, "NAMOBJ": "Jembatan", "STSJRN": 2, "WADMPR": "Provinsi Sulawesi Selatan", "WADMKK": "Kabupaten Wajo", "REMARK": "S.J. LEPPANGENG", "SBDATA": "Dinas PUPR dan Pertanahan Kabupaten Wajo, 2022" }, "geometry": { "type": "Point", "coordinates": [ 119.937837523837757, -3.974898115446021 ] } },
{ "type": "Feature", "properties": { "FID": 247, "OBJECTID": 251, "NAMOBJ": "Jembatan", "STSJRN": 2, "WADMPR": "Provinsi Sulawesi Selatan", "WADMKK": "Kabupaten Wajo", "REMARK": "S.J. LOKABATU", "SBDATA": "Dinas PUPR dan Pertanahan Kabupaten Wajo, 2022" }, "geometry": { "type": "Point", "coordinates": [ 119.938026170047436, -3.956938985975658 ] } },
{ "type": "Feature", "properties": { "FID": 248, "OBJECTID": 252, "NAMOBJ": "Jembatan", "STSJRN": 2, "WADMPR": "Provinsi Sulawesi Selatan", "WADMKK": "Kabupaten Wajo", "REMARK": "S.J. MENGE BENDORO", "SBDATA": "Dinas PUPR dan Pertanahan Kabupaten Wajo, 2022" }, "geometry": { "type": "Point", "coordinates": [ 119.92487483428792, -3.989451534321697 ] } },
{ "type": "Feature", "properties": { "FID": 249, "OBJECTID": 253, "NAMOBJ": "Jembatan", "STSJRN": 2, "WADMPR": "Provinsi Sulawesi Selatan", "WADMKK": "Kabupaten Wajo", "REMARK": "S.J. MENGE BENDORO 2", "SBDATA": "Dinas PUPR dan Pertanahan Kabupaten Wajo, 2022" }, "geometry": { "type": "Point", "coordinates": [ 119.924551440785649, -3.987435220099702 ] } },
{ "type": "Feature", "properties": { "FID": 250, "OBJECTID": 254, "NAMOBJ": "Jembatan", "STSJRN": 2, "WADMPR": "Provinsi Sulawesi Selatan", "WADMKK": "Kabupaten Wajo", "REMARK": "S.J. MENGE BENDORO 3", "SBDATA": "Dinas PUPR dan Pertanahan Kabupaten Wajo, 2022" }, "geometry": { "type": "Point", "coordinates": [ 119.923239900470804, -3.985849049435668 ] } },
{ "type": "Feature", "properties": { "FID": 251, "OBJECTID": 255, "NAMOBJ": "Jembatan", "STSJRN": 2, "WADMPR": "Provinsi Sulawesi Selatan", "WADMKK": "Kabupaten Wajo", "REMARK": "S.J. MUHAMMADIYAH", "SBDATA": "Dinas PUPR dan Pertanahan Kabupaten Wajo, 2022" }, "geometry": { "type": "Point", "coordinates": [ 119.932223053312001, -3.999362766901329 ] } },
{ "type": "Feature", "properties": { "FID": 252, "OBJECTID": 256, "NAMOBJ": "Jembatan", "STSJRN": 2, "WADMPR": "Provinsi Sulawesi Selatan", "WADMKK": "Kabupaten Wajo", "REMARK": "S.J. SIDUNTUNG", "SBDATA": "Dinas PUPR dan Pertanahan Kabupaten Wajo, 2022" }, "geometry": { "type": "Point", "coordinates": [ 119.936885309636608, -3.972146916847192 ] } },
{ "type": "Feature", "properties": { "FID": 253, "OBJECTID": 257, "NAMOBJ": "Jembatan", "STSJRN": 2, "WADMPR": "Provinsi Sulawesi Selatan", "WADMKK": "Kabupaten Wajo", "REMARK": "S.J. SIO MACERO", "SBDATA": "Dinas PUPR dan Pertanahan Kabupaten Wajo, 2022" }, "geometry": { "type": "Point", "coordinates": [ 119.942284184494142, -3.987542756983093 ] } },
{ "type": "Feature", "properties": { "FID": 254, "OBJECTID": 258, "NAMOBJ": "Jembatan", "STSJRN": 2, "WADMPR": "Provinsi Sulawesi Selatan", "WADMKK": "Kabupaten Wajo", "REMARK": "S.J. SIO MALAKKE", "SBDATA": "Dinas PUPR dan Pertanahan Kabupaten Wajo, 2022" }, "geometry": { "type": "Point", "coordinates": [ 119.941511633349819, -3.979244452830152 ] } },
{ "type": "Feature", "properties": { "FID": 255, "OBJECTID": 259, "NAMOBJ": "Jembatan", "STSJRN": 2, "WADMPR": "Provinsi Sulawesi Selatan", "WADMKK": "Kabupaten Wajo", "REMARK": "S. LAMPULUNG", "SBDATA": "Dinas PUPR dan Pertanahan Kabupaten Wajo, 2022" }, "geometry": { "type": "Point", "coordinates": [ 120.074489244858029, -4.161160361691904 ] } },
{ "type": "Feature", "properties": { "FID": 256, "OBJECTID": 260, "NAMOBJ": "Pangkalan Pendaratan Ikan", "STSJRN": 1, "WADMPR": "Provinsi Sulawesi Selatan", "WADMKK": "Kabupaten Wajo", "REMARK": "Pangkalan Pendaratan Ikan Botto", "SBDATA": "Kepmen KKP Nomor 109 RIPPN, 2021" }, "geometry": { "type": "Point", "coordinates": [ 120.364375587043384, -4.194103650493324 ] } }
]
}
