{
"type": "FeatureCollection",
"name": "Sistem_Infrastruktur_Prasarana_Lainnya",
"crs": { "type": "name", "properties": { "name": "urn:ogc:def:crs:OGC:1.3:CRS84" } },
"features": [
{ "type": "Feature", "properties": { "FID": 0, "OBJECTID": 1, "NAMOBJ": "Tempat Evakuasi Bencana", "STSJRN": 1, "WADMPR": "Provinsi Sulawesi Selatan", "WADMKK": "Kabupaten Wajo", "REMARK": "Lapangan Desa Inalipue", "SBDATA": "Analisis Tim Penyusun, 2022" }, "geometry": { "type": "Point", "coordinates": [ 120.040604792341043, -4.021720848200992 ] } },
{ "type": "Feature", "properties": { "FID": 1, "OBJECTID": 2, "NAMOBJ": "Tempat Evakuasi Bencana", "STSJRN": 1, "WADMPR": "Provinsi Sulawesi Selatan", "WADMKK": "Kabupaten Wajo", "REMARK": "Lapangan Desa Mattirowalie", "SBDATA": "Analisis Tim Penyusun, 2022" }, "geometry": { "type": "Point", "coordinates": [ 120.064059804409411, -3.948048893462419 ] } },
{ "type": "Feature", "properties": { "FID": 2, "OBJECTID": 3, "NAMOBJ": "Tempat Evakuasi Bencana", "STSJRN": 1, "WADMPR": "Provinsi Sulawesi Selatan", "WADMKK": "Kabupaten Wajo", "REMARK": "Lapangan Desa Ongkoe", "SBDATA": "Analisis Tim Penyusun, 2022" }, "geometry": { "type": "Point", "coordinates": [ 119.94094569472081, -3.955101827494528 ] } },
{ "type": "Feature", "properties": { "FID": 3, "OBJECTID": 4, "NAMOBJ": "Tempat Evakuasi Bencana", "STSJRN": 1, "WADMPR": "Provinsi Sulawesi Selatan", "WADMKK": "Kabupaten Wajo", "REMARK": "Lapangan Desa Lamata", "SBDATA": "Analisis Tim Penyusun, 2022" }, "geometry": { "type": "Point", "coordinates": [ 120.131316669731433, -3.949455900337964 ] } },
{ "type": "Feature", "properties": { "FID": 4, "OBJECTID": 5, "NAMOBJ": "Tempat Evakuasi Bencana", "STSJRN": 1, "WADMPR": "Provinsi Sulawesi Selatan", "WADMKK": "Kabupaten Wajo", "REMARK": "Lapangan Desa Paria", "SBDATA": "Analisis Tim Penyusun, 2022" }, "geometry": { "type": "Point", "coordinates": [ 120.154124894795217, -4.019955522959288 ] } },
{ "type": "Feature", "properties": { "FID": 5, "OBJECTID": 6, "NAMOBJ": "Tempat Evakuasi Bencana", "STSJRN": 1, "WADMPR": "Provinsi Sulawesi Selatan", "WADMKK": "Kabupaten Wajo", "REMARK": "Lapangan Desa Salobulo", "SBDATA": "Analisis Tim Penyusun, 2022" }, "geometry": { "type": "Point", "coordinates": [ 120.262479684365701, -3.953336359165351 ] } },
{ "type": "Feature", "properties": { "FID": 6, "OBJECTID": 7, "NAMOBJ": "Tempat Evakuasi Bencana", "STSJRN": 1, "WADMPR": "Provinsi Sulawesi Selatan", "WADMKK": "Kabupaten Wajo", "REMARK": "Lapangan Desa Ballaere", "SBDATA": "Analisis Tim Penyusun, 2022" }, "geometry": { "type": "Point", "coordinates": [ 120.323502241615955, -3.822860646199048 ] } },
{ "type": "Feature", "properties": { "FID": 7, "OBJECTID": 8, "NAMOBJ": "Tempat Evakuasi Bencana", "STSJRN": 1, "WADMPR": "Provinsi Sulawesi Selatan", "WADMKK": "Kabupaten Wajo", "REMARK": "Lapangan Kelurahan Tempe", "SBDATA": "Analisis Tim Penyusun, 2022" }, "geometry": { "type": "Point", "coordinates": [ 120.03033704864356, -4.111962368641865 ] } },
{ "type": "Feature", "properties": { "FID": 8, "OBJECTID": 9, "NAMOBJ": "Tempat Evakuasi Bencana", "STSJRN": 1, "WADMPR": "Provinsi Sulawesi Selatan", "WADMKK": "Kabupaten Wajo", "REMARK": "Lapangan Kelurahan Siengkang", "SBDATA": "Analisis Tim Penyusun, 2022" }, "geometry": { "type": "Point", "coordinates": [ 120.031909100390749, -4.140212837322398 ] } },
{ "type": "Feature", "properties": { "FID": 9, "OBJECTID": 10, "NAMOBJ": "Tempat Evakuasi Bencana", "STSJRN": 1, "WADMPR": "Provinsi Sulawesi Selatan", "WADMKK": "Kabupaten Wajo", "REMARK": "Lapangan Desa Tolotenreng", "SBDATA": "Analisis Tim Penyusun, 2022" }, "geometry": { "type": "Point", "coordinates": [ 120.010340550419045, -4.219314139195411 ] } },
{ "type": "Feature", "properties": { "FID": 10, "OBJECTID": 11, "NAMOBJ": "Tempat Evakuasi Bencana", "STSJRN": 1, "WADMPR": "Provinsi Sulawesi Selatan", "WADMKK": "Kabupaten Wajo", "REMARK": "Lapangan Kelurahan Siwa", "SBDATA": "Analisis Tim Penyusun, 2022" }, "geometry": { "type": "Point", "coordinates": [ 120.415867019129138, -3.703489958027503 ] } },
{ "type": "Feature", "properties": { "FID": 11, "OBJECTID": 12, "NAMOBJ": "Tempat Evakuasi Bencana", "STSJRN": 1, "WADMPR": "Provinsi Sulawesi Selatan", "WADMKK": "Kabupaten Wajo", "REMARK": "Lapangan Kelurahan Benteng", "SBDATA": "Analisis Tim Penyusun, 2022" }, "geometry": { "type": "Point", "coordinates": [ 120.295843114017927, -4.094633484987328 ] } },
{ "type": "Feature", "properties": { "FID": 12, "OBJECTID": 13, "NAMOBJ": "Tempat Evakuasi Bencana", "STSJRN": 1, "WADMPR": "Provinsi Sulawesi Selatan", "WADMKK": "Kabupaten Wajo", "REMARK": "Lapangan Desa Manyili", "SBDATA": "Analisis Tim Penyusun, 2022" }, "geometry": { "type": "Point", "coordinates": [ 120.284775869717564, -4.179571861738478 ] } },
{ "type": "Feature", "properties": { "FID": 13, "OBJECTID": 14, "NAMOBJ": "Tempat Evakuasi Bencana", "STSJRN": 1, "WADMPR": "Provinsi Sulawesi Selatan", "WADMKK": "Kabupaten Wajo", "REMARK": "Lapangan Desa Sanreseng Ade", "SBDATA": "Analisis Tim Penyusun, 2022" }, "geometry": { "type": "Point", "coordinates": [ 120.267213805913045, -4.230826119625308 ] } },
{ "type": "Feature", "properties": { "FID": 14, "OBJECTID": 15, "NAMOBJ": "Tempat Evakuasi Bencana", "STSJRN": 1, "WADMPR": "Provinsi Sulawesi Selatan", "WADMKK": "Kabupaten Wajo", "REMARK": "Lapangan Kelurahan Cina", "SBDATA": "Analisis Tim Penyusun, 2022" }, "geometry": { "type": "Point", "coordinates": [ 120.099884617940077, -4.195026436840284 ] } },
{ "type": "Feature", "properties": { "FID": 15, "OBJECTID": 16, "NAMOBJ": "Unit Produksi", "STSJRN": 2, "WADMPR": "Provinsi Sulawesi Selatan", "WADMKK": "Kabupaten Wajo", "REMARK": "SPAM IKK Bola", "SBDATA": "PDAM Kabupaten Wajo, 2022" }, "geometry": { "type": "Point", "coordinates": [ 120.228783878058408, -4.238181155310344 ] } },
{ "type": "Feature", "properties": { "FID": 16, "OBJECTID": 17, "NAMOBJ": "Unit Produksi", "STSJRN": 1, "WADMPR": "Provinsi Sulawesi Selatan", "WADMKK": "Kabupaten Wajo", "REMARK": "SPAM IKK Maniangpajo", "SBDATA": "PDAM Kabupaten Wajo, 2022" }, "geometry": { "type": "Point", "coordinates": [ 120.08352629661627, -3.909816828609367 ] } },
{ "type": "Feature", "properties": { "FID": 17, "OBJECTID": 18, "NAMOBJ": "Unit Produksi", "STSJRN": 2, "WADMPR": "Provinsi Sulawesi Selatan", "WADMKK": "Kabupaten Wajo", "REMARK": "SPAM IKK Tanasitolo", "SBDATA": "PDAM Kabupaten Wajo, 2022" }, "geometry": { "type": "Point", "coordinates": [ 120.021749154527356, -4.102796206598257 ] } },
{ "type": "Feature", "properties": { "FID": 18, "OBJECTID": 19, "NAMOBJ": "Unit Produksi", "STSJRN": 2, "WADMPR": "Provinsi Sulawesi Selatan", "WADMKK": "Kabupaten Wajo", "REMARK": "SPAM IKK Pitumpanua", "SBDATA": "PDAM Kabupaten Wajo, 2022" }, "geometry": { "type": "Point", "coordinates": [ 120.395169834983008, -3.710930373087247 ] } },
{ "type": "Feature", "properties": { "FID": 19, "OBJECTID": 20, "NAMOBJ": "Tempat Pemrosesan Akhir (TPA)", "STSJRN": 2, "WADMPR": "Provinsi Sulawesi Selatan", "WADMKK": "Kabupaten Wajo", "REMARK": "Tidak Ada", "SBDATA": "Dinas PUPR dan Pertanahan Kabupaten Wajo, 2022" }, "geometry": { "type": "Point", "coordinates": [ 120.041817517974593, -4.117454847308161 ] } },
{ "type": "Feature", "properties": { "FID": 20, "OBJECTID": 21, "NAMOBJ": "Tempat Pemrosesan Akhir (TPA)", "STSJRN": 2, "WADMPR": "Provinsi Sulawesi Selatan", "WADMKK": "Kabupaten Wajo", "REMARK": "Tidak Ada", "SBDATA": "Dinas PUPR dan Pertanahan Kabupaten Wajo, 2022" }, "geometry": { "type": "Point", "coordinates": [ 120.088709575805623, -3.946588113100434 ] } },
{ "type": "Feature", "properties": { "FID": 21, "OBJECTID": 22, "NAMOBJ": "Tempat Pengelolaan Sampah Reuse, Reduce, Recycle (TPS3R)", "STSJRN": 1, "WADMPR": "Provinsi Sulawesi Selatan", "WADMKK": "Kabupaten Wajo", "REMARK": "Tidak Ada", "SBDATA": "Analisis Tim Penyusun, 2022" }, "geometry": { "type": "Point", "coordinates": [ 119.931216940193821, -4.007562294583232 ] } },
{ "type": "Feature", "properties": { "FID": 22, "OBJECTID": 23, "NAMOBJ": "Tempat Penampungan Sementara (TPS)", "STSJRN": 1, "WADMPR": "Provinsi Sulawesi Selatan", "WADMKK": "Kabupaten Wajo", "REMARK": "Tidak Ada", "SBDATA": "Analisis Tim Penyusun, 2022" }, "geometry": { "type": "Point", "coordinates": [ 119.957402830725897, -3.962737210644075 ] } },
{ "type": "Feature", "properties": { "FID": 23, "OBJECTID": 24, "NAMOBJ": "Tempat Pengolahan Sampah Terpadu (TPST)", "STSJRN": 1, "WADMPR": "Provinsi Sulawesi Selatan", "WADMKK": "Kabupaten Wajo", "REMARK": "Tidak Ada", "SBDATA": "Dinas PUPR dan Pertanahan Kabupaten Wajo, 2022" }, "geometry": { "type": "Point", "coordinates": [ 119.957582493782724, -3.962934367491987 ] } },
{ "type": "Feature", "properties": { "FID": 24, "OBJECTID": 25, "NAMOBJ": "Tempat Pengelolaan Sampah Reuse, Reduce, Recycle (TPS3R)", "STSJRN": 1, "WADMPR": "Provinsi Sulawesi Selatan", "WADMKK": "Kabupaten Wajo", "REMARK": "Tidak Ada", "SBDATA": "Analisis Tim Penyusun, 2022" }, "geometry": { "type": "Point", "coordinates": [ 120.146390400198953, -4.027052644869478 ] } },
{ "type": "Feature", "properties": { "FID": 25, "OBJECTID": 26, "NAMOBJ": "Tempat Pengolahan Sampah Terpadu (TPST)", "STSJRN": 1, "WADMPR": "Provinsi Sulawesi Selatan", "WADMKK": "Kabupaten Wajo", "REMARK": "Tidak Ada", "SBDATA": "Dinas PUPR dan Pertanahan Kabupaten Wajo, 2022" }, "geometry": { "type": "Point", "coordinates": [ 120.120366206417998, -4.115546372065921 ] } },
{ "type": "Feature", "properties": { "FID": 26, "OBJECTID": 27, "NAMOBJ": "Tempat Penampungan Sementara (TPS)", "STSJRN": 1, "WADMPR": "Provinsi Sulawesi Selatan", "WADMKK": "Kabupaten Wajo", "REMARK": "Tidak Ada", "SBDATA": "Analisis Tim Penyusun, 2022" }, "geometry": { "type": "Point", "coordinates": [ 120.120608751544708, -4.115116292506483 ] } },
{ "type": "Feature", "properties": { "FID": 27, "OBJECTID": 28, "NAMOBJ": "Tempat Pengelolaan Sampah Reuse, Reduce, Recycle (TPS3R)", "STSJRN": 1, "WADMPR": "Provinsi Sulawesi Selatan", "WADMKK": "Kabupaten Wajo", "REMARK": "Tidak Ada", "SBDATA": "Analisis Tim Penyusun, 2022" }, "geometry": { "type": "Point", "coordinates": [ 120.295870063476443, -4.095287581007883 ] } },
{ "type": "Feature", "properties": { "FID": 28, "OBJECTID": 29, "NAMOBJ": "Tempat Penampungan Sementara (TPS)", "STSJRN": 1, "WADMPR": "Provinsi Sulawesi Selatan", "WADMKK": "Kabupaten Wajo", "REMARK": "Tidak Ada", "SBDATA": "Analisis Tim Penyusun, 2022" }, "geometry": { "type": "Point", "coordinates": [ 120.238764160864946, -4.062492521000777 ] } },
{ "type": "Feature", "properties": { "FID": 29, "OBJECTID": 30, "NAMOBJ": "Tempat Pengolahan Sampah Terpadu (TPST)", "STSJRN": 1, "WADMPR": "Provinsi Sulawesi Selatan", "WADMKK": "Kabupaten Wajo", "REMARK": "Tidak Ada", "SBDATA": "Dinas PUPR dan Pertanahan Kabupaten Wajo, 2022" }, "geometry": { "type": "Point", "coordinates": [ 120.238880941851903, -4.06226850643134 ] } },
{ "type": "Feature", "properties": { "FID": 30, "OBJECTID": 31, "NAMOBJ": "Tempat Pengolahan Sampah Terpadu (TPST)", "STSJRN": 1, "WADMPR": "Provinsi Sulawesi Selatan", "WADMKK": "Kabupaten Wajo", "REMARK": "Tidak Ada", "SBDATA": "Dinas PUPR dan Pertanahan Kabupaten Wajo, 2022" }, "geometry": { "type": "Point", "coordinates": [ 120.088727542111315, -3.94817435914053 ] } },
{ "type": "Feature", "properties": { "FID": 31, "OBJECTID": 32, "NAMOBJ": "Tempat Penampungan Sementara (TPS)", "STSJRN": 1, "WADMPR": "Provinsi Sulawesi Selatan", "WADMKK": "Kabupaten Wajo", "REMARK": "Tidak Ada", "SBDATA": "Analisis Tim Penyusun, 2022" }, "geometry": { "type": "Point", "coordinates": [ 120.060080267700741, -3.978231803075643 ] } },
{ "type": "Feature", "properties": { "FID": 32, "OBJECTID": 33, "NAMOBJ": "Tempat Pengelolaan Sampah Reuse, Reduce, Recycle (TPS3R)", "STSJRN": 1, "WADMPR": "Provinsi Sulawesi Selatan", "WADMKK": "Kabupaten Wajo", "REMARK": "Tidak Ada", "SBDATA": "Analisis Tim Penyusun, 2022" }, "geometry": { "type": "Point", "coordinates": [ 120.05999941932518, -3.978384148693483 ] } },
{ "type": "Feature", "properties": { "FID": 33, "OBJECTID": 34, "NAMOBJ": "Tempat Pengolahan Sampah Terpadu (TPST)", "STSJRN": 1, "WADMPR": "Provinsi Sulawesi Selatan", "WADMKK": "Kabupaten Wajo", "REMARK": "Tidak Ada", "SBDATA": "Dinas PUPR dan Pertanahan Kabupaten Wajo, 2022" }, "geometry": { "type": "Point", "coordinates": [ 120.23058050862663, -4.236057967047199 ] } },
{ "type": "Feature", "properties": { "FID": 34, "OBJECTID": 35, "NAMOBJ": "Tempat Pengelolaan Sampah Reuse, Reduce, Recycle (TPS3R)", "STSJRN": 1, "WADMPR": "Provinsi Sulawesi Selatan", "WADMKK": "Kabupaten Wajo", "REMARK": "Tidak Ada", "SBDATA": "Analisis Tim Penyusun, 2022" }, "geometry": { "type": "Point", "coordinates": [ 120.230131350984578, -4.236676111067049 ] } },
{ "type": "Feature", "properties": { "FID": 35, "OBJECTID": 36, "NAMOBJ": "Tempat Penampungan Sementara (TPS)", "STSJRN": 1, "WADMPR": "Provinsi Sulawesi Selatan", "WADMKK": "Kabupaten Wajo", "REMARK": "Tidak Ada", "SBDATA": "Analisis Tim Penyusun, 2022" }, "geometry": { "type": "Point", "coordinates": [ 120.336500863777175, -4.217226734571165 ] } },
{ "type": "Feature", "properties": { "FID": 36, "OBJECTID": 37, "NAMOBJ": "Tempat Pengolahan Sampah Terpadu (TPST)", "STSJRN": 1, "WADMPR": "Provinsi Sulawesi Selatan", "WADMKK": "Kabupaten Wajo", "REMARK": "Tidak Ada", "SBDATA": "Dinas PUPR dan Pertanahan Kabupaten Wajo, 2022" }, "geometry": { "type": "Point", "coordinates": [ 120.327203300586518, -3.808340196366073 ] } },
{ "type": "Feature", "properties": { "FID": 37, "OBJECTID": 38, "NAMOBJ": "Tempat Pengelolaan Sampah Reuse, Reduce, Recycle (TPS3R)", "STSJRN": 1, "WADMPR": "Provinsi Sulawesi Selatan", "WADMKK": "Kabupaten Wajo", "REMARK": "Tidak Ada", "SBDATA": "Analisis Tim Penyusun, 2022" }, "geometry": { "type": "Point", "coordinates": [ 120.327257199503563, -3.807999590277817 ] } },
{ "type": "Feature", "properties": { "FID": 38, "OBJECTID": 39, "NAMOBJ": "Tempat Penampungan Sementara (TPS)", "STSJRN": 1, "WADMPR": "Provinsi Sulawesi Selatan", "WADMKK": "Kabupaten Wajo", "REMARK": "Tidak Ada", "SBDATA": "Analisis Tim Penyusun, 2022" }, "geometry": { "type": "Point", "coordinates": [ 120.279107500274762, -3.899133763910344 ] } },
{ "type": "Feature", "properties": { "FID": 39, "OBJECTID": 40, "NAMOBJ": "Tempat Pengelolaan Sampah Reuse, Reduce, Recycle (TPS3R)", "STSJRN": 1, "WADMPR": "Provinsi Sulawesi Selatan", "WADMKK": "Kabupaten Wajo", "REMARK": "Tidak Ada", "SBDATA": "Analisis Tim Penyusun, 2022" }, "geometry": { "type": "Point", "coordinates": [ 120.040802421703546, -4.117840125792576 ] } },
{ "type": "Feature", "properties": { "FID": 40, "OBJECTID": 41, "NAMOBJ": "Tempat Penampungan Sementara (TPS)", "STSJRN": 1, "WADMPR": "Provinsi Sulawesi Selatan", "WADMKK": "Kabupaten Wajo", "REMARK": "Tidak Ada", "SBDATA": "Analisis Tim Penyusun, 2022" }, "geometry": { "type": "Point", "coordinates": [ 120.051142030623751, -4.130330215525403 ] } },
{ "type": "Feature", "properties": { "FID": 41, "OBJECTID": 42, "NAMOBJ": "Tempat Pengelolaan Sampah Reuse, Reduce, Recycle (TPS3R)", "STSJRN": 1, "WADMPR": "Provinsi Sulawesi Selatan", "WADMKK": "Kabupaten Wajo", "REMARK": "Tidak Ada", "SBDATA": "Analisis Tim Penyusun, 2022" }, "geometry": { "type": "Point", "coordinates": [ 120.035816771876682, -4.01774214022519 ] } },
{ "type": "Feature", "properties": { "FID": 42, "OBJECTID": 43, "NAMOBJ": "Tempat Penampungan Sementara (TPS)", "STSJRN": 1, "WADMPR": "Provinsi Sulawesi Selatan", "WADMKK": "Kabupaten Wajo", "REMARK": "Tidak Ada", "SBDATA": "Analisis Tim Penyusun, 2022" }, "geometry": { "type": "Point", "coordinates": [ 120.035448462610177, -4.017715256997166 ] } },
{ "type": "Feature", "properties": { "FID": 43, "OBJECTID": 44, "NAMOBJ": "Tempat Pengelolaan Sampah Reuse, Reduce, Recycle (TPS3R)", "STSJRN": 1, "WADMPR": "Provinsi Sulawesi Selatan", "WADMKK": "Kabupaten Wajo", "REMARK": "Tidak Ada", "SBDATA": "Analisis Tim Penyusun, 2022" }, "geometry": { "type": "Point", "coordinates": [ 120.273196585705264, -4.152147081012177 ] } },
{ "type": "Feature", "properties": { "FID": 44, "OBJECTID": 45, "NAMOBJ": "Tempat Penampungan Sementara (TPS)", "STSJRN": 1, "WADMPR": "Provinsi Sulawesi Selatan", "WADMKK": "Kabupaten Wajo", "REMARK": "Tidak Ada", "SBDATA": "Analisis Tim Penyusun, 2022" }, "geometry": { "type": "Point", "coordinates": [ 120.287551663945479, -4.190779818795057 ] } },
{ "type": "Feature", "properties": { "FID": 45, "OBJECTID": 46, "NAMOBJ": "Tempat Pengelolaan Sampah Reuse, Reduce, Recycle (TPS3R)", "STSJRN": 1, "WADMPR": "Provinsi Sulawesi Selatan", "WADMKK": "Kabupaten Wajo", "REMARK": "Tidak Ada", "SBDATA": "Analisis Tim Penyusun, 2022" }, "geometry": { "type": "Point", "coordinates": [ 120.330482151373559, -4.038540531693417 ] } },
{ "type": "Feature", "properties": { "FID": 46, "OBJECTID": 47, "NAMOBJ": "Tempat Penampungan Sementara (TPS)", "STSJRN": 1, "WADMPR": "Provinsi Sulawesi Selatan", "WADMKK": "Kabupaten Wajo", "REMARK": "Tidak Ada", "SBDATA": "Analisis Tim Penyusun, 2022" }, "geometry": { "type": "Point", "coordinates": [ 120.26366546054075, -3.95762903957208 ] } },
{ "type": "Feature", "properties": { "FID": 47, "OBJECTID": 48, "NAMOBJ": "Tempat Pengelolaan Sampah Reuse, Reduce, Recycle (TPS3R)", "STSJRN": 1, "WADMPR": "Provinsi Sulawesi Selatan", "WADMKK": "Kabupaten Wajo", "REMARK": "Tidak Ada", "SBDATA": "Analisis Tim Penyusun, 2022" }, "geometry": { "type": "Point", "coordinates": [ 120.014311103974862, -4.219269345163657 ] } },
{ "type": "Feature", "properties": { "FID": 48, "OBJECTID": 49, "NAMOBJ": "Tempat Penampungan Sementara (TPS)", "STSJRN": 1, "WADMPR": "Provinsi Sulawesi Selatan", "WADMKK": "Kabupaten Wajo", "REMARK": "Tidak Ada", "SBDATA": "Analisis Tim Penyusun, 2022" }, "geometry": { "type": "Point", "coordinates": [ 119.978162896941896, -4.205087424963426 ] } },
{ "type": "Feature", "properties": { "FID": 49, "OBJECTID": 50, "NAMOBJ": "Tempat Pengelolaan Sampah Reuse, Reduce, Recycle (TPS3R)", "STSJRN": 1, "WADMPR": "Provinsi Sulawesi Selatan", "WADMKK": "Kabupaten Wajo", "REMARK": "Tidak Ada", "SBDATA": "Analisis Tim Penyusun, 2022" }, "geometry": { "type": "Point", "coordinates": [ 120.405069269414014, -3.684467311620181 ] } },
{ "type": "Feature", "properties": { "FID": 50, "OBJECTID": 51, "NAMOBJ": "Tempat Penampungan Sementara (TPS)", "STSJRN": 1, "WADMPR": "Provinsi Sulawesi Selatan", "WADMKK": "Kabupaten Wajo", "REMARK": "Tidak Ada", "SBDATA": "Analisis Tim Penyusun, 2022" }, "geometry": { "type": "Point", "coordinates": [ 120.36695375190881, -3.750605549380323 ] } },
{ "type": "Feature", "properties": { "FID": 51, "OBJECTID": 52, "NAMOBJ": "Tempat Penampungan Sementara (TPS)", "STSJRN": 1, "WADMPR": "Provinsi Sulawesi Selatan", "WADMKK": "Kabupaten Wajo", "REMARK": "Tidak Ada", "SBDATA": "Analisis Tim Penyusun, 2022" }, "geometry": { "type": "Point", "coordinates": [ 120.116476501237784, -4.219126004244687 ] } },
{ "type": "Feature", "properties": { "FID": 52, "OBJECTID": 53, "NAMOBJ": "Tempat Pengelolaan Sampah Reuse, Reduce, Recycle (TPS3R)", "STSJRN": 1, "WADMPR": "Provinsi Sulawesi Selatan", "WADMKK": "Kabupaten Wajo", "REMARK": "Tidak Ada", "SBDATA": "Analisis Tim Penyusun, 2022" }, "geometry": { "type": "Point", "coordinates": [ 120.101277006630454, -4.195958181171958 ] } },
{ "type": "Feature", "properties": { "FID": 53, "OBJECTID": 54, "NAMOBJ": "Tempat Pengelolaan Sampah Reuse, Reduce, Recycle (TPS3R)", "STSJRN": 1, "WADMPR": "Provinsi Sulawesi Selatan", "WADMKK": "Kabupaten Wajo", "REMARK": "Tidak Ada", "SBDATA": "Analisis Tim Penyusun, 2022" }, "geometry": { "type": "Point", "coordinates": [ 120.164446537409759, -3.928251964682112 ] } },
{ "type": "Feature", "properties": { "FID": 54, "OBJECTID": 55, "NAMOBJ": "Tempat Penampungan Sementara (TPS)", "STSJRN": 1, "WADMPR": "Provinsi Sulawesi Selatan", "WADMKK": "Kabupaten Wajo", "REMARK": "Tidak Ada", "SBDATA": "Analisis Tim Penyusun, 2022" }, "geometry": { "type": "Point", "coordinates": [ 120.132170069251345, -3.949115351121899 ] } },
{ "type": "Feature", "properties": { "FID": 55, "OBJECTID": 56, "NAMOBJ": "Infrastruktur Sistem Pengelolaan Air Limbah Non Domestik", "STSJRN": 2, "WADMPR": "Provinsi Sulawesi Selatan", "WADMKK": "Kabupaten Wajo", "REMARK": "Tidak Ada", "SBDATA": "Dinas PUPR dan Pertanahan Kabupaten Wajo, 2022" }, "geometry": { "type": "Point", "coordinates": [ 120.0516271208772, -4.114426372728085 ] } },
{ "type": "Feature", "properties": { "FID": 56, "OBJECTID": 57, "NAMOBJ": "Sistem Pengelolaan Limbah Bahan Berbahaya dan Beracun (B3)", "STSJRN": 1, "WADMPR": "Provinsi Sulawesi Selatan", "WADMKK": "Kabupaten Wajo", "REMARK": "Limbah B3 RSUD Wajo", "SBDATA": "Analisis Tim Penyusun, 2022" }, "geometry": { "type": "Point", "coordinates": [ 120.041018017371727, -4.148088383224536 ] } },
{ "type": "Feature", "properties": { "FID": 57, "OBJECTID": 58, "NAMOBJ": "Sistem Pengelolaan Limbah Bahan Berbahaya dan Beracun (B3)", "STSJRN": 1, "WADMPR": "Provinsi Sulawesi Selatan", "WADMKK": "Kabupaten Wajo", "REMARK": "Limbah B3 Tambang Migas Gilireng", "SBDATA": "Analisis Tim Penyusun, 2022" }, "geometry": { "type": "Point", "coordinates": [ 120.169935243795734, -3.955057018700196 ] } },
{ "type": "Feature", "properties": { "FID": 58, "OBJECTID": 59, "NAMOBJ": "Tempat Pemrosesan Akhir (TPA)", "STSJRN": 1, "WADMPR": "Provinsi Sulawesi Selatan", "WADMKK": "Kabupaten Wajo", "REMARK": "Tidak Ada", "SBDATA": "Analisis Tim Penyusun, 2022" }, "geometry": { "type": "Point", "coordinates": [ 120.404880623204349, -3.684341807416461 ] } },
{ "type": "Feature", "properties": { "FID": 59, "OBJECTID": 60, "NAMOBJ": "Unit Produksi", "STSJRN": 2, "WADMPR": "Provinsi Sulawesi Selatan", "WADMKK": "Kabupaten Wajo", "REMARK": "SPAM IKK Sabbangparu", "SBDATA": "PDAM Kabupaten Wajo, 2022" }, "geometry": { "type": "Point", "coordinates": [ 120.00427692225125, -4.21634876871898 ] } },
{ "type": "Feature", "properties": { "FID": 60, "OBJECTID": 61, "NAMOBJ": "Unit Produksi", "STSJRN": 2, "WADMPR": "Provinsi Sulawesi Selatan", "WADMKK": "Kabupaten Wajo", "REMARK": "SPAM IKK Tempe", "SBDATA": "PDAM Kabupaten Wajo, 2022" }, "geometry": { "type": "Point", "coordinates": [ 120.035708974042592, -4.138761362968536 ] } },
{ "type": "Feature", "properties": { "FID": 61, "OBJECTID": 62, "NAMOBJ": "Unit Produksi", "STSJRN": 2, "WADMPR": "Provinsi Sulawesi Selatan", "WADMKK": "Kabupaten Wajo", "REMARK": "SPAM IKK Belawa", "SBDATA": "PDAM Kabupaten Wajo, 2022" }, "geometry": { "type": "Point", "coordinates": [ 119.96645784878983, -3.959484115870109 ] } },
{ "type": "Feature", "properties": { "FID": 62, "OBJECTID": 63, "NAMOBJ": "Unit Produksi", "STSJRN": 2, "WADMPR": "Provinsi Sulawesi Selatan", "WADMKK": "Kabupaten Wajo", "REMARK": "SPAM IKK Keera", "SBDATA": "PDAM Kabupaten Wajo, 2022" }, "geometry": { "type": "Point", "coordinates": [ 120.353218511214621, -3.738127693498793 ] } },
{ "type": "Feature", "properties": { "FID": 63, "OBJECTID": 64, "NAMOBJ": "Sistem Pengelolaan Limbah Bahan Berbahaya dan Beracun (B3)", "STSJRN": 1, "WADMPR": "Provinsi Sulawesi Selatan", "WADMKK": "Kabupaten Wajo", "REMARK": "Limbah B3 RSUD Siwa", "SBDATA": "Analisis Tim Penyusun, 2022" }, "geometry": { "type": "Point", "coordinates": [ 120.414339883146113, -3.70056756102325 ] } },
{ "type": "Feature", "properties": { "FID": 64, "OBJECTID": 65, "NAMOBJ": "Unit Air Baku", "STSJRN": 2, "WADMPR": "Provinsi Sulawesi Selatan", "WADMKK": "Kabupaten Wajo", "REMARK": "Mata Air Talotenreng", "SBDATA": "PDAM Kabupaten Wajo, 2022" }, "geometry": { "type": "Point", "coordinates": [ 120.008660700837751, -4.218489928597601 ] } },
{ "type": "Feature", "properties": { "FID": 65, "OBJECTID": 66, "NAMOBJ": "Unit Air Baku", "STSJRN": 2, "WADMPR": "Provinsi Sulawesi Selatan", "WADMKK": "Kabupaten Wajo", "REMARK": "Mata Air Sumpabakae", "SBDATA": "PDAM Kabupaten Wajo, 2022" }, "geometry": { "type": "Point", "coordinates": [ 120.031711471028245, -4.183531845707034 ] } },
{ "type": "Feature", "properties": { "FID": 66, "OBJECTID": 68, "NAMOBJ": "Sistem Pengelolaan Limbah Bahan Berbahaya dan Beracun (B3)", "STSJRN": 1, "WADMPR": "Provinsi Sulawesi Selatan", "WADMKK": "Kabupaten Wajo", "REMARK": "Limbah B3 LNG Langkenna", "SBDATA": "Analisis Tim Penyusun, 2022" }, "geometry": { "type": "Point", "coordinates": [ 120.33965395042442, -3.909655508173987 ] } },
{ "type": "Feature", "properties": { "FID": 67, "OBJECTID": 69, "NAMOBJ": "Unit Produksi", "STSJRN": 2, "WADMPR": "Provinsi Sulawesi Selatan", "WADMKK": "Kabupaten Wajo", "REMARK": "SPAM IKK Pammana", "SBDATA": "PDAM Kabupaten Wajo, 2022" }, "geometry": { "type": "Point", "coordinates": [ 120.048249455408907, -4.169922676825276 ] } },
{ "type": "Feature", "properties": { "FID": 68, "OBJECTID": 70, "NAMOBJ": "Unit Produksi", "STSJRN": 2, "WADMPR": "Provinsi Sulawesi Selatan", "WADMKK": "Kabupaten Wajo", "REMARK": "SPAM IPA Sengkang", "SBDATA": "PDAM Kabupaten Wajo, 2022" }, "geometry": { "type": "Point", "coordinates": [ 120.031010785106631, -4.141807664099006 ] } },
{ "type": "Feature", "properties": { "FID": 69, "OBJECTID": 71, "NAMOBJ": "Unit Air Baku", "STSJRN": 1, "WADMPR": "Provinsi Sulawesi Selatan", "WADMKK": "Kabupaten Wajo", "REMARK": "Intake", "SBDATA": "Balai Permukiman dan Prasarana Wilayah (BPPW) Sulawesi Selatan, 2022" }, "geometry": { "type": "Point", "coordinates": [ 120.021623390387589, -4.102679724878345 ] } },
{ "type": "Feature", "properties": { "FID": 70, "OBJECTID": 72, "NAMOBJ": "Unit Produksi", "STSJRN": 1, "WADMPR": "Provinsi Sulawesi Selatan", "WADMKK": "Kabupaten Wajo", "REMARK": "SPAM Danau Tempe", "SBDATA": "Balai Permukiman dan Prasarana Wilayah (BPPW) Sulawesi Selatan, 2022" }, "geometry": { "type": "Point", "coordinates": [ 120.039149521580768, -4.104158145447482 ] } },
{ "type": "Feature", "properties": { "FID": 71, "OBJECTID": 73, "NAMOBJ": "Unit Air Baku", "STSJRN": 2, "WADMPR": "Provinsi Sulawesi Selatan", "WADMKK": "Kabupaten Wajo", "REMARK": "Intake", "SBDATA": "PDAM Kabupaten Wajo, 2022" }, "geometry": { "type": "Point", "coordinates": [ 120.39524170020573, -3.710993123309394 ] } },
{ "type": "Feature", "properties": { "FID": 72, "OBJECTID": 74, "NAMOBJ": "Unit Air Baku", "STSJRN": 2, "WADMPR": "Provinsi Sulawesi Selatan", "WADMKK": "Kabupaten Wajo", "REMARK": "Intake", "SBDATA": "PDAM Kabupaten Wajo, 2022" }, "geometry": { "type": "Point", "coordinates": [ 120.083643077603213, -3.909772017380431 ] } },
{ "type": "Feature", "properties": { "FID": 73, "OBJECTID": 75, "NAMOBJ": "Unit Air Baku", "STSJRN": 2, "WADMPR": "Provinsi Sulawesi Selatan", "WADMKK": "Kabupaten Wajo", "REMARK": "Intake", "SBDATA": "PDAM Kabupaten Wajo, 2022" }, "geometry": { "type": "Point", "coordinates": [ 120.353245460673151, -3.738190441781944 ] } },
{ "type": "Feature", "properties": { "FID": 74, "OBJECTID": 76, "NAMOBJ": "Unit Air Baku", "STSJRN": 2, "WADMPR": "Provinsi Sulawesi Selatan", "WADMKK": "Kabupaten Wajo", "REMARK": "Intake", "SBDATA": "PDAM Kabupaten Wajo, 2022" }, "geometry": { "type": "Point", "coordinates": [ 120.030938919883894, -4.141798704406992 ] } },
{ "type": "Feature", "properties": { "FID": 75, "OBJECTID": 78, "NAMOBJ": "Unit Air Baku", "STSJRN": 2, "WADMPR": "Provinsi Sulawesi Selatan", "WADMKK": "Kabupaten Wajo", "REMARK": "Intake", "SBDATA": "PDAM Kabupaten Wajo, 2022" }, "geometry": { "type": "Point", "coordinates": [ 120.048204539644701, -4.169967473686569 ] } },
{ "type": "Feature", "properties": { "FID": 76, "OBJECTID": 79, "NAMOBJ": "Unit Air Baku", "STSJRN": 2, "WADMPR": "Provinsi Sulawesi Selatan", "WADMKK": "Kabupaten Wajo", "REMARK": "Intake", "SBDATA": "PDAM Kabupaten Wajo, 2022" }, "geometry": { "type": "Point", "coordinates": [ 120.004258955945559, -4.216330851038201 ] } },
{ "type": "Feature", "properties": { "FID": 77, "OBJECTID": 80, "NAMOBJ": "Unit Air Baku", "STSJRN": 2, "WADMPR": "Provinsi Sulawesi Selatan", "WADMKK": "Kabupaten Wajo", "REMARK": "Intake", "SBDATA": "PDAM Kabupaten Wajo, 2022" }, "geometry": { "type": "Point", "coordinates": [ 120.228810827516924, -4.238225948248886 ] } },
{ "type": "Feature", "properties": { "FID": 78, "OBJECTID": 81, "NAMOBJ": "Unit Air Baku", "STSJRN": 2, "WADMPR": "Provinsi Sulawesi Selatan", "WADMKK": "Kabupaten Wajo", "REMARK": "Intake", "SBDATA": "PDAM Kabupaten Wajo, 2022" }, "geometry": { "type": "Point", "coordinates": [ 119.96653869716539, -3.959484115870109 ] } },
{ "type": "Feature", "properties": { "FID": 79, "OBJECTID": 82, "NAMOBJ": "Tempat Pengolahan Sampah Terpadu (TPST)", "STSJRN": 1, "WADMPR": "Provinsi Sulawesi Selatan", "WADMKK": "Kabupaten Wajo", "REMARK": "Tidak Ada", "SBDATA": "Dinas PUPR dan Pertanahan Kabupaten Wajo, 2022" }, "geometry": { "type": "Point", "coordinates": [ 120.329134678447389, -4.034006330553234 ] } },
{ "type": "Feature", "properties": { "FID": 80, "OBJECTID": 83, "NAMOBJ": "Infrastruktur Sistem Pengelolaan Air Limbah Domestik", "STSJRN": 1, "WADMPR": "Provinsi Sulawesi Selatan", "WADMKK": "Kabupaten Wajo", "REMARK": "Tidak Ada", "SBDATA": "Analisis Tim Penyusun, 2022" }, "geometry": { "type": "Point", "coordinates": [ 120.041817517974593, -4.117983485181025 ] } },
{ "type": "Feature", "properties": { "FID": 81, "OBJECTID": 84, "NAMOBJ": "Infrastruktur Sistem Pengelolaan Air Limbah Domestik", "STSJRN": 1, "WADMPR": "Provinsi Sulawesi Selatan", "WADMKK": "Kabupaten Wajo", "REMARK": "Tidak Ada", "SBDATA": "Analisis Tim Penyusun, 2022" }, "geometry": { "type": "Point", "coordinates": [ 120.03529574901188, -4.017715256997166 ] } },
{ "type": "Feature", "properties": { "FID": 82, "OBJECTID": 85, "NAMOBJ": "Infrastruktur Sistem Pengelolaan Air Limbah Domestik", "STSJRN": 1, "WADMPR": "Provinsi Sulawesi Selatan", "WADMKK": "Kabupaten Wajo", "REMARK": "Tidak Ada", "SBDATA": "Analisis Tim Penyusun, 2022" }, "geometry": { "type": "Point", "coordinates": [ 120.06010721715927, -3.978357264174735 ] } },
{ "type": "Feature", "properties": { "FID": 83, "OBJECTID": 86, "NAMOBJ": "Infrastruktur Sistem Pengelolaan Air Limbah Domestik", "STSJRN": 1, "WADMPR": "Provinsi Sulawesi Selatan", "WADMKK": "Kabupaten Wajo", "REMARK": "Tidak Ada", "SBDATA": "Analisis Tim Penyusun, 2022" }, "geometry": { "type": "Point", "coordinates": [ 119.931198973888101, -4.007660867640308 ] } },
{ "type": "Feature", "properties": { "FID": 84, "OBJECTID": 87, "NAMOBJ": "Infrastruktur Sistem Pengelolaan Air Limbah Domestik", "STSJRN": 1, "WADMPR": "Provinsi Sulawesi Selatan", "WADMKK": "Kabupaten Wajo", "REMARK": "Tidak Ada", "SBDATA": "Analisis Tim Penyusun, 2022" }, "geometry": { "type": "Point", "coordinates": [ 120.164401621645553, -3.928341585157306 ] } },
{ "type": "Feature", "properties": { "FID": 85, "OBJECTID": 88, "NAMOBJ": "Infrastruktur Sistem Pengelolaan Air Limbah Domestik", "STSJRN": 1, "WADMPR": "Provinsi Sulawesi Selatan", "WADMKK": "Kabupaten Wajo", "REMARK": "Tidak Ada", "SBDATA": "Analisis Tim Penyusun, 2022" }, "geometry": { "type": "Point", "coordinates": [ 120.327230250045048, -3.808151966702381 ] } },
{ "type": "Feature", "properties": { "FID": 86, "OBJECTID": 89, "NAMOBJ": "Infrastruktur Sistem Pengelolaan Air Limbah Domestik", "STSJRN": 1, "WADMPR": "Provinsi Sulawesi Selatan", "WADMKK": "Kabupaten Wajo", "REMARK": "Tidak Ada", "SBDATA": "Analisis Tim Penyusun, 2022" }, "geometry": { "type": "Point", "coordinates": [ 120.405069269414014, -3.684323878243055 ] } },
{ "type": "Feature", "properties": { "FID": 87, "OBJECTID": 90, "NAMOBJ": "Infrastruktur Sistem Pengelolaan Air Limbah Domestik", "STSJRN": 1, "WADMPR": "Provinsi Sulawesi Selatan", "WADMKK": "Kabupaten Wajo", "REMARK": "Tidak Ada", "SBDATA": "Analisis Tim Penyusun, 2022" }, "geometry": { "type": "Point", "coordinates": [ 120.295941928699179, -4.095287581007883 ] } },
{ "type": "Feature", "properties": { "FID": 88, "OBJECTID": 92, "NAMOBJ": "Infrastruktur Sistem Pengelolaan Air Limbah Domestik", "STSJRN": 1, "WADMPR": "Provinsi Sulawesi Selatan", "WADMKK": "Kabupaten Wajo", "REMARK": "Tidak Ada", "SBDATA": "Analisis Tim Penyusun, 2022" }, "geometry": { "type": "Point", "coordinates": [ 120.273367265609252, -4.152182919310304 ] } },
{ "type": "Feature", "properties": { "FID": 89, "OBJECTID": 93, "NAMOBJ": "Infrastruktur Sistem Pengelolaan Air Limbah Domestik", "STSJRN": 1, "WADMPR": "Provinsi Sulawesi Selatan", "WADMKK": "Kabupaten Wajo", "REMARK": "Tidak Ada", "SBDATA": "Analisis Tim Penyusun, 2022" }, "geometry": { "type": "Point", "coordinates": [ 120.230257115124346, -4.236523814760193 ] } },
{ "type": "Feature", "properties": { "FID": 90, "OBJECTID": 94, "NAMOBJ": "Infrastruktur Sistem Pengelolaan Air Limbah Domestik", "STSJRN": 1, "WADMPR": "Provinsi Sulawesi Selatan", "WADMKK": "Kabupaten Wajo", "REMARK": "Tidak Ada", "SBDATA": "Analisis Tim Penyusun, 2022" }, "geometry": { "type": "Point", "coordinates": [ 120.101366838158867, -4.195796917809479 ] } },
{ "type": "Feature", "properties": { "FID": 91, "OBJECTID": 95, "NAMOBJ": "Infrastruktur Sistem Pengelolaan Air Limbah Domestik", "STSJRN": 1, "WADMPR": "Provinsi Sulawesi Selatan", "WADMKK": "Kabupaten Wajo", "REMARK": "Tidak Ada", "SBDATA": "Analisis Tim Penyusun, 2022" }, "geometry": { "type": "Point", "coordinates": [ 120.014427884961805, -4.219305180389268 ] } },
{ "type": "Feature", "properties": { "FID": 92, "OBJECTID": 96, "NAMOBJ": "Infrastruktur Sistem Pengelolaan Air Limbah Domestik", "STSJRN": 1, "WADMPR": "Provinsi Sulawesi Selatan", "WADMKK": "Kabupaten Wajo", "REMARK": "Tidak Ada", "SBDATA": "Analisis Tim Penyusun, 2022" }, "geometry": { "type": "Point", "coordinates": [ 120.146534130644412, -4.027061605842893 ] } },
{ "type": "Feature", "properties": { "FID": 93, "OBJECTID": 97, "NAMOBJ": "Infrastruktur Sistem Pengelolaan Air Limbah Domestik", "STSJRN": 1, "WADMPR": "Provinsi Sulawesi Selatan", "WADMKK": "Kabupaten Wajo", "REMARK": "Tidak Ada", "SBDATA": "Analisis Tim Penyusun, 2022" }, "geometry": { "type": "Point", "coordinates": [ 120.330571982901972, -4.038594296772405 ] } }
]
}
