{"type":"FeatureCollection","name":"DANAU","features":[{"type":"Feature","properties":{"FID":0,"REMARK":"Danau/Situ","wilayah_kecamatan_kode":["73.13.02"],"wilayah_desa_kode":["73.13.02.1001","73.13.02.2006"],"pemetaan_wilayah":"terpetakan"},"geometry":{"type":"Polygon","coordinates":[[[120.081685,-4.227377],[120.08102,-4.226983],[120.080876,-4.226705],[120.081272,-4.226607],[120.081784,-4.226723],[120.081837,-4.227135],[120.081685,-4.227377]]]}},{"type":"Feature","properties":{"FID":1,"REMARK":"Danau/Situ","wilayah_kecamatan_kode":["73.13.01"],"wilayah_desa_kode":["73.13.01.1001"],"pemetaan_wilayah":"terpetakan"},"geometry":{"type":"Polygon","coordinates":[[[120.001411,-4.22451],[120.00231,-4.223148],[120.00204,-4.223973],[120.001411,-4.22451]]]}},{"type":"Feature","properties":{"FID":2,"REMARK":"Danau/Situ","wilayah_kecamatan_kode":["73.13.02"],"wilayah_desa_kode":["73.13.02.1001"],"pemetaan_wilayah":"terpetakan"},"geometry":{"type":"Polygon","coordinates":[[[120.081811,-4.221491],[120.081451,-4.223014],[120.080346,-4.223166],[120.08067,-4.222665],[120.080849,-4.221464],[120.081119,-4.221491],[120.081424,-4.221142],[120.081811,-4.221491]]]}},{"type":"Feature","properties":{"FID":3,"REMARK":"Danau/Situ","wilayah_kecamatan_kode":["73.13.01"],"wilayah_desa_kode":["73.13.01.1001"],"pemetaan_wilayah":"terpetakan"},"geometry":{"type":"Polygon","coordinates":[[[120.004358,-4.219834],[120.003918,-4.220282],[120.003154,-4.220318],[120.003055,-4.22004],[120.003109,-4.219852],[120.004043,-4.219717],[120.004241,-4.219018],[120.004493,-4.218938],[120.004358,-4.219834]]]}},{"type":"Feature","properties":{"FID":4,"REMARK":"Danau/Situ","wilayah_kecamatan_kode":["73.13.02"],"wilayah_desa_kode":["73.13.02.2005"],"pemetaan_wilayah":"terpetakan"},"geometry":{"type":"Polygon","coordinates":[[[120.109559,-4.217719],[120.108967,-4.217755],[120.108877,-4.21754],[120.109515,-4.216806],[120.109559,-4.217719]]]}},{"type":"Feature","properties":{"FID":5,"REMARK":"Danau/Situ","wilayah_kecamatan_kode":["73.13.02"],"wilayah_desa_kode":["73.13.02.1001"],"pemetaan_wilayah":"terpetakan"},"geometry":{"type":"Polygon","coordinates":[[[120.081703,-4.213643],[120.081712,-4.213795],[120.082439,-4.214333],[120.082251,-4.214754],[120.08049,-4.213822],[120.079825,-4.213661],[120.079816,-4.213464],[120.079906,-4.213258],[120.080149,-4.213177],[120.081406,-4.213016],[120.081667,-4.213294],[120.081703,-4.213643]]]}},{"type":"Feature","properties":{"FID":6,"REMARK":"Danau/Situ","wilayah_kecamatan_kode":["73.13.02"],"wilayah_desa_kode":["73.13.02.1001"],"pemetaan_wilayah":"terpetakan"},"geometry":{"type":"Polygon","coordinates":[[[120.084946,-4.212416],[120.084299,-4.212156],[120.085017,-4.211735],[120.084946,-4.212416]]]}},{"type":"Feature","properties":{"FID":7,"REMARK":"Danau/Situ","wilayah_kecamatan_kode":["73.13.02"],"wilayah_desa_kode":["73.13.02.1002"],"pemetaan_wilayah":"terpetakan"},"geometry":{"type":"Polygon","coordinates":[[[120.131047,-4.190538],[120.131092,-4.190762],[120.13067,-4.191434],[120.13023,-4.191774],[120.13076,-4.191756],[120.130993,-4.192025],[120.130616,-4.192034],[120.130329,-4.192303],[120.129664,-4.192482],[120.129556,-4.192993],[120.129277,-4.193181],[120.128631,-4.194139],[120.128604,-4.194865],[120.1282,-4.195009],[120.127804,-4.194946],[120.127607,-4.195107],[120.127373,-4.195026],[120.127229,-4.193127],[120.127732,-4.192975],[120.128649,-4.192061],[120.128972,-4.191936],[120.128882,-4.19164],[120.129242,-4.191308],[120.129394,-4.190636],[120.129915,-4.190556],[120.130203,-4.190332],[120.130346,-4.18983],[120.130715,-4.189839],[120.131047,-4.190538]]]}},{"type":"Feature","properties":{"FID":8,"REMARK":"Danau/Situ","wilayah_kecamatan_kode":["73.13.02"],"wilayah_desa_kode":["73.13.02.2003"],"pemetaan_wilayah":"terpetakan"},"geometry":{"type":"Polygon","coordinates":[[[120.040668,-4.168462],[120.041,-4.168176],[120.041252,-4.168328],[120.040758,-4.169098],[120.041207,-4.169403],[120.041656,-4.170093],[120.042213,-4.17012],[120.042572,-4.169914],[120.042806,-4.170505],[120.043318,-4.170371],[120.043713,-4.170433],[120.043731,-4.170639],[120.043228,-4.171177],[120.043282,-4.171491],[120.043785,-4.17158],[120.044342,-4.171267],[120.044674,-4.17141],[120.044782,-4.171867],[120.044683,-4.172655],[120.044998,-4.172951],[120.045294,-4.173587],[120.045213,-4.173721],[120.044998,-4.173686],[120.044827,-4.173936],[120.044441,-4.173945],[120.044054,-4.174689],[120.043246,-4.175298],[120.041036,-4.174635],[120.041341,-4.17313],[120.040093,-4.172431],[120.039886,-4.171535],[120.039563,-4.171249],[120.03985,-4.170263],[120.04003,-4.170075],[120.03976,-4.169851],[120.039626,-4.16917],[120.038997,-4.167746],[120.039706,-4.166876],[120.039473,-4.16616],[120.039697,-4.165631],[120.039958,-4.165998],[120.039877,-4.166339],[120.040138,-4.166572],[120.04003,-4.16702],[120.040452,-4.167665],[120.040847,-4.167835],[120.040542,-4.168328],[120.040668,-4.168462]]]}},{"type":"Feature","properties":{"FID":9,"REMARK":"Danau/Situ","wilayah_kecamatan_kode":["73.13.01"],"wilayah_desa_kode":["73.13.01.2012"],"pemetaan_wilayah":"terpetakan"},"geometry":{"type":"Polygon","coordinates":[[[120.026402,-4.161653],[120.026465,-4.161904],[120.026169,-4.162442],[120.02607,-4.16297],[120.026474,-4.163687],[120.025944,-4.163929],[120.025657,-4.164807],[120.024794,-4.165416],[120.024372,-4.165559],[120.023824,-4.165318],[120.022872,-4.164224],[120.023034,-4.162916],[120.023501,-4.162442],[120.023797,-4.162343],[120.024938,-4.162468],[120.025244,-4.16159],[120.026402,-4.161653]]]}},{"type":"Feature","properties":{"FID":10,"REMARK":"Danau/Situ","wilayah_kecamatan_kode":["73.13.02"],"wilayah_desa_kode":["73.13.02.2015"],"pemetaan_wilayah":"terpetakan"},"geometry":{"type":"Polygon","coordinates":[[[120.095743,-4.154665],[120.095627,-4.154763],[120.096103,-4.155068],[120.096103,-4.155301],[120.095591,-4.156636],[120.09524,-4.156618],[120.095097,-4.157532],[120.094674,-4.157971],[120.094971,-4.158338],[120.094585,-4.158643],[120.094306,-4.158652],[120.093929,-4.157881],[120.093426,-4.157397],[120.093704,-4.156242],[120.094117,-4.155955],[120.093992,-4.155211],[120.093417,-4.154817],[120.094279,-4.155068],[120.094656,-4.154494],[120.095258,-4.154665],[120.095573,-4.154468],[120.095743,-4.154665]]]}},{"type":"Feature","properties":{"FID":11,"REMARK":"Danau/Situ","wilayah_kecamatan_kode":["73.13.11"],"wilayah_desa_kode":["73.13.11.2004","73.13.11.2008"],"pemetaan_wilayah":"terpetakan"},"geometry":{"type":"Polygon","coordinates":[[[120.179538,-4.156663],[120.179871,-4.156591],[120.180212,-4.155686],[120.18076,-4.154889],[120.18155,-4.154333],[120.182009,-4.154423],[120.182422,-4.154817],[120.183275,-4.155283],[120.184227,-4.155113],[120.184596,-4.155193],[120.184434,-4.155838],[120.183212,-4.156779],[120.182799,-4.157774],[120.182593,-4.158885],[120.181973,-4.15927],[120.181667,-4.159888],[120.181802,-4.160462],[120.182826,-4.160865],[120.18306,-4.161232],[120.182557,-4.16177],[120.181515,-4.161761],[120.180769,-4.16194],[120.180481,-4.162388],[120.181029,-4.163194],[120.180877,-4.163732],[120.180976,-4.16392],[120.181541,-4.163597],[120.181892,-4.162979],[120.182431,-4.162675],[120.183275,-4.162845],[120.183644,-4.162495],[120.184389,-4.162567],[120.184596,-4.16297],[120.184641,-4.163705],[120.18412,-4.164314],[120.18376,-4.165031],[120.184407,-4.165586],[120.185225,-4.165918],[120.185359,-4.166339],[120.185072,-4.166724],[120.184506,-4.166957],[120.183392,-4.168095],[120.182781,-4.167772],[120.181946,-4.168158],[120.181452,-4.168668],[120.180562,-4.1702],[120.179377,-4.170926],[120.179053,-4.170881],[120.178864,-4.170622],[120.178829,-4.170048],[120.178631,-4.169887],[120.178326,-4.170012],[120.177975,-4.170442],[120.177203,-4.17063],[120.176502,-4.171894],[120.175945,-4.172467],[120.175864,-4.172987],[120.176062,-4.173542],[120.176349,-4.17373],[120.17723,-4.173659],[120.178074,-4.175182],[120.178397,-4.17503],[120.178721,-4.174098],[120.179709,-4.174268],[120.180365,-4.174071],[120.180688,-4.174169],[120.180463,-4.175307],[120.180994,-4.176803],[120.180428,-4.178497],[120.179853,-4.178703],[120.180472,-4.179276],[120.18049,-4.179455],[120.180005,-4.180378],[120.179628,-4.180629],[120.179008,-4.180754],[120.178487,-4.182206],[120.17793,-4.182385],[120.177445,-4.182287],[120.176861,-4.181704],[120.17652,-4.181588],[120.176116,-4.181005],[120.175478,-4.180772],[120.174813,-4.180289],[120.174023,-4.180172],[120.174041,-4.180566],[120.174526,-4.18097],[120.175038,-4.181122],[120.175568,-4.181821],[120.17511,-4.183147],[120.175819,-4.184589],[120.175909,-4.185243],[120.175747,-4.185494],[120.174705,-4.186031],[120.174157,-4.186139],[120.173466,-4.185924],[120.17272,-4.186005],[120.17237,-4.185691],[120.172145,-4.184697],[120.171426,-4.184311],[120.170896,-4.184849],[120.170528,-4.184876],[120.169854,-4.183917],[120.169863,-4.1832],[120.168049,-4.182278],[120.168148,-4.181865],[120.169297,-4.180692],[120.169792,-4.179912],[120.169217,-4.179545],[120.169163,-4.179357],[120.169594,-4.178416],[120.168094,-4.17787],[120.167546,-4.176821],[120.167528,-4.176212],[120.167671,-4.175916],[120.168004,-4.175809],[120.168246,-4.175298],[120.168597,-4.175083],[120.168399,-4.174823],[120.168732,-4.174501],[120.169136,-4.174823],[120.169522,-4.174913],[120.169854,-4.174895],[120.170169,-4.174564],[120.169917,-4.1733],[120.170483,-4.171831],[120.170313,-4.170765],[120.170645,-4.169573],[120.170555,-4.169466],[120.170331,-4.169573],[120.169549,-4.170487],[120.169468,-4.172082],[120.168597,-4.173641],[120.1683,-4.173247],[120.167402,-4.173032],[120.167115,-4.172817],[120.16609,-4.171096],[120.165372,-4.171105],[120.164986,-4.170899],[120.164213,-4.168695],[120.163539,-4.167414],[120.163665,-4.166473],[120.164294,-4.164977],[120.164132,-4.163983],[120.164294,-4.16263],[120.165354,-4.161384],[120.166288,-4.160909],[120.165965,-4.160085],[120.166108,-4.158732],[120.167213,-4.15815],[120.168462,-4.158186],[120.1691,-4.157514],[120.170232,-4.157756],[120.170375,-4.158087],[120.170313,-4.158894],[120.169603,-4.160327],[120.16963,-4.160811],[120.170708,-4.161805],[120.171453,-4.161725],[120.171696,-4.161331],[120.171723,-4.159566],[120.173708,-4.157568],[120.173942,-4.156519],[120.174301,-4.155812],[120.174921,-4.155489],[120.175972,-4.153885],[120.177328,-4.152944],[120.177813,-4.152873],[120.178263,-4.153231],[120.178667,-4.154548],[120.178451,-4.155659],[120.178793,-4.156233],[120.179538,-4.156663]]]}},{"type":"Feature","properties":{"FID":12,"REMARK":"Danau/Situ","wilayah_kecamatan_kode":["73.13.02"],"wilayah_desa_kode":["73.13.02.2015"],"pemetaan_wilayah":"terpetakan"},"geometry":{"type":"Polygon","coordinates":[[[120.091,-4.152837],[120.089617,-4.152909],[120.089401,-4.152479],[120.089464,-4.152129],[120.090066,-4.15195],[120.091054,-4.152129],[120.091153,-4.152299],[120.091,-4.152837]]]}},{"type":"Feature","properties":{"FID":13,"REMARK":"Danau/Situ","wilayah_kecamatan_kode":["73.13.02"],"wilayah_desa_kode":["73.13.02.2015"],"pemetaan_wilayah":"terpetakan"},"geometry":{"type":"Polygon","coordinates":[[[120.105095,-4.14162],[120.105418,-4.142067],[120.105427,-4.142892],[120.104807,-4.143178],[120.104628,-4.143546],[120.104232,-4.143161],[120.10346,-4.143089],[120.10337,-4.142731],[120.103586,-4.142408],[120.103595,-4.141772],[120.104035,-4.141646],[120.104277,-4.141279],[120.104628,-4.141136],[120.104879,-4.141243],[120.105095,-4.14162]]]}},{"type":"Feature","properties":{"FID":14,"REMARK":"Danau/Situ","wilayah_kecamatan_kode":["73.13.02"],"wilayah_desa_kode":["73.13.02.2015"],"pemetaan_wilayah":"terpetakan"},"geometry":{"type":"Polygon","coordinates":[[[120.109676,-4.142587],[120.109497,-4.14299],[120.109856,-4.143662],[120.109461,-4.143546],[120.109173,-4.143833],[120.108706,-4.143555],[120.108221,-4.143788],[120.107709,-4.143447],[120.107224,-4.143402],[120.107368,-4.142901],[120.107224,-4.142713],[120.106514,-4.142686],[120.10655,-4.141835],[120.106299,-4.1411],[120.106397,-4.140285],[120.10761,-4.13998],[120.107736,-4.139819],[120.108778,-4.140213],[120.109353,-4.140715],[120.109398,-4.141915],[120.109739,-4.1423],[120.109676,-4.142587]]]}},{"type":"Feature","properties":{"FID":15,"REMARK":"Danau/Situ","wilayah_kecamatan_kode":["73.13.02","73.13.06"],"wilayah_desa_kode":["73.13.02.2010","73.13.06.1002","73.13.06.1014","73.13.06.1015"],"pemetaan_wilayah":"terpetakan"},"geometry":{"type":"Polygon","coordinates":[[[120.064347,-4.137346],[120.065308,-4.137274],[120.066081,-4.137417],[120.06653,-4.13731],[120.066557,-4.137023],[120.066764,-4.136817],[120.067267,-4.136862],[120.067195,-4.13757],[120.066854,-4.138152],[120.065865,-4.13826],[120.063476,-4.137892],[120.063063,-4.138089],[120.062928,-4.138564],[120.063063,-4.138779],[120.063467,-4.138797],[120.064356,-4.138493],[120.065335,-4.138761],[120.06529,-4.139039],[120.064707,-4.139523],[120.064635,-4.139854],[120.064707,-4.140822],[120.06503,-4.141521],[120.06609,-4.142032],[120.066764,-4.143089],[120.067509,-4.143716],[120.068866,-4.1442],[120.071174,-4.144083],[120.071767,-4.144917],[120.07201,-4.146144],[120.07174,-4.148787],[120.071444,-4.149029],[120.069791,-4.149388],[120.069486,-4.149683],[120.069647,-4.150149],[120.071013,-4.15135],[120.07113,-4.151672],[120.071031,-4.152147],[120.069899,-4.153957],[120.069755,-4.155014],[120.069414,-4.15591],[120.069036,-4.156448],[120.067473,-4.156501],[120.066728,-4.157523],[120.065668,-4.157335],[120.065129,-4.157397],[120.0637,-4.158535],[120.063377,-4.158947],[120.063153,-4.158992],[120.062946,-4.15892],[120.062901,-4.158446],[120.061652,-4.157765],[120.06132,-4.157818],[120.060898,-4.159028],[120.059424,-4.158912],[120.059155,-4.159046],[120.057691,-4.161125],[120.057233,-4.161564],[120.05602,-4.161931],[120.054888,-4.162791],[120.054349,-4.162746],[120.053523,-4.161564],[120.052543,-4.160524],[120.050702,-4.159458],[120.051007,-4.157774],[120.051888,-4.155919],[120.052579,-4.155408],[120.055202,-4.155211],[120.055984,-4.155444],[120.056379,-4.155041],[120.05664,-4.155068],[120.057269,-4.155632],[120.057682,-4.15557],[120.058041,-4.155283],[120.05823,-4.154942],[120.058149,-4.154575],[120.057915,-4.154244],[120.057475,-4.154109],[120.057565,-4.15281],[120.058787,-4.152308],[120.058706,-4.151825],[120.058984,-4.15126],[120.060161,-4.150319],[120.060961,-4.149146],[120.061338,-4.14842],[120.061284,-4.147972],[120.062012,-4.147175],[120.062227,-4.145831],[120.062569,-4.14523],[120.062551,-4.143573],[120.062425,-4.143313],[120.061751,-4.142972],[120.061068,-4.141521],[120.061221,-4.140786],[120.061976,-4.140311],[120.062605,-4.139568],[120.06203,-4.139523],[120.061985,-4.139102],[120.060718,-4.138484],[120.060583,-4.138286],[120.061527,-4.137507],[120.062712,-4.137023],[120.063,-4.136772],[120.063036,-4.136163],[120.063566,-4.13636],[120.063925,-4.136978],[120.064347,-4.137346]]]}},{"type":"Feature","properties":{"FID":16,"REMARK":"Danau/Situ","wilayah_kecamatan_kode":["73.13.05"],"wilayah_desa_kode":["73.13.05.2005"],"pemetaan_wilayah":"terpetakan"},"geometry":{"type":"Polygon","coordinates":[[[120.12175,-4.127293],[120.120806,-4.127436],[120.119764,-4.12835],[120.118947,-4.128395],[120.117995,-4.128691],[120.117222,-4.128565],[120.117617,-4.127544],[120.118004,-4.127391],[120.119001,-4.126567],[120.119055,-4.125832],[120.119917,-4.124363],[120.121148,-4.124435],[120.12289,-4.125626],[120.12289,-4.125886],[120.122414,-4.126657],[120.12175,-4.127293]]]}},{"type":"Feature","properties":{"FID":17,"REMARK":"Danau/Situ","wilayah_kecamatan_kode":["73.13.03"],"wilayah_desa_kode":["73.13.03.2012"],"pemetaan_wilayah":"terpetakan"},"geometry":{"type":"Polygon","coordinates":[[[120.305078,-4.117948],[120.304054,-4.118136],[120.303119,-4.119166],[120.302518,-4.11922],[120.302545,-4.119068],[120.303164,-4.118763],[120.303721,-4.1181],[120.304656,-4.117733],[120.305186,-4.117822],[120.305078,-4.117948]]]}},{"type":"Feature","properties":{"FID":18,"REMARK":"Danau/Situ","wilayah_kecamatan_kode":["73.13.03"],"wilayah_desa_kode":["73.13.03.2012"],"pemetaan_wilayah":"terpetakan"},"geometry":{"type":"Polygon","coordinates":[[[120.300227,-4.117258],[120.299365,-4.117643],[120.299113,-4.117992],[120.298376,-4.1181],[120.298224,-4.118261],[120.297981,-4.118181],[120.297801,-4.118405],[120.297244,-4.118575],[120.29614,-4.118225],[120.296328,-4.117939],[120.296625,-4.117966],[120.296705,-4.117589],[120.296867,-4.117885],[120.29728,-4.117795],[120.297514,-4.118297],[120.297846,-4.118082],[120.297981,-4.117786],[120.298385,-4.117876],[120.298736,-4.117661],[120.298969,-4.117231],[120.299373,-4.117311],[120.299391,-4.117571],[120.299571,-4.117518],[120.299643,-4.116953],[120.299373,-4.116442],[120.299562,-4.115994],[120.299787,-4.116442],[120.300263,-4.116872],[120.300227,-4.117258]]]}},{"type":"Feature","properties":{"FID":19,"REMARK":"Danau/Situ","wilayah_kecamatan_kode":["73.13.05"],"wilayah_desa_kode":["73.13.05.2012","73.13.05.2016"],"pemetaan_wilayah":"terpetakan"},"geometry":{"type":"Polygon","coordinates":[[[120.109865,-4.115322],[120.110323,-4.115358],[120.111536,-4.114731],[120.112964,-4.11474],[120.113907,-4.115134],[120.11503,-4.116407],[120.115138,-4.117096],[120.115039,-4.117804],[120.113952,-4.120887],[120.113539,-4.121612],[120.112605,-4.122428],[120.111428,-4.122732],[120.110943,-4.122266],[120.110036,-4.122929],[120.109703,-4.12284],[120.109533,-4.122526],[120.109586,-4.121881],[120.109856,-4.121451],[120.110422,-4.121021],[120.110494,-4.120761],[120.110323,-4.1206],[120.109757,-4.120591],[120.107996,-4.121254],[120.106433,-4.121487],[120.104493,-4.12249],[120.102472,-4.122463],[120.101978,-4.122607],[120.101079,-4.123252],[120.100244,-4.123512],[120.098932,-4.12422],[120.098178,-4.124229],[120.097297,-4.123852],[120.097405,-4.123655],[120.09701,-4.121352],[120.097037,-4.120985],[120.097226,-4.120779],[120.098133,-4.120134],[120.098429,-4.120098],[120.098789,-4.120277],[120.098959,-4.121039],[120.099256,-4.121012],[120.099355,-4.119973],[120.099633,-4.119103],[120.099956,-4.118718],[120.100693,-4.118494],[120.101133,-4.118593],[120.101466,-4.118951],[120.101888,-4.120089],[120.102085,-4.120215],[120.102687,-4.120125],[120.104125,-4.118647],[120.1047,-4.117061],[120.105544,-4.116209],[120.106451,-4.114408],[120.106927,-4.113943],[120.107718,-4.113602],[120.108805,-4.113638],[120.109398,-4.114167],[120.109524,-4.114839],[120.109865,-4.115322]]]}},{"type":"Feature","properties":{"FID":20,"REMARK":"Danau/Situ","wilayah_kecamatan_kode":["73.13.12"],"wilayah_desa_kode":["73.13.12.2006"],"pemetaan_wilayah":"terpetakan"},"geometry":{"type":"Polygon","coordinates":[[[120.259919,-4.111201],[120.260396,-4.11121],[120.260396,-4.111416],[120.259704,-4.111703],[120.259803,-4.111407],[120.259461,-4.111362],[120.259623,-4.110815],[120.259758,-4.110815],[120.259776,-4.111129],[120.259919,-4.111201]]]}},{"type":"Feature","properties":{"FID":21,"REMARK":"Danau/Situ","wilayah_kecamatan_kode":["73.13.05"],"wilayah_desa_kode":["73.13.05.2005"],"pemetaan_wilayah":"terpetakan"},"geometry":{"type":"Polygon","coordinates":[[[120.130194,-4.109445],[120.130041,-4.109722],[120.130409,-4.110323],[120.130418,-4.110591],[120.129843,-4.110654],[120.130598,-4.111048],[120.130912,-4.111846],[120.131415,-4.112294],[120.131712,-4.113593],[120.131586,-4.114489],[120.131838,-4.116039],[120.130625,-4.116702],[120.129206,-4.116389],[120.128469,-4.117383],[120.127499,-4.117311],[120.126026,-4.116675],[120.126897,-4.114695],[120.126906,-4.114552],[120.126475,-4.114328],[120.127283,-4.11198],[120.127687,-4.109794],[120.128011,-4.109077],[120.129062,-4.10948],[120.129206,-4.109015],[120.129331,-4.109006],[120.130194,-4.109445]]]}},{"type":"Feature","properties":{"FID":22,"REMARK":"Danau/Situ","wilayah_kecamatan_kode":["73.13.01","73.13.06","73.13.07","73.13.08"],"wilayah_desa_kode":["73.13.01.2006","73.13.01.2008","73.13.01.2010","73.13.01.2014","73.13.06.1003","73.13.06.1006","73.13.06.1007","73.13.07.1003","73.13.07.2007","73.13.07.2009","73.13.08.1001","73.13.08.2005","73.13.08.2008","73.13.08.2012","73.13.08.2013","73.13.08.2014"],"pemetaan_wilayah":"terpetakan"},"geometry":{"type":"Polygon","coordinates":[[[120.006972,-4.041094],[120.007628,-4.041435],[120.007915,-4.041802],[120.008328,-4.042895],[120.008328,-4.04329],[120.007861,-4.044213],[120.006469,-4.044921],[120.006047,-4.045207],[120.005894,-4.045548],[120.005903,-4.046274],[120.006406,-4.047698],[120.006388,-4.048299],[120.006352,-4.048559],[120.005319,-4.049903],[120.005418,-4.050494],[120.005553,-4.050727],[120.006316,-4.050826],[120.006882,-4.050494],[120.007753,-4.049401],[120.008472,-4.049293],[120.009343,-4.050001],[120.011472,-4.050154],[120.012164,-4.050467],[120.012928,-4.051838],[120.013772,-4.052591],[120.014024,-4.053003],[120.014104,-4.053783],[120.013763,-4.054939],[120.013826,-4.055306],[120.014832,-4.056668],[120.015138,-4.057412],[120.014922,-4.05932],[120.014967,-4.060539],[120.01512,-4.060933],[120.015748,-4.061319],[120.017033,-4.061552],[120.017437,-4.061794],[120.017572,-4.062053],[120.017455,-4.062779],[120.017087,-4.063577],[120.016826,-4.065342],[120.016458,-4.066677],[120.015147,-4.068272],[120.014203,-4.06958],[120.014176,-4.069849],[120.014679,-4.070064],[120.015515,-4.069786],[120.016233,-4.06976],[120.016871,-4.0701],[120.016979,-4.070826],[120.016287,-4.073702],[120.01626,-4.074285],[120.016575,-4.075557],[120.015811,-4.078102],[120.015766,-4.079276],[120.015865,-4.07941],[120.016207,-4.079338],[120.016656,-4.078801],[120.01688,-4.078774],[120.016799,-4.079437],[120.016153,-4.080799],[120.016871,-4.080629],[120.018255,-4.079804],[120.018605,-4.079786],[120.018857,-4.08001],[120.019009,-4.080449],[120.019234,-4.081704],[120.018803,-4.083944],[120.019099,-4.085351],[120.018946,-4.086686],[120.019153,-4.086677],[120.019261,-4.09001],[120.019917,-4.091103],[120.020123,-4.091829],[120.0198,-4.096049],[120.019458,-4.097071],[120.019773,-4.098074],[120.018713,-4.100072],[120.019063,-4.100708],[120.019144,-4.101327],[120.01883,-4.102483],[120.016853,-4.101855],[120.013395,-4.100404],[120.013009,-4.100404],[120.013098,-4.100601],[120.016862,-4.102115],[120.017922,-4.10276],[120.018964,-4.103199],[120.019117,-4.103459],[120.018866,-4.103809],[120.018237,-4.104086],[120.018389,-4.106998],[120.017904,-4.107859],[120.017779,-4.109633],[120.017455,-4.110869],[120.016602,-4.112124],[120.016296,-4.112159],[120.015695,-4.111909],[120.015443,-4.111461],[120.014221,-4.11035],[120.013799,-4.109687],[120.013116,-4.109301],[120.014122,-4.111873],[120.014329,-4.113575],[120.013979,-4.114498],[120.012793,-4.115125],[120.012631,-4.115797],[120.01291,-4.116586],[120.013988,-4.11758],[120.014069,-4.1181],[120.013826,-4.118763],[120.013395,-4.119417],[120.012416,-4.119749],[120.009397,-4.11965],[120.007223,-4.1187],[120.006316,-4.118772],[120.006074,-4.119041],[120.00628,-4.119946],[120.007762,-4.121469],[120.008822,-4.122069],[120.012299,-4.123234],[120.012847,-4.123664],[120.012676,-4.124211],[120.010044,-4.123772],[120.00443,-4.124103],[120.003918,-4.124049],[120.00231,-4.123368],[120.000001,-4.123082],[119.999013,-4.123422],[119.997719,-4.124399],[119.996965,-4.124712],[119.993389,-4.124775],[119.987451,-4.123234],[119.980472,-4.122284],[119.977489,-4.122239],[119.97642,-4.122526],[119.976052,-4.12284],[119.975306,-4.125241],[119.975648,-4.127158],[119.977354,-4.131862],[119.978334,-4.132964],[119.979591,-4.133825],[119.981352,-4.134729],[119.982978,-4.135876],[119.984945,-4.136745],[119.986823,-4.137184],[119.994279,-4.138376],[119.99595,-4.13912],[119.99701,-4.139944],[119.99736,-4.140589],[119.996623,-4.141449],[119.995509,-4.141835],[119.993488,-4.142265],[119.991476,-4.142354],[119.99011,-4.142587],[119.988494,-4.143107],[119.987883,-4.143537],[119.986841,-4.146099],[119.98596,-4.147067],[119.984083,-4.148106],[119.982277,-4.148787],[119.979241,-4.150982],[119.978046,-4.152909],[119.977768,-4.153751],[119.980076,-4.156412],[119.98084,-4.157675],[119.980921,-4.158473],[119.980633,-4.159064],[119.979798,-4.16004],[119.977184,-4.161599],[119.976833,-4.161922],[119.9766,-4.162522],[119.976564,-4.163302],[119.976815,-4.164798],[119.978019,-4.167799],[119.978154,-4.168462],[119.977687,-4.169905],[119.977211,-4.170299],[119.976285,-4.17081],[119.975091,-4.170998],[119.968695,-4.171025],[119.964535,-4.170084],[119.961508,-4.168848],[119.958651,-4.168131],[119.956891,-4.167952],[119.955759,-4.168095],[119.95398,-4.168785],[119.952561,-4.169663],[119.951115,-4.171383],[119.950225,-4.172073],[119.949264,-4.172449],[119.946524,-4.172288],[119.945518,-4.172834],[119.944988,-4.173399],[119.943443,-4.175943],[119.943227,-4.176185],[119.94259,-4.176123],[119.942374,-4.1764],[119.942374,-4.17718],[119.941916,-4.178479],[119.941718,-4.181444],[119.94144,-4.181892],[119.940766,-4.182089],[119.939922,-4.182],[119.939517,-4.18114],[119.939338,-4.1783],[119.938969,-4.17744],[119.938188,-4.17675],[119.937397,-4.176463],[119.936445,-4.176338],[119.934702,-4.176535],[119.932268,-4.17735],[119.930714,-4.177619],[119.92942,-4.177413],[119.926483,-4.176131],[119.92448,-4.175692],[119.92342,-4.176149],[119.922755,-4.176732],[119.922422,-4.176615],[119.922243,-4.176705],[119.921201,-4.178613],[119.920428,-4.179142],[119.919332,-4.179823],[119.918452,-4.180083],[119.917922,-4.179876],[119.917769,-4.179545],[119.917859,-4.178801],[119.918173,-4.17795],[119.919305,-4.177189],[119.919395,-4.176848],[119.920069,-4.176329],[119.920168,-4.176087],[119.920141,-4.174734],[119.92041,-4.173148],[119.920761,-4.173032],[119.921129,-4.172494],[119.921443,-4.171553],[119.921722,-4.171213],[119.924093,-4.170003],[119.924614,-4.16943],[119.924605,-4.168579],[119.922988,-4.165721],[119.922899,-4.165318],[119.92306,-4.16383],[119.923554,-4.161393],[119.924399,-4.158768],[119.924857,-4.15841],[119.925953,-4.158042],[119.926384,-4.157693],[119.92677,-4.156501],[119.926447,-4.155184],[119.926501,-4.15479],[119.92677,-4.154432],[119.927857,-4.153957],[119.928926,-4.152649],[119.929088,-4.15135],[119.928217,-4.149495],[119.928019,-4.148778],[119.928181,-4.147461],[119.928774,-4.146511],[119.929205,-4.146592],[119.929375,-4.146404],[119.929348,-4.145974],[119.92978,-4.145535],[119.93066,-4.143868],[119.932349,-4.142793],[119.933436,-4.142784],[119.93384,-4.1417],[119.934666,-4.140831],[119.934783,-4.139693],[119.933463,-4.133825],[119.932672,-4.132391],[119.931271,-4.130984],[119.930822,-4.129327],[119.929277,-4.127526],[119.92872,-4.12723],[119.927417,-4.12697],[119.925746,-4.125501],[119.923321,-4.123673],[119.922638,-4.123037],[119.922638,-4.122428],[119.922485,-4.122141],[119.922189,-4.122114],[119.921812,-4.121218],[119.921219,-4.120618],[119.920482,-4.120259],[119.916754,-4.119525],[119.91538,-4.118539],[119.914508,-4.11758],[119.913278,-4.11681],[119.910358,-4.116407],[119.908759,-4.11603],[119.907987,-4.114955],[119.906971,-4.112715],[119.906334,-4.111944],[119.905534,-4.111299],[119.903549,-4.11086],[119.901043,-4.110726],[119.899363,-4.110385],[119.898267,-4.109928],[119.896946,-4.108423],[119.895868,-4.105816],[119.895482,-4.102832],[119.895141,-4.096802],[119.895177,-4.090655],[119.895419,-4.085378],[119.896192,-4.080458],[119.896542,-4.078586],[119.897404,-4.076776],[119.898204,-4.075862],[119.899974,-4.0751],[119.90654,-4.07355],[119.907223,-4.072824],[119.908175,-4.069437],[119.909388,-4.069831],[119.911077,-4.070736],[119.912262,-4.071139],[119.913448,-4.071283],[119.914634,-4.071104],[119.915766,-4.070593],[119.916458,-4.070441],[119.917545,-4.070566],[119.919368,-4.071337],[119.920698,-4.073066],[119.924075,-4.076785],[119.927291,-4.079921],[119.931783,-4.082967],[119.933355,-4.083747],[119.938071,-4.084069],[119.941179,-4.085198],[119.944162,-4.085736],[119.945599,-4.086632],[119.947584,-4.088236],[119.949048,-4.088809],[119.951195,-4.09079],[119.95177,-4.091076],[119.952624,-4.09113],[119.953666,-4.090807],[119.955912,-4.088827],[119.956684,-4.088514],[119.958984,-4.088451],[119.959568,-4.088137],[119.960511,-4.08725],[119.96158,-4.087143],[119.962496,-4.087537],[119.963466,-4.087644],[119.964859,-4.087528],[119.966521,-4.086605],[119.968901,-4.084499],[119.970033,-4.08372],[119.971237,-4.083182],[119.972504,-4.08234],[119.972827,-4.081641],[119.972989,-4.078792],[119.973312,-4.077725],[119.973716,-4.076955],[119.975046,-4.075127],[119.97536,-4.073819],[119.975234,-4.072761],[119.974417,-4.070602],[119.974399,-4.06924],[119.974893,-4.067331],[119.975441,-4.066059],[119.976672,-4.064195],[119.977552,-4.062179],[119.977992,-4.06157],[119.978837,-4.060906],[119.97996,-4.060512],[119.982187,-4.060512],[119.982978,-4.06036],[119.983813,-4.059993],[119.98526,-4.059885],[119.985861,-4.060001],[119.988035,-4.061337],[119.989805,-4.062116],[119.993317,-4.061489],[119.994584,-4.061355],[119.996075,-4.061399],[119.998141,-4.062062],[120.000001,-4.063398],[120.000666,-4.063648],[120.0008,-4.064356],[120.000971,-4.064553],[120.001438,-4.064562],[120.001654,-4.064374],[120.001807,-4.063433],[120.000477,-4.061677],[120.000378,-4.060862],[120.000468,-4.060709],[120.001259,-4.060718],[120.001357,-4.060118],[120.000585,-4.059571],[120.000477,-4.058917],[120.000872,-4.058451],[120.00142,-4.058209],[120.001798,-4.057842],[120.001789,-4.057573],[120.001312,-4.056928],[120.001321,-4.056399],[120.001609,-4.056005],[120.002831,-4.055279],[120.003127,-4.054464],[120.002301,-4.053191],[120.002417,-4.051471],[120.001798,-4.050924],[120.001501,-4.05027],[120.001088,-4.049939],[120.001205,-4.049473],[120.001061,-4.047806],[120.001232,-4.047062],[120.001708,-4.046086],[120.00178,-4.045476],[120.001672,-4.044768],[120.000962,-4.043227],[120.001025,-4.0426],[120.001564,-4.041605],[120.002292,-4.041094],[120.004475,-4.041274],[120.006972,-4.041094]]]}},{"type":"Feature","properties":{"FID":23,"REMARK":"Danau/Situ","wilayah_kecamatan_kode":["73.13.07"],"wilayah_desa_kode":["73.13.07.1002"],"pemetaan_wilayah":"terpetakan"},"geometry":{"type":"Polygon","coordinates":[[[119.99683,-3.993171],[119.996722,-3.993502],[119.997216,-3.993735],[119.997342,-3.994255],[119.997306,-3.994595],[119.996947,-3.994568],[119.996911,-3.994721],[119.997315,-3.994793],[119.997333,-3.994909],[119.99674,-3.995474],[119.995797,-3.995438],[119.995698,-3.995097],[119.996444,-3.994192],[119.996021,-3.994147],[119.996093,-3.994327],[119.995941,-3.994658],[119.995644,-3.994784],[119.995581,-3.994981],[119.995527,-3.994649],[119.995123,-3.994353],[119.995689,-3.993932],[119.995833,-3.994192],[119.996012,-3.994129],[119.995985,-3.993834],[119.996165,-3.993717],[119.996336,-3.993941],[119.996542,-3.993923],[119.996569,-3.993197],[119.99683,-3.993171]]]}},{"type":"Feature","properties":{"FID":24,"REMARK":"Danau/Situ","wilayah_kecamatan_kode":["73.13.04"],"wilayah_desa_kode":["73.13.04.2007"],"pemetaan_wilayah":"terpetakan"},"geometry":{"type":"Polygon","coordinates":[[[120.26954,-3.994183],[120.268516,-3.993717],[120.268633,-3.992669],[120.268849,-3.992642],[120.269091,-3.992946],[120.26963,-3.993126],[120.26954,-3.994183]]]}},{"type":"Feature","properties":{"FID":25,"REMARK":"Danau/Situ","wilayah_kecamatan_kode":["73.13.05"],"wilayah_desa_kode":["73.13.05.1003"],"pemetaan_wilayah":"terpetakan"},"geometry":{"type":"Polygon","coordinates":[[[120.115201,-3.986709],[120.11494,-3.986593],[120.115057,-3.98619],[120.115668,-3.986369],[120.115641,-3.986539],[120.115201,-3.986709]]]}},{"type":"Feature","properties":{"FID":26,"REMARK":"Danau/Situ","wilayah_kecamatan_kode":["73.13.05"],"wilayah_desa_kode":["73.13.05.1003"],"pemetaan_wilayah":"terpetakan"},"geometry":{"type":"Polygon","coordinates":[[[120.106137,-3.985876],[120.105966,-3.985813],[120.105957,-3.985293],[120.10611,-3.985222],[120.106469,-3.9855],[120.106137,-3.985876]]]}},{"type":"Feature","properties":{"FID":27,"REMARK":"Danau/Situ","wilayah_kecamatan_kode":["73.13.07","73.13.08","73.13.09"],"wilayah_desa_kode":["73.13.07.1002","73.13.07.2006","73.13.08.2019","73.13.09.1002","73.13.09.1003"],"pemetaan_wilayah":"terpetakan"},"geometry":{"type":"Polygon","coordinates":[[[120.011967,-3.979522],[120.013799,-3.979495],[120.015111,-3.979773],[120.015344,-3.980015],[120.015524,-3.981046],[120.015811,-3.98135],[120.017725,-3.982291],[120.019243,-3.982766],[120.020734,-3.984361],[120.022513,-3.985795],[120.02271,-3.986288],[120.022791,-3.987166],[120.022405,-3.988036],[120.022944,-3.98877],[120.022899,-3.98903],[120.022504,-3.989505],[120.022468,-3.989962],[120.022728,-3.990312],[120.023429,-3.990392],[120.023528,-3.990823],[120.022791,-3.992247],[120.022612,-3.993332],[120.022279,-3.993377],[120.022189,-3.993547],[120.023312,-3.994828],[120.023663,-3.996818],[120.024094,-3.997804],[120.024112,-3.998431],[120.024767,-3.999049],[120.024678,-3.999282],[120.02404,-3.99973],[120.022459,-3.999784],[120.022135,-3.999999],[120.021713,-4.001039],[120.020824,-4.001953],[120.020788,-4.002419],[120.020339,-4.002741],[120.01997,-4.003566],[120.019872,-4.004309],[120.018668,-4.0056],[120.018228,-4.007069],[120.017617,-4.007231],[120.017114,-4.008288],[120.016323,-4.009166],[120.016117,-4.009874],[120.014661,-4.009641],[120.014841,-4.008306],[120.014617,-4.007311],[120.014338,-4.006792],[120.014284,-4.006191],[120.012892,-4.004748],[120.012982,-4.003037],[120.012137,-4.001845],[120.011984,-4.001675],[120.011553,-4.001702],[120.01017,-4.002607],[120.009757,-4.002607],[120.008661,-4.001863],[120.008247,-4.000689],[120.008328,-3.999757],[120.00893,-3.999157],[120.010206,-3.99844],[120.010125,-3.997418],[120.010583,-3.996603],[120.011068,-3.996522],[120.011967,-3.996988],[120.013161,-3.997024],[120.013592,-3.996818],[120.013736,-3.99628],[120.01361,-3.995814],[120.011787,-3.99361],[120.011284,-3.993395],[120.010673,-3.993395],[120.010008,-3.993636],[120.009352,-3.99499],[120.008535,-3.995895],[120.008194,-3.997248],[120.00796,-3.997418],[120.007143,-3.997338],[120.006613,-3.998323],[120.005687,-3.998673],[120.005166,-3.999166],[120.005184,-3.999506],[120.005517,-3.999838],[120.005355,-4.00016],[120.005418,-4.000564],[120.006029,-4.001182],[120.005822,-4.001666],[120.005921,-4.002392],[120.005508,-4.002795],[120.005274,-4.002499],[120.005005,-4.002786],[120.004088,-4.002652],[120.004133,-4.002508],[120.004915,-4.002428],[120.004933,-4.001648],[120.004097,-4.001505],[120.004403,-4.001092],[120.004259,-4.000841],[120.003361,-4.000357],[120.002004,-3.9999],[120.00133,-3.999829],[120.000818,-3.999981],[119.999893,-4.001289],[119.999192,-4.001245],[119.998905,-4.000474],[119.999354,-3.998592],[119.999273,-3.99783],[119.998977,-3.996979],[119.99798,-3.995922],[119.99807,-3.995724],[119.998366,-3.995742],[119.998797,-3.99542],[119.99895,-3.994568],[119.999489,-3.995025],[119.999444,-3.99559],[119.999785,-3.995491],[119.999929,-3.995626],[120.000136,-3.995491],[119.999893,-3.995187],[119.999713,-3.995187],[120.00001,-3.994999],[119.999947,-3.994577],[119.999597,-3.99438],[119.999399,-3.993932],[119.998788,-3.993493],[119.998707,-3.992946],[119.99913,-3.993171],[119.999453,-3.992866],[119.999785,-3.992875],[120.000522,-3.992445],[120.001995,-3.992113],[120.002049,-3.991593],[120.001834,-3.990993],[120.002265,-3.990079],[120.002319,-3.988815],[120.003082,-3.987597],[120.003019,-3.987095],[120.002687,-3.986682],[120.002426,-3.985966],[120.002426,-3.98498],[120.002885,-3.983886],[120.003415,-3.983313],[120.005445,-3.982121],[120.006801,-3.981664],[120.007196,-3.981315],[120.00787,-3.980132],[120.008382,-3.979773],[120.01114,-3.979307],[120.011967,-3.979522]]]}},{"type":"Feature","properties":{"FID":28,"REMARK":"Danau/Situ","wilayah_kecamatan_kode":["73.13.05","73.13.13"],"wilayah_desa_kode":["73.13.05.1003","73.13.13.2005"],"pemetaan_wilayah":"terpetakan"},"geometry":{"type":"Polygon","coordinates":[[[120.127319,-3.976377],[120.126843,-3.976233],[120.126978,-3.975024],[120.127283,-3.974997],[120.127409,-3.975158],[120.127247,-3.975749],[120.127319,-3.976377]]]}},{"type":"Feature","properties":{"FID":29,"REMARK":"Danau/Situ","wilayah_kecamatan_kode":["73.13.05","73.13.09","73.13.13"],"wilayah_desa_kode":["73.13.05.1003","73.13.09.1001","73.13.13.2005"],"pemetaan_wilayah":"terpetakan"},"geometry":{"type":"Polygon","coordinates":[[[120.10417,-3.960273],[120.103864,-3.960577],[120.104035,-3.960882],[120.104188,-3.960936],[120.104502,-3.960622],[120.104511,-3.961187],[120.104798,-3.961384],[120.105517,-3.961052],[120.105688,-3.961438],[120.106173,-3.961698],[120.106155,-3.962074],[120.106784,-3.962271],[120.106613,-3.962594],[120.107224,-3.962916],[120.10743,-3.963257],[120.106631,-3.963051],[120.106191,-3.962415],[120.105724,-3.96211],[120.105562,-3.962146],[120.105508,-3.962343],[120.105292,-3.962092],[120.104313,-3.961922],[120.103864,-3.962531],[120.104008,-3.963875],[120.103855,-3.963893],[120.10355,-3.963391],[120.103604,-3.962549],[120.103316,-3.962441],[120.103577,-3.962002],[120.103199,-3.961088],[120.102939,-3.961106],[120.102211,-3.961689],[120.102041,-3.961626],[120.102831,-3.960291],[120.103172,-3.960192],[120.103676,-3.960309],[120.104232,-3.960076],[120.10417,-3.960273]]]}},{"type":"Feature","properties":{"FID":30,"REMARK":"Danau/Situ","wilayah_kecamatan_kode":["73.13.07"],"wilayah_desa_kode":["73.13.07.2005"],"pemetaan_wilayah":"terpetakan"},"geometry":{"type":"MultiPolygon","coordinates":[[[[119.895572,-3.998458],[119.895662,-3.998511],[119.894907,-3.998269],[119.894745,-3.997579],[119.895105,-3.998243],[119.895572,-3.998458]]],[[[119.898878,-3.979594],[119.898878,-3.979773],[119.898581,-3.979074],[119.898114,-3.978922],[119.89806,-3.978599],[119.897539,-3.978169],[119.897566,-3.97782],[119.897845,-3.977551],[119.898563,-3.977497],[119.89877,-3.977649],[119.898572,-3.978124],[119.898878,-3.979594]]],[[[119.898815,-3.973742],[119.898734,-3.973473],[119.898312,-3.973151],[119.898204,-3.972765],[119.897602,-3.972371],[119.897332,-3.971887],[119.898455,-3.972219],[119.898815,-3.973742]]],[[[119.898267,-3.968016],[119.898186,-3.968222],[119.898033,-3.967666],[119.898204,-3.967424],[119.898267,-3.968016]]]]}},{"type":"Feature","properties":{"FID":31,"REMARK":"Danau/Situ","wilayah_kecamatan_kode":["73.13.04"],"wilayah_desa_kode":["73.13.04.2007"],"pemetaan_wilayah":"terpetakan"},"geometry":{"type":"Polygon","coordinates":[[[120.271095,-3.949922],[120.270187,-3.949886],[120.269963,-3.949133],[120.270115,-3.948569],[120.270349,-3.948551],[120.270879,-3.949178],[120.271095,-3.949922]]]}},{"type":"Feature","properties":{"FID":32,"REMARK":"Danau/Situ","wilayah_kecamatan_kode":["73.13.13"],"wilayah_desa_kode":["73.13.13.2001"],"pemetaan_wilayah":"terpetakan"},"geometry":{"type":"Polygon","coordinates":[[[120.204637,-3.934767],[120.204484,-3.934785],[120.204314,-3.934463],[120.204709,-3.934086],[120.204979,-3.934032],[120.204934,-3.934642],[120.204637,-3.934767]]]}},{"type":"Feature","properties":{"FID":33,"REMARK":"Danau/Situ","wilayah_kecamatan_kode":["73.13.13"],"wilayah_desa_kode":["73.13.13.2009"],"pemetaan_wilayah":"terpetakan"},"geometry":{"type":"Polygon","coordinates":[[[120.170178,-3.933862],[120.170052,-3.933746],[120.170241,-3.933405],[120.170313,-3.933629],[120.170178,-3.933862]]]}},{"type":"Feature","properties":{"FID":34,"REMARK":"Danau/Situ","wilayah_kecamatan_kode":["73.13.13"],"wilayah_desa_kode":["73.13.13.2009"],"pemetaan_wilayah":"terpetakan"},"geometry":{"type":"Polygon","coordinates":[[[120.168812,-3.932186],[120.168543,-3.932052],[120.168678,-3.93172],[120.168839,-3.931774],[120.168812,-3.932186]]]}},{"type":"Feature","properties":{"FID":35,"REMARK":"Danau/Situ","wilayah_kecamatan_kode":["73.13.13"],"wilayah_desa_kode":["73.13.13.2001","73.13.13.2007"],"pemetaan_wilayah":"terpetakan"},"geometry":{"type":"Polygon","coordinates":[[[120.201143,-3.932079],[120.201978,-3.932249],[120.202113,-3.932509],[120.201987,-3.932894],[120.201547,-3.933262],[120.200819,-3.933244],[120.200685,-3.93397],[120.199616,-3.933593],[120.19975,-3.933002],[120.200002,-3.9331],[120.200191,-3.932392],[120.200819,-3.932133],[120.200756,-3.931586],[120.201143,-3.932079]]]}},{"type":"Feature","properties":{"FID":36,"REMARK":"Danau/Situ","wilayah_kecamatan_kode":["73.13.13"],"wilayah_desa_kode":["73.13.13.2003"],"pemetaan_wilayah":"terpetakan"},"geometry":{"type":"Polygon","coordinates":[[[120.156371,-3.930519],[120.156335,-3.930152],[120.15655,-3.930295],[120.156371,-3.930519]]]}},{"type":"Feature","properties":{"FID":37,"REMARK":"Danau/Situ","wilayah_kecamatan_kode":["73.13.13"],"wilayah_desa_kode":["73.13.13.2003"],"pemetaan_wilayah":"terpetakan"},"geometry":{"type":"Polygon","coordinates":[[[120.162578,-3.927347],[120.162273,-3.927266],[120.162048,-3.926917],[120.162614,-3.9268],[120.162578,-3.927347]]]}},{"type":"Feature","properties":{"FID":38,"REMARK":"Danau/Situ","wilayah_kecamatan_kode":["73.13.13"],"wilayah_desa_kode":["73.13.13.2008"],"pemetaan_wilayah":"terpetakan"},"geometry":{"type":"Polygon","coordinates":[[[120.151655,-3.917757],[120.151502,-3.91773],[120.151717,-3.917408],[120.152086,-3.917596],[120.151655,-3.917757]]]}},{"type":"Feature","properties":{"FID":39,"REMARK":"Danau/Situ","wilayah_kecamatan_kode":["73.13.13"],"wilayah_desa_kode":["73.13.13.2004"],"pemetaan_wilayah":"terpetakan"},"geometry":{"type":"Polygon","coordinates":[[[120.230239,-3.904574],[120.230113,-3.904422],[120.230275,-3.904314],[120.230365,-3.904457],[120.230239,-3.904574]]]}},{"type":"Feature","properties":{"FID":40,"REMARK":"Danau/Situ","wilayah_kecamatan_kode":["73.13.13"],"wilayah_desa_kode":["73.13.13.2004"],"pemetaan_wilayah":"terpetakan"},"geometry":{"type":"Polygon","coordinates":[[[120.223223,-3.903687],[120.223466,-3.903633],[120.223151,-3.903991],[120.222792,-3.90348],[120.223223,-3.903687]]]}},{"type":"Feature","properties":{"FID":41,"REMARK":"Danau/Situ","wilayah_kecamatan_kode":["73.13.09"],"wilayah_desa_kode":["73.13.09.2007"],"pemetaan_wilayah":"terpetakan"},"geometry":{"type":"Polygon","coordinates":[[[120.16742,-3.899878],[120.167115,-3.899788],[120.167366,-3.899707],[120.16742,-3.899878]]]}},{"type":"Feature","properties":{"FID":42,"REMARK":"Danau/Situ","wilayah_kecamatan_kode":["73.13.09"],"wilayah_desa_kode":["73.13.09.2007"],"pemetaan_wilayah":"terpetakan"},"geometry":{"type":"Polygon","coordinates":[[[120.164168,-3.900066],[120.163602,-3.900003],[120.16353,-3.899716],[120.164069,-3.89968],[120.164258,-3.899931],[120.164168,-3.900066]]]}},{"type":"Feature","properties":{"FID":43,"REMARK":"Danau/Situ","wilayah_kecamatan_kode":["73.13.13"],"wilayah_desa_kode":["73.13.13.2004"],"pemetaan_wilayah":"terpetakan"},"geometry":{"type":"Polygon","coordinates":[[[120.235638,-3.886398],[120.23527,-3.8869],[120.235108,-3.886748],[120.235117,-3.886479],[120.234659,-3.886452],[120.234578,-3.8863],[120.234937,-3.886183],[120.235216,-3.885753],[120.235647,-3.8856],[120.235997,-3.885878],[120.235638,-3.886398]]]}},{"type":"Feature","properties":{"FID":44,"REMARK":"Danau/Situ","wilayah_kecamatan_kode":[],"wilayah_desa_kode":[],"pemetaan_wilayah":"belum_terpetakan"},"geometry":{"type":"Polygon","coordinates":[[[120.045069,-3.882257],[120.045033,-3.881809],[120.045474,-3.881773],[120.045474,-3.882087],[120.045069,-3.882257]]]}},{"type":"Feature","properties":{"FID":45,"REMARK":"Danau/Situ","wilayah_kecamatan_kode":["73.13.14"],"wilayah_desa_kode":["73.13.14.2007"],"pemetaan_wilayah":"terpetakan"},"geometry":{"type":"Polygon","coordinates":[[[120.325694,-3.879013],[120.32529,-3.878699],[120.325425,-3.87835],[120.325793,-3.878547],[120.325694,-3.879013]]]}},{"type":"Feature","properties":{"FID":46,"REMARK":"Danau/Situ","wilayah_kecamatan_kode":["73.13.09"],"wilayah_desa_kode":["73.13.09.2007"],"pemetaan_wilayah":"terpetakan"},"geometry":{"type":"Polygon","coordinates":[[[120.127427,-3.876315],[120.127193,-3.876163],[120.12731,-3.875213],[120.127544,-3.875831],[120.127427,-3.876315]]]}},{"type":"Feature","properties":{"FID":47,"REMARK":"Danau/Situ","wilayah_kecamatan_kode":["73.13.09"],"wilayah_desa_kode":["73.13.09.2007"],"pemetaan_wilayah":"terpetakan"},"geometry":{"type":"Polygon","coordinates":[[[120.122037,-3.874406],[120.121723,-3.874326],[120.121929,-3.873877],[120.122109,-3.873967],[120.122037,-3.874406]]]}},{"type":"Feature","properties":{"FID":48,"REMARK":"Danau/Situ","wilayah_kecamatan_kode":["73.13.09"],"wilayah_desa_kode":["73.13.09.2007"],"pemetaan_wilayah":"terpetakan"},"geometry":{"type":"Polygon","coordinates":[[[120.122154,-3.873689],[120.121875,-3.873635],[120.122271,-3.87299],[120.122154,-3.873689]]]}},{"type":"Feature","properties":{"FID":49,"REMARK":"Danau/Situ","wilayah_kecamatan_kode":["73.13.14"],"wilayah_desa_kode":["73.13.14.2004"],"pemetaan_wilayah":"terpetakan"},"geometry":{"type":"Polygon","coordinates":[[[120.301871,-3.873008],[120.301736,-3.873008],[120.301718,-3.872488],[120.301979,-3.872703],[120.301871,-3.873008]]]}},{"type":"Feature","properties":{"FID":50,"REMARK":"Danau/Situ","wilayah_kecamatan_kode":["73.13.09"],"wilayah_desa_kode":["73.13.09.2006"],"pemetaan_wilayah":"terpetakan"},"geometry":{"type":"Polygon","coordinates":[[[120.049444,-3.87273],[120.049094,-3.872587],[120.049175,-3.872112],[120.049399,-3.872112],[120.049875,-3.87256],[120.049444,-3.87273]]]}},{"type":"Feature","properties":{"FID":51,"REMARK":"Danau/Situ","wilayah_kecamatan_kode":["73.13.09"],"wilayah_desa_kode":["73.13.09.2006"],"pemetaan_wilayah":"terpetakan"},"geometry":{"type":"Polygon","coordinates":[[[120.102112,-3.855244],[120.101852,-3.855065],[120.101915,-3.854724],[120.102139,-3.854634],[120.102562,-3.854769],[120.102112,-3.855244]]]}},{"type":"Feature","properties":{"FID":52,"REMARK":"Danau/Situ","wilayah_kecamatan_kode":["73.13.09"],"wilayah_desa_kode":["73.13.09.2006"],"pemetaan_wilayah":"terpetakan"},"geometry":{"type":"MultiPolygon","coordinates":[[[[120.067464,-3.853586],[120.067384,-3.853604],[120.06777,-3.853272],[120.067464,-3.853586]]],[[[120.071767,-3.853442],[120.072046,-3.852985],[120.072324,-3.852994],[120.072387,-3.852752],[120.072747,-3.85277],[120.072944,-3.852259],[120.073088,-3.852223],[120.073465,-3.852349],[120.073384,-3.852976],[120.073995,-3.853272],[120.073968,-3.853595],[120.076151,-3.854204],[120.076277,-3.854634],[120.076142,-3.854796],[120.074094,-3.855253],[120.074121,-3.855486],[120.074956,-3.855522],[120.074813,-3.855764],[120.075037,-3.855943],[120.075927,-3.855701],[120.07651,-3.855136],[120.076888,-3.855244],[120.077418,-3.855154],[120.077966,-3.85476],[120.078639,-3.854599],[120.079699,-3.854034],[120.080346,-3.85398],[120.081227,-3.85415],[120.081101,-3.854339],[120.080346,-3.85459],[120.080005,-3.854859],[120.079394,-3.85485],[120.079134,-3.855343],[120.07872,-3.855701],[120.078451,-3.855746],[120.077984,-3.855549],[120.077526,-3.855692],[120.077858,-3.855809],[120.077894,-3.856024],[120.077112,-3.856472],[120.076726,-3.856526],[120.076313,-3.856364],[120.076771,-3.85744],[120.07722,-3.857987],[120.077166,-3.858139],[120.076439,-3.857691],[120.076196,-3.857063],[120.075882,-3.856965],[120.075729,-3.857019],[120.075666,-3.85744],[120.075361,-3.857897],[120.075379,-3.85822],[120.075109,-3.858238],[120.074777,-3.857754],[120.074849,-3.857243],[120.074705,-3.856723],[120.074283,-3.856337],[120.07333,-3.856319],[120.072531,-3.85718],[120.072612,-3.857897],[120.073169,-3.858874],[120.073142,-3.85908],[120.072747,-3.859116],[120.072747,-3.859232],[120.073842,-3.860075],[120.074058,-3.861115],[120.074022,-3.861957],[120.074525,-3.861563],[120.074372,-3.862262],[120.075388,-3.864001],[120.075873,-3.864377],[120.076214,-3.864413],[120.077373,-3.863248],[120.07802,-3.863203],[120.078972,-3.862818],[120.079134,-3.862871],[120.07908,-3.863095],[120.078415,-3.863678],[120.078451,-3.864951],[120.077337,-3.865058],[120.077256,-3.865246],[120.077409,-3.865479],[120.079196,-3.865318],[120.0789,-3.866035],[120.078217,-3.866125],[120.078047,-3.866824],[120.07722,-3.867173],[120.077283,-3.867604],[120.077651,-3.867872],[120.079017,-3.867917],[120.078442,-3.86833],[120.078361,-3.868948],[120.079295,-3.869136],[120.080553,-3.8691],[120.080912,-3.868894],[120.081819,-3.869154],[120.082152,-3.868984],[120.08208,-3.868437],[120.082367,-3.868715],[120.082421,-3.869199],[120.083077,-3.869047],[120.083769,-3.86945],[120.084101,-3.869226],[120.083886,-3.868545],[120.084514,-3.868025],[120.0842,-3.868527],[120.084461,-3.868912],[120.084371,-3.86945],[120.084119,-3.869477],[120.083868,-3.869979],[120.082978,-3.86954],[120.082664,-3.870006],[120.082242,-3.869934],[120.081766,-3.87049],[120.079762,-3.870767],[120.079053,-3.871126],[120.079268,-3.871744],[120.080679,-3.872542],[120.082116,-3.872157],[120.083436,-3.872345],[120.083922,-3.87256],[120.08482,-3.872336],[120.084595,-3.872954],[120.084703,-3.873151],[120.084919,-3.873313],[120.085952,-3.873411],[120.086356,-3.873053],[120.086347,-3.872461],[120.086518,-3.872685],[120.087407,-3.872811],[120.087218,-3.872282],[120.087623,-3.871242],[120.087093,-3.870839],[120.087685,-3.870893],[120.088027,-3.870301],[120.088314,-3.871063],[120.089752,-3.871511],[120.090246,-3.871216],[120.090012,-3.870875],[120.090282,-3.870194],[120.090246,-3.870785],[120.09047,-3.871225],[120.089904,-3.871915],[120.089958,-3.872166],[120.090371,-3.872022],[120.091809,-3.871977],[120.091629,-3.872309],[120.092276,-3.872936],[120.094001,-3.872712],[120.094333,-3.873035],[120.093516,-3.872972],[120.092923,-3.87325],[120.092078,-3.87325],[120.091216,-3.87239],[120.090857,-3.872381],[120.090219,-3.872659],[120.089859,-3.872587],[120.089428,-3.872291],[120.089204,-3.871753],[120.088683,-3.87161],[120.088584,-3.871942],[120.088988,-3.873295],[120.089419,-3.873725],[120.089302,-3.873949],[120.089392,-3.87463],[120.088817,-3.875383],[120.089302,-3.87541],[120.089302,-3.875562],[120.088763,-3.875795],[120.088512,-3.876118],[120.088611,-3.875795],[120.088287,-3.875159],[120.088557,-3.875078],[120.088772,-3.874675],[120.088701,-3.874209],[120.088198,-3.87377],[120.087416,-3.874021],[120.086994,-3.874523],[120.0865,-3.874801],[120.086491,-3.875204],[120.086248,-3.875446],[120.086383,-3.876199],[120.086652,-3.876387],[120.086805,-3.876763],[120.086455,-3.876378],[120.086338,-3.87645],[120.086446,-3.876611],[120.086095,-3.876486],[120.08579,-3.876584],[120.08579,-3.87602],[120.084739,-3.8755],[120.084101,-3.875589],[120.084505,-3.876979],[120.084254,-3.877095],[120.084047,-3.876279],[120.083742,-3.876037],[120.083634,-3.876495],[120.083383,-3.876817],[120.083158,-3.876817],[120.083481,-3.875536],[120.082871,-3.875428],[120.082592,-3.87567],[120.082475,-3.875347],[120.08208,-3.87515],[120.081837,-3.875285],[120.0819,-3.875679],[120.081712,-3.875813],[120.082116,-3.876288],[120.082197,-3.876728],[120.081936,-3.876916],[120.081784,-3.876629],[120.081532,-3.876575],[120.081361,-3.877507],[120.081218,-3.876342],[120.080831,-3.876163],[120.080247,-3.876163],[120.079915,-3.875679],[120.079717,-3.875813],[120.079726,-3.876647],[120.079511,-3.876799],[120.079313,-3.876817],[120.079125,-3.876486],[120.078972,-3.876504],[120.078514,-3.877032],[120.078334,-3.876799],[120.077705,-3.877113],[120.077705,-3.876799],[120.077517,-3.876575],[120.076789,-3.876486],[120.077094,-3.87697],[120.07651,-3.877176],[120.076528,-3.877292],[120.077076,-3.877454],[120.077552,-3.877337],[120.077517,-3.877991],[120.077678,-3.878359],[120.078163,-3.878959],[120.078523,-3.87913],[120.078837,-3.879757],[120.078765,-3.880044],[120.077831,-3.880581],[120.077714,-3.880985],[120.077831,-3.881245],[120.078271,-3.881567],[120.079196,-3.881836],[120.080355,-3.882419],[120.081685,-3.882589],[120.081846,-3.882293],[120.082053,-3.882464],[120.082314,-3.882159],[120.082565,-3.882464],[120.082835,-3.88249],[120.083122,-3.88232],[120.083104,-3.882652],[120.08341,-3.882607],[120.083751,-3.882858],[120.084137,-3.882849],[120.083877,-3.883082],[120.083445,-3.882795],[120.082987,-3.883001],[120.082637,-3.88293],[120.082637,-3.883449],[120.08235,-3.883306],[120.082125,-3.883512],[120.080885,-3.883763],[120.080616,-3.884211],[120.080086,-3.88414],[120.079421,-3.885117],[120.077741,-3.884964],[120.07678,-3.88448],[120.074965,-3.883898],[120.07519,-3.883548],[120.074858,-3.882983],[120.074885,-3.882401],[120.07431,-3.882589],[120.073887,-3.882284],[120.073824,-3.881953],[120.073465,-3.881818],[120.073196,-3.881442],[120.072648,-3.881863],[120.072558,-3.881711],[120.072773,-3.881272],[120.072567,-3.880823],[120.071148,-3.880528],[120.071237,-3.880375],[120.071785,-3.880241],[120.071678,-3.879882],[120.072172,-3.880053],[120.072899,-3.879748],[120.072621,-3.879228],[120.07245,-3.878413],[120.071534,-3.877606],[120.071929,-3.87731],[120.073142,-3.877274],[120.073636,-3.876987],[120.071013,-3.876073],[120.070591,-3.876154],[120.069989,-3.87593],[120.069899,-3.875428],[120.069225,-3.875267],[120.069135,-3.874935],[120.068677,-3.874935],[120.068686,-3.874765],[120.069593,-3.874469],[120.068848,-3.873877],[120.068578,-3.873851],[120.068381,-3.874012],[120.067967,-3.874881],[120.065991,-3.874182],[120.066054,-3.873976],[120.066719,-3.873788],[120.067653,-3.87386],[120.067932,-3.873447],[120.067842,-3.873169],[120.067177,-3.872945],[120.067168,-3.872757],[120.067716,-3.872641],[120.067428,-3.872085],[120.066898,-3.871583],[120.066449,-3.871646],[120.066755,-3.870947],[120.06697,-3.870974],[120.067204,-3.87057],[120.067635,-3.870525],[120.067815,-3.869566],[120.067572,-3.869324],[120.067743,-3.869109],[120.068093,-3.868984],[120.068803,-3.869199],[120.069378,-3.868939],[120.070231,-3.869002],[120.070797,-3.869208],[120.071112,-3.869638],[120.071201,-3.869584],[120.071228,-3.868589],[120.070869,-3.867675],[120.070375,-3.86781],[120.069971,-3.867487],[120.06901,-3.867657],[120.067249,-3.867326],[120.067123,-3.867111],[120.067258,-3.866582],[120.067132,-3.866259],[120.067518,-3.86556],[120.066683,-3.865336],[120.066279,-3.86556],[120.066036,-3.865497],[120.065928,-3.8653],[120.066018,-3.864189],[120.065829,-3.863848],[120.066368,-3.862988],[120.066809,-3.862871],[120.067186,-3.863319],[120.068704,-3.863454],[120.069108,-3.863902],[120.069719,-3.86418],[120.070384,-3.864762],[120.070285,-3.864395],[120.069504,-3.86366],[120.069234,-3.863068],[120.068839,-3.862943],[120.068947,-3.862602],[120.068408,-3.861491],[120.06856,-3.860738],[120.068363,-3.860675],[120.068363,-3.860326],[120.067932,-3.860335],[120.068111,-3.859958],[120.067743,-3.859663],[120.06821,-3.859573],[120.068524,-3.85977],[120.068686,-3.859716],[120.069351,-3.85891],[120.069333,-3.858022],[120.068983,-3.857296],[120.068776,-3.856221],[120.069297,-3.856517],[120.069333,-3.857144],[120.069755,-3.857727],[120.070016,-3.857664],[120.070096,-3.856947],[120.070429,-3.857969],[120.070887,-3.857879],[120.071309,-3.857556],[120.071552,-3.856992],[120.071543,-3.856624],[120.070429,-3.856086],[120.070375,-3.855567],[120.070842,-3.855298],[120.070869,-3.855038],[120.070743,-3.854832],[120.069665,-3.854688],[120.069665,-3.854473],[120.070348,-3.854106],[120.070213,-3.853765],[120.069845,-3.853631],[120.069719,-3.853407],[120.07051,-3.853604],[120.0728,-3.851632],[120.072729,-3.851847],[120.071821,-3.852716],[120.071678,-3.853227],[120.071767,-3.853442]],[[120.075397,-3.870938],[120.074965,-3.871305],[120.074947,-3.871529],[120.075531,-3.871933],[120.075648,-3.872452],[120.075855,-3.872578],[120.075738,-3.871126],[120.075397,-3.870938]]]]}},{"type":"Feature","properties":{"FID":53,"REMARK":"Danau/Situ","wilayah_kecamatan_kode":["73.13.14"],"wilayah_desa_kode":["73.13.14.2009"],"pemetaan_wilayah":"terpetakan"},"geometry":{"type":"Polygon","coordinates":[[[120.283563,-3.832308],[120.283366,-3.83229],[120.283231,-3.832075],[120.283671,-3.831662],[120.283563,-3.832308]]]}},{"type":"Feature","properties":{"FID":54,"REMARK":"Danau/Situ","wilayah_kecamatan_kode":["73.13.14"],"wilayah_desa_kode":["73.13.14.2009"],"pemetaan_wilayah":"terpetakan"},"geometry":{"type":"Polygon","coordinates":[[[120.305743,-3.830076],[120.30532,-3.830031],[120.305006,-3.829619],[120.305033,-3.829332],[120.305419,-3.828902],[120.305536,-3.828982],[120.305572,-3.829664],[120.305904,-3.829933],[120.305743,-3.830076]]]}},{"type":"Feature","properties":{"FID":55,"REMARK":"Danau/Situ","wilayah_kecamatan_kode":["73.13.14"],"wilayah_desa_kode":["73.13.14.2009"],"pemetaan_wilayah":"terpetakan"},"geometry":{"type":"Polygon","coordinates":[[[120.332692,-3.801976],[120.332449,-3.801949],[120.332494,-3.801752],[120.332755,-3.80177],[120.332827,-3.801878],[120.332692,-3.801976]]]}},{"type":"Feature","properties":{"FID":56,"REMARK":"Danau/Situ","wilayah_kecamatan_kode":["73.13.10"],"wilayah_desa_kode":["73.13.10.2013"],"pemetaan_wilayah":"terpetakan"},"geometry":{"type":"Polygon","coordinates":[[[120.307422,-3.752067],[120.308491,-3.751968],[120.307997,-3.752587],[120.307288,-3.75247],[120.306794,-3.752165],[120.306865,-3.75126],[120.307063,-3.751314],[120.307126,-3.751959],[120.307422,-3.752067]]]}},{"type":"Feature","properties":{"FID":57,"REMARK":"Danau/Situ","wilayah_kecamatan_kode":["73.13.10"],"wilayah_desa_kode":["73.13.10.2023"],"pemetaan_wilayah":"terpetakan"},"geometry":{"type":"Polygon","coordinates":[[[120.3176,-3.740485],[120.317681,-3.740924],[120.317367,-3.741301],[120.316397,-3.741283],[120.316073,-3.741444],[120.315929,-3.741328],[120.315983,-3.740575],[120.316657,-3.740521],[120.317349,-3.740252],[120.3176,-3.740485]]]}},{"type":"Feature","properties":{"FID":58,"REMARK":"Danau/Situ","wilayah_kecamatan_kode":["73.13.10"],"wilayah_desa_kode":["73.13.10.2008","73.13.10.2023"],"pemetaan_wilayah":"terpetakan"},"geometry":{"type":"Polygon","coordinates":[[[120.315408,-3.738083],[120.315372,-3.738271],[120.314654,-3.738119],[120.315346,-3.737769],[120.315408,-3.738083]]]}}]}
