{"type":"FeatureCollection","name":"NON_AGRI_HUTAN_KERING","features":[{"type":"Feature","properties":{"FID":0,"REMARK":"Hutan Rimba","wilayah_kecamatan_kode":["73.13.10"],"wilayah_desa_kode":["73.13.10.2025"],"pemetaan_wilayah":"terpetakan"},"geometry":{"type":"Polygon","coordinates":[[[120.293238,-3.741579],[120.293238,-3.741722],[120.29172,-3.741758],[120.29101,-3.742932],[120.289753,-3.74382],[120.28916,-3.744591],[120.287552,-3.745245],[120.286806,-3.74477],[120.286096,-3.743999],[120.28606,-3.743094],[120.285782,-3.742341],[120.285926,-3.742054],[120.286716,-3.74157],[120.287237,-3.741597],[120.287633,-3.742045],[120.287848,-3.742072],[120.288558,-3.741462],[120.289303,-3.742305],[120.290031,-3.742726],[120.290202,-3.742538],[120.290309,-3.741624],[120.29075,-3.741319],[120.290786,-3.741077],[120.290381,-3.740826],[120.293328,-3.740261],[120.293238,-3.741579]]]}},{"type":"Feature","properties":{"FID":1,"REMARK":"Hutan Rimba","wilayah_kecamatan_kode":["73.13.14"],"wilayah_desa_kode":["73.13.14.2008"],"pemetaan_wilayah":"terpetakan"},"geometry":{"type":"Polygon","coordinates":[[[120.223313,-3.742],[120.2229,-3.742],[120.222469,-3.741713],[120.22299,-3.740485],[120.223663,-3.739867],[120.224167,-3.73984],[120.224463,-3.740046],[120.224634,-3.74044],[120.225388,-3.740907],[120.225182,-3.741346],[120.223313,-3.742]]]}},{"type":"Feature","properties":{"FID":2,"REMARK":"Hutan Rimba","wilayah_kecamatan_kode":["73.13.14"],"wilayah_desa_kode":["73.13.14.2008"],"pemetaan_wilayah":"terpetakan"},"geometry":{"type":"Polygon","coordinates":[[[120.228838,-3.739714],[120.228398,-3.739795],[120.228263,-3.74018],[120.227032,-3.74027],[120.228604,-3.738961],[120.228775,-3.739176],[120.228838,-3.739714]]]}},{"type":"Feature","properties":{"FID":3,"REMARK":"Hutan Rimba","wilayah_kecamatan_kode":["73.13.14"],"wilayah_desa_kode":["73.13.14.2008"],"pemetaan_wilayah":"terpetakan"},"geometry":{"type":"Polygon","coordinates":[[[120.229943,-3.738782],[120.230724,-3.740028],[120.230985,-3.742081],[120.230814,-3.742072],[120.230527,-3.741543],[120.230051,-3.741426],[120.229862,-3.741202],[120.229736,-3.741677],[120.228865,-3.741579],[120.229053,-3.740736],[120.229503,-3.740691],[120.229691,-3.740297],[120.23014,-3.741041],[120.230509,-3.741041],[120.230113,-3.739652],[120.229754,-3.739472],[120.229323,-3.739696],[120.229359,-3.738908],[120.228703,-3.738854],[120.229395,-3.738092],[120.229943,-3.738782]]]}},{"type":"Feature","properties":{"FID":4,"REMARK":"Hutan Rimba","wilayah_kecamatan_kode":["73.13.14"],"wilayah_desa_kode":["73.13.14.2008"],"pemetaan_wilayah":"terpetakan"},"geometry":{"type":"Polygon","coordinates":[[[120.219037,-3.739114],[120.21892,-3.739123],[120.219522,-3.73811],[120.218947,-3.73724],[120.219522,-3.736819],[120.220313,-3.737016],[120.220501,-3.73733],[120.220268,-3.737913],[120.219756,-3.738567],[120.219037,-3.739114]]]}},{"type":"Feature","properties":{"FID":5,"REMARK":"Hutan Rimba","wilayah_kecamatan_kode":["73.13.14"],"wilayah_desa_kode":["73.13.14.2008"],"pemetaan_wilayah":"terpetakan"},"geometry":{"type":"MultiPolygon","coordinates":[[[[120.209371,-3.73508],[120.209614,-3.734981],[120.210126,-3.735268],[120.210764,-3.735932],[120.211626,-3.738235],[120.211923,-3.739436],[120.210243,-3.738952],[120.209991,-3.738343],[120.209326,-3.737904],[120.209102,-3.737007],[120.208311,-3.736577],[120.207916,-3.736676],[120.208042,-3.737258],[120.207826,-3.737536],[120.207251,-3.738056],[120.206739,-3.738208],[120.207521,-3.735654],[120.208069,-3.735403],[120.208751,-3.735582],[120.20894,-3.735268],[120.208671,-3.735116],[120.208904,-3.734829],[120.209371,-3.73508]]],[[[120.207934,-3.734748],[120.208024,-3.734542],[120.208168,-3.734479],[120.207934,-3.734748]]]]}},{"type":"Feature","properties":{"FID":6,"REMARK":"Hutan Rimba","wilayah_kecamatan_kode":["73.13.14"],"wilayah_desa_kode":["73.13.14.2002"],"pemetaan_wilayah":"terpetakan"},"geometry":{"type":"Polygon","coordinates":[[[120.242699,-3.734273],[120.243049,-3.734336],[120.243319,-3.734748],[120.243453,-3.73534],[120.244046,-3.735949],[120.243247,-3.736317],[120.242825,-3.735985],[120.242483,-3.736111],[120.242295,-3.736613],[120.242339,-3.736944],[120.242618,-3.736962],[120.242851,-3.736523],[120.243004,-3.736792],[120.242717,-3.737751],[120.242187,-3.737635],[120.241827,-3.737142],[120.241315,-3.737007],[120.241558,-3.736927],[120.241648,-3.736693],[120.241324,-3.73534],[120.241118,-3.735116],[120.241468,-3.735143],[120.241765,-3.735564],[120.242187,-3.735752],[120.242501,-3.734694],[120.242043,-3.734524],[120.242016,-3.734336],[120.242348,-3.734094],[120.242699,-3.734273]]]}},{"type":"Feature","properties":{"FID":7,"REMARK":"Hutan Rimba","wilayah_kecamatan_kode":["73.13.10"],"wilayah_desa_kode":["73.13.10.2008","73.13.10.2025"],"pemetaan_wilayah":"terpetakan"},"geometry":{"type":"Polygon","coordinates":[[[120.297757,-3.736684],[120.296481,-3.736335],[120.296598,-3.735905],[120.297667,-3.735187],[120.297918,-3.734677],[120.29773,-3.733664],[120.29746,-3.733296],[120.296822,-3.733036],[120.296903,-3.732713],[120.297146,-3.732283],[120.297559,-3.73196],[120.299454,-3.731207],[120.299508,-3.731665],[120.300047,-3.732704],[120.300209,-3.734112],[120.299176,-3.735179],[120.298493,-3.736138],[120.297757,-3.736684]]]}},{"type":"Feature","properties":{"FID":8,"REMARK":"Hutan Rimba","wilayah_kecamatan_kode":["73.13.14"],"wilayah_desa_kode":["73.13.14.2002"],"pemetaan_wilayah":"terpetakan"},"geometry":{"type":"Polygon","coordinates":[[[120.252805,-3.732543],[120.252922,-3.733287],[120.252023,-3.733664],[120.251233,-3.73361],[120.250263,-3.732973],[120.250002,-3.732624],[120.249418,-3.732642],[120.249786,-3.731817],[120.250954,-3.730965],[120.25152,-3.730804],[120.251933,-3.730831],[120.252868,-3.731584],[120.252643,-3.731799],[120.252805,-3.732543]]]}},{"type":"Feature","properties":{"FID":9,"REMARK":"Hutan Rimba","wilayah_kecamatan_kode":["73.13.14"],"wilayah_desa_kode":["73.13.14.2008"],"pemetaan_wilayah":"terpetakan"},"geometry":{"type":"Polygon","coordinates":[[[120.227194,-3.730544],[120.227338,-3.730939],[120.227409,-3.732498],[120.227329,-3.732749],[120.226897,-3.733],[120.226933,-3.733359],[120.227185,-3.733655],[120.226772,-3.734551],[120.22652,-3.734175],[120.226439,-3.733439],[120.225882,-3.732444],[120.225379,-3.73041],[120.226215,-3.730705],[120.226502,-3.729827],[120.226412,-3.72937],[120.226565,-3.72928],[120.227095,-3.729692],[120.227194,-3.730544]]]}},{"type":"Feature","properties":{"FID":10,"REMARK":"Hutan Rimba","wilayah_kecamatan_kode":["73.13.14"],"wilayah_desa_kode":["73.13.14.2008"],"pemetaan_wilayah":"terpetakan"},"geometry":{"type":"MultiPolygon","coordinates":[[[[120.231344,-3.72461],[120.23094,-3.724574],[120.230572,-3.724206],[120.231883,-3.724081],[120.231766,-3.724466],[120.231344,-3.72461]]],[[[120.233482,-3.724798],[120.233958,-3.724332],[120.234758,-3.725793],[120.235611,-3.72608],[120.23544,-3.726788],[120.234982,-3.727039],[120.234874,-3.727469],[120.235252,-3.727308],[120.235764,-3.727389],[120.236509,-3.728106],[120.235351,-3.727711],[120.234928,-3.727756],[120.234848,-3.728689],[120.235306,-3.729388],[120.234677,-3.729612],[120.234353,-3.729961],[120.234353,-3.730275],[120.234937,-3.731252],[120.235279,-3.732185],[120.235449,-3.731575],[120.235728,-3.731378],[120.235225,-3.73378],[120.234425,-3.734999],[120.234111,-3.735205],[120.232799,-3.735707],[120.231515,-3.735923],[120.232144,-3.734461],[120.233006,-3.733027],[120.233383,-3.730302],[120.232808,-3.729594],[120.232242,-3.729585],[120.232422,-3.730069],[120.231937,-3.730974],[120.23085,-3.731297],[120.230419,-3.732418],[120.230419,-3.731898],[120.23076,-3.730903],[120.23041,-3.730177],[120.230563,-3.729746],[120.230922,-3.729558],[120.230769,-3.729173],[120.231146,-3.727729],[120.23147,-3.727407],[120.231694,-3.727667],[120.231865,-3.727631],[120.232305,-3.726663],[120.232296,-3.726259],[120.232727,-3.725067],[120.232521,-3.724296],[120.232314,-3.724018],[120.233518,-3.723839],[120.233518,-3.724144],[120.233141,-3.724422],[120.233482,-3.724798]],[[120.233455,-3.734981],[120.233886,-3.734802],[120.233653,-3.734094],[120.233653,-3.733583],[120.233922,-3.733493],[120.234982,-3.733619],[120.235234,-3.733511],[120.235126,-3.73257],[120.234389,-3.731378],[120.233823,-3.731405],[120.233671,-3.732731],[120.233015,-3.733762],[120.232997,-3.734452],[120.233275,-3.734936],[120.233455,-3.734981]]]]}},{"type":"Feature","properties":{"FID":11,"REMARK":"Hutan Rimba","wilayah_kecamatan_kode":["73.13.14"],"wilayah_desa_kode":["73.13.14.2008"],"pemetaan_wilayah":"terpetakan"},"geometry":{"type":"Polygon","coordinates":[[[120.224553,-3.735152],[120.224571,-3.735654],[120.223592,-3.734067],[120.222936,-3.733314],[120.222559,-3.731665],[120.222648,-3.73101],[120.223151,-3.729899],[120.223825,-3.729029],[120.223484,-3.727595],[120.223654,-3.726439],[120.224095,-3.725542],[120.223843,-3.724717],[120.223897,-3.72418],[120.225047,-3.724197],[120.2252,-3.724673],[120.225694,-3.725354],[120.225361,-3.726815],[120.225819,-3.728061],[120.225819,-3.728608],[120.224032,-3.728993],[120.223861,-3.729684],[120.223241,-3.730777],[120.222999,-3.731539],[120.223116,-3.732014],[120.223798,-3.732409],[120.223807,-3.73309],[120.224247,-3.733637],[120.224229,-3.734157],[120.224589,-3.734668],[120.224553,-3.735152]]]}},{"type":"Feature","properties":{"FID":12,"REMARK":"Hutan Rimba","wilayah_kecamatan_kode":["73.13.14"],"wilayah_desa_kode":["73.13.14.2002"],"pemetaan_wilayah":"terpetakan"},"geometry":{"type":"Polygon","coordinates":[[[120.247738,-3.721544],[120.249661,-3.722001],[120.249733,-3.722629],[120.249553,-3.723113],[120.249652,-3.723364],[120.249364,-3.723991],[120.248511,-3.72435],[120.247604,-3.724431],[120.247765,-3.72504],[120.248232,-3.725452],[120.248187,-3.72565],[120.247127,-3.725103],[120.246795,-3.725336],[120.245385,-3.725426],[120.245007,-3.725641],[120.2449,-3.725954],[120.245034,-3.726627],[120.246157,-3.726994],[120.247666,-3.72928],[120.248619,-3.729639],[120.248682,-3.730051],[120.248556,-3.730302],[120.248098,-3.730616],[120.247819,-3.731091],[120.248448,-3.73196],[120.248089,-3.7324],[120.247765,-3.732382],[120.247145,-3.731414],[120.246588,-3.73101],[120.246283,-3.731037],[120.245762,-3.73162],[120.24384,-3.731118],[120.243669,-3.730329],[120.243103,-3.730168],[120.242968,-3.72997],[120.243678,-3.728599],[120.24366,-3.728375],[120.243399,-3.728464],[120.242627,-3.729433],[120.242025,-3.729298],[120.241657,-3.72945],[120.241612,-3.729271],[120.241872,-3.728769],[120.241657,-3.728348],[120.241154,-3.72833],[120.240938,-3.728133],[120.240642,-3.728151],[120.239258,-3.727676],[120.239186,-3.727398],[120.239312,-3.727299],[120.239995,-3.727837],[120.240345,-3.727882],[120.240498,-3.727505],[120.240085,-3.72712],[120.239671,-3.726976],[120.239689,-3.72669],[120.240345,-3.726707],[120.241935,-3.726403],[120.241791,-3.726026],[120.240911,-3.72573],[120.240381,-3.725031],[120.241208,-3.725345],[120.241684,-3.725273],[120.241962,-3.725004],[120.242618,-3.725327],[120.242744,-3.725255],[120.242636,-3.724852],[120.242142,-3.724439],[120.241702,-3.723651],[120.241064,-3.723014],[120.240803,-3.722467],[120.241064,-3.722073],[120.241899,-3.721831],[120.242277,-3.723131],[120.243444,-3.724153],[120.243974,-3.723704],[120.243741,-3.722476],[120.244397,-3.721078],[120.246328,-3.721078],[120.247738,-3.721544]],[[120.24445,-3.722978],[120.244998,-3.72296],[120.245178,-3.723229],[120.2449,-3.723731],[120.244945,-3.724162],[120.244567,-3.72461],[120.244684,-3.724933],[120.245555,-3.724798],[120.246678,-3.724],[120.246427,-3.723642],[120.246337,-3.723086],[120.245735,-3.722826],[120.245672,-3.722423],[120.245852,-3.721903],[120.245726,-3.721849],[120.244819,-3.721616],[120.244343,-3.722378],[120.244307,-3.722763],[120.24445,-3.722978]]]}},{"type":"Feature","properties":{"FID":13,"REMARK":"Hutan Rimba","wilayah_kecamatan_kode":["73.13.10"],"wilayah_desa_kode":["73.13.10.2008","73.13.10.2012"],"pemetaan_wilayah":"terpetakan"},"geometry":{"type":"Polygon","coordinates":[[[120.318301,-3.716121],[120.318481,-3.716506],[120.31831,-3.717223],[120.317807,-3.718039],[120.317079,-3.717636],[120.316307,-3.717967],[120.315894,-3.717465],[120.315211,-3.717259],[120.314286,-3.716712],[120.313962,-3.716309],[120.314384,-3.716425],[120.315247,-3.716336],[120.317573,-3.71569],[120.317924,-3.715717],[120.318301,-3.716121]]]}},{"type":"Feature","properties":{"FID":14,"REMARK":"Hutan Rimba","wilayah_kecamatan_kode":["73.13.10"],"wilayah_desa_kode":["73.13.10.2007","73.13.10.2010","73.13.10.2011","73.13.10.2026","73.13.10.2027"],"pemetaan_wilayah":"terpetakan"},"geometry":{"type":"Polygon","coordinates":[[[120.355437,-3.667309],[120.355851,-3.667865],[120.355168,-3.668421],[120.354889,-3.669254],[120.355123,-3.669774],[120.355887,-3.669989],[120.35533,-3.670303],[120.355222,-3.671038],[120.355554,-3.671764],[120.35621,-3.672347],[120.357701,-3.67137],[120.360414,-3.669129],[120.361052,-3.668994],[120.36177,-3.66843],[120.363064,-3.667721],[120.363576,-3.668044],[120.363783,-3.668627],[120.363325,-3.669084],[120.362399,-3.669478],[120.361393,-3.670294],[120.360603,-3.671908],[120.357872,-3.673315],[120.357171,-3.673844],[120.357072,-3.674328],[120.35798,-3.676776],[120.357063,-3.676695],[120.355473,-3.677045],[120.354108,-3.677018],[120.352428,-3.677591],[120.351584,-3.677233],[120.348996,-3.678183],[120.348691,-3.678864],[120.348574,-3.681903],[120.349634,-3.68366],[120.349526,-3.684682],[120.349769,-3.685678],[120.349976,-3.685955],[120.349895,-3.68618],[120.350577,-3.68652],[120.352069,-3.686843],[120.352284,-3.686655],[120.352841,-3.687955],[120.354638,-3.690348],[120.357575,-3.691962],[120.357737,-3.692921],[120.358375,-3.694436],[120.358411,-3.694992],[120.357081,-3.69483],[120.356632,-3.695081],[120.356291,-3.695646],[120.355473,-3.695798],[120.355168,-3.696058],[120.354853,-3.695798],[120.353686,-3.697457],[120.353443,-3.697475],[120.351898,-3.696139],[120.351377,-3.696049],[120.351287,-3.69622],[120.350407,-3.695512],[120.349221,-3.695458],[120.348098,-3.694024],[120.345897,-3.693898],[120.345906,-3.694248],[120.34543,-3.694292],[120.345044,-3.692885],[120.345412,-3.692768],[120.346068,-3.693333],[120.347155,-3.693539],[120.347263,-3.693369],[120.346921,-3.692643],[120.347326,-3.69224],[120.34941,-3.694059],[120.350622,-3.694328],[120.351323,-3.695359],[120.351754,-3.695359],[120.351862,-3.695117],[120.351548,-3.69457],[120.352033,-3.694472],[120.352662,-3.694651],[120.35276,-3.694275],[120.351215,-3.694203],[120.350631,-3.693504],[120.350209,-3.69371],[120.349643,-3.693468],[120.349185,-3.692813],[120.34923,-3.692392],[120.349895,-3.692069],[120.350658,-3.692006],[120.350793,-3.691935],[120.350748,-3.691693],[120.349796,-3.691558],[120.348601,-3.692284],[120.348179,-3.691908],[120.348035,-3.691262],[120.347335,-3.690716],[120.347002,-3.69085],[120.345825,-3.692491],[120.3457,-3.690689],[120.345978,-3.689819],[120.345619,-3.689721],[120.344837,-3.69111],[120.344514,-3.691146],[120.34393,-3.690734],[120.343732,-3.690823],[120.343768,-3.691155],[120.344253,-3.691684],[120.343625,-3.692437],[120.343786,-3.692957],[120.34349,-3.693844],[120.343139,-3.693351],[120.342969,-3.693459],[120.342403,-3.692643],[120.342196,-3.692822],[120.340687,-3.691289],[120.340822,-3.690958],[120.34004,-3.690716],[120.340112,-3.690339],[120.339528,-3.690169],[120.339519,-3.690527],[120.338145,-3.689577],[120.337983,-3.689837],[120.336645,-3.689344],[120.33536,-3.688322],[120.33297,-3.687166],[120.332557,-3.686637],[120.332431,-3.686224],[120.332782,-3.686197],[120.332899,-3.685229],[120.332782,-3.684629],[120.332369,-3.684718],[120.331928,-3.683903],[120.330976,-3.682934],[120.332773,-3.682746],[120.334659,-3.682029],[120.335369,-3.681617],[120.33633,-3.680917],[120.338477,-3.678542],[120.33898,-3.677314],[120.339043,-3.676677],[120.338863,-3.674974],[120.337767,-3.673853],[120.337255,-3.673647],[120.3358,-3.673772],[120.335351,-3.673584],[120.337471,-3.671684],[120.338783,-3.671209],[120.338908,-3.670142],[120.340561,-3.668474],[120.340795,-3.668322],[120.341235,-3.668421],[120.341522,-3.668905],[120.342996,-3.670034],[120.344253,-3.670653],[120.344496,-3.670518],[120.345807,-3.670617],[120.346472,-3.670491],[120.348233,-3.668949],[120.349823,-3.667892],[120.351251,-3.667703],[120.351934,-3.667237],[120.352554,-3.667327],[120.353299,-3.66583],[120.352895,-3.66496],[120.35223,-3.664082],[120.352392,-3.663517],[120.352823,-3.663248],[120.353461,-3.663382],[120.353937,-3.663759],[120.354602,-3.665086],[120.35471,-3.666251],[120.355437,-3.667309]],[[120.343436,-3.672257],[120.344801,-3.672661],[120.344909,-3.672275],[120.343714,-3.672132],[120.343436,-3.672257]],[[120.352141,-3.676883],[120.352985,-3.675099],[120.352446,-3.674929],[120.351871,-3.676354],[120.352051,-3.676489],[120.351988,-3.676758],[120.352141,-3.676883]],[[120.338603,-3.686251],[120.338863,-3.687013],[120.339115,-3.686942],[120.338854,-3.686341],[120.339331,-3.685964],[120.339241,-3.685722],[120.338872,-3.685848],[120.338495,-3.685247],[120.338208,-3.685418],[120.337812,-3.684736],[120.337642,-3.68488],[120.338603,-3.686251]]]}},{"type":"Feature","properties":{"FID":15,"REMARK":"Hutan Rimba","wilayah_kecamatan_kode":["73.13.10","73.13.14"],"wilayah_desa_kode":["73.13.10.2005","73.13.10.2007","73.13.10.2008","73.13.10.2009","73.13.10.2010","73.13.10.2011","73.13.10.2012","73.13.10.2015","73.13.10.2016","73.13.10.2017","73.13.10.2018","73.13.10.2019","73.13.10.2024","73.13.10.2026","73.13.10.2027","73.13.14.2008"],"pemetaan_wilayah":"terpetakan"},"geometry":{"type":"MultiPolygon","coordinates":[[[[120.370295,-3.68808],[120.369739,-3.688708],[120.369739,-3.689102],[120.370466,-3.689954],[120.370107,-3.69059],[120.37017,-3.691764],[120.369963,-3.691917],[120.369774,-3.691854],[120.369415,-3.69154],[120.368921,-3.690536],[120.368364,-3.690043],[120.366846,-3.690124],[120.366208,-3.689667],[120.365175,-3.687874],[120.364726,-3.686735],[120.364888,-3.68574],[120.365121,-3.685319],[120.367071,-3.683409],[120.367277,-3.682827],[120.366855,-3.681204],[120.366064,-3.679949],[120.364915,-3.679626],[120.364744,-3.679349],[120.364825,-3.678461],[120.365058,-3.677977],[120.364951,-3.677762],[120.364277,-3.677574],[120.36257,-3.6783],[120.361797,-3.678407],[120.360684,-3.677968],[120.3601,-3.678793],[120.358348,-3.676489],[120.35745,-3.674409],[120.35745,-3.674122],[120.357782,-3.673826],[120.359471,-3.672957],[120.36124,-3.671773],[120.3616,-3.671218],[120.362004,-3.670115],[120.363917,-3.668949],[120.364043,-3.668223],[120.363828,-3.667793],[120.363289,-3.667434],[120.362911,-3.667381],[120.36204,-3.667703],[120.361393,-3.668232],[120.359785,-3.669093],[120.359372,-3.669568],[120.356425,-3.671989],[120.35594,-3.671791],[120.355644,-3.671352],[120.355581,-3.67085],[120.356677,-3.6699],[120.356812,-3.669371],[120.356596,-3.668223],[120.357647,-3.667757],[120.358411,-3.667121],[120.35886,-3.66643],[120.358869,-3.666126],[120.358608,-3.665713],[120.357468,-3.665265],[120.356902,-3.664602],[120.356479,-3.663158],[120.35506,-3.661105],[120.353892,-3.660738],[120.354279,-3.660128],[120.354611,-3.660343],[120.354997,-3.66037],[120.357225,-3.659276],[120.358078,-3.65864],[120.359093,-3.658326],[120.359839,-3.656775],[120.358842,-3.656453],[120.358528,-3.656193],[120.357764,-3.656399],[120.355842,-3.657609],[120.355545,-3.658299],[120.354341,-3.65881],[120.353003,-3.659779],[120.352635,-3.660218],[120.353452,-3.661177],[120.353425,-3.661347],[120.352841,-3.662217],[120.352293,-3.662719],[120.351916,-3.663445],[120.351009,-3.663777],[120.349841,-3.66453],[120.349176,-3.664126],[120.34879,-3.664234],[120.34808,-3.665973],[120.344011,-3.667443],[120.343786,-3.667417],[120.343687,-3.666574],[120.343508,-3.666412],[120.341136,-3.666466],[120.339941,-3.666036],[120.338657,-3.666278],[120.337597,-3.665919],[120.337237,-3.666045],[120.336231,-3.66713],[120.335324,-3.667676],[120.335432,-3.667148],[120.335198,-3.666323],[120.333815,-3.66418],[120.332926,-3.663311],[120.33059,-3.662127],[120.330006,-3.66167],[120.329548,-3.661114],[120.327239,-3.657116],[120.324068,-3.65093],[120.323906,-3.649173],[120.323978,-3.648797],[120.324472,-3.648214],[120.325182,-3.648214],[120.326637,-3.648581],[120.330779,-3.650114],[120.334372,-3.652499],[120.336842,-3.654785],[120.338091,-3.655529],[120.339537,-3.655986],[120.341118,-3.655995],[120.343607,-3.655726],[120.348053,-3.65474],[120.353641,-3.652598],[120.354494,-3.652105],[120.357728,-3.650814],[120.358878,-3.650697],[120.359318,-3.650823],[120.360019,-3.651477],[120.359857,-3.651656],[120.359102,-3.651773],[120.359228,-3.651988],[120.36001,-3.652831],[120.360594,-3.652786],[120.361133,-3.653736],[120.361959,-3.654409],[120.366478,-3.655448],[120.372317,-3.656354],[120.377536,-3.65743],[120.376566,-3.659043],[120.375587,-3.659976],[120.375003,-3.660809],[120.377464,-3.661885],[120.377743,-3.662638],[120.379234,-3.663893],[120.378883,-3.664906],[120.378991,-3.665274],[120.379315,-3.665337],[120.379647,-3.665193],[120.379764,-3.664144],[120.381012,-3.664888],[120.382854,-3.664835],[120.385396,-3.665426],[120.386384,-3.666233],[120.387741,-3.667883],[120.388962,-3.66843],[120.390373,-3.668519],[120.391586,-3.668833],[120.39243,-3.669371],[120.3919,-3.669936],[120.39216,-3.670151],[120.39305,-3.66929],[120.392798,-3.668958],[120.393014,-3.668707],[120.393364,-3.668743],[120.394945,-3.671083],[120.39552,-3.671657],[120.395026,-3.672535],[120.39596,-3.673683],[120.396374,-3.674015],[120.396823,-3.674015],[120.397227,-3.673835],[120.397362,-3.673459],[120.397622,-3.67345],[120.398386,-3.674463],[120.398601,-3.675153],[120.398691,-3.6776],[120.401009,-3.679115],[120.400488,-3.680218],[120.400685,-3.681554],[120.400093,-3.681563],[120.399832,-3.681886],[120.398476,-3.682379],[120.398062,-3.682235],[120.397263,-3.682343],[120.396652,-3.682961],[120.393517,-3.682361],[120.392879,-3.683123],[120.392565,-3.683885],[120.390876,-3.685238],[120.390606,-3.685964],[120.390193,-3.686206],[120.389573,-3.687426],[120.388828,-3.688098],[120.388307,-3.688869],[120.388208,-3.691038],[120.387561,-3.691576],[120.387399,-3.692365],[120.385917,-3.693306],[120.384956,-3.693584],[120.38457,-3.69397],[120.384148,-3.69587],[120.383555,-3.697054],[120.382881,-3.697197],[120.382495,-3.696776],[120.38298,-3.69708],[120.383123,-3.696811],[120.383016,-3.696381],[120.383267,-3.695852],[120.383034,-3.695655],[120.382522,-3.695987],[120.382351,-3.696507],[120.382477,-3.696767],[120.382261,-3.696534],[120.379934,-3.695063],[120.378497,-3.694615],[120.37997,-3.694687],[120.380249,-3.694499],[120.380285,-3.693575],[120.379252,-3.692984],[120.379207,-3.692249],[120.379863,-3.691944],[120.380123,-3.69137],[120.380941,-3.691361],[120.381345,-3.690384],[120.380806,-3.690106],[120.379593,-3.690061],[120.377383,-3.689434],[120.377248,-3.689075],[120.3775,-3.688627],[120.378093,-3.688519],[120.378129,-3.688331],[120.377725,-3.687578],[120.376898,-3.687856],[120.375811,-3.687847],[120.375407,-3.688008],[120.374401,-3.688869],[120.373511,-3.688869],[120.373413,-3.688241],[120.373269,-3.688197],[120.372811,-3.688914],[120.372281,-3.689281],[120.372074,-3.690097],[120.371796,-3.690205],[120.371293,-3.688582],[120.370879,-3.688197],[120.370295,-3.68808]],[[120.370295,-3.68808],[120.370879,-3.687381],[120.371589,-3.686977],[120.372685,-3.686995],[120.372892,-3.68661],[120.373044,-3.686924],[120.373431,-3.687031],[120.373925,-3.686924],[120.375335,-3.685122],[120.37662,-3.684163],[120.376593,-3.683929],[120.375964,-3.683535],[120.376206,-3.683203],[120.37785,-3.683302],[120.378704,-3.683759],[120.379324,-3.683732],[120.379719,-3.683445],[120.379746,-3.683051],[120.380222,-3.682567],[120.383294,-3.683463],[120.384435,-3.682683],[120.385046,-3.681563],[120.385738,-3.681518],[120.385747,-3.682038],[120.385872,-3.682083],[120.386681,-3.682047],[120.386851,-3.681966],[120.387067,-3.681213],[120.387561,-3.681213],[120.387813,-3.680935],[120.387193,-3.682979],[120.387058,-3.68401],[120.387148,-3.684297],[120.387489,-3.684252],[120.38801,-3.683033],[120.388486,-3.682925],[120.388522,-3.6828],[120.388046,-3.682217],[120.388028,-3.681984],[120.388181,-3.681455],[120.388558,-3.681294],[120.388531,-3.680415],[120.388666,-3.680245],[120.389043,-3.6802],[120.389232,-3.680335],[120.389421,-3.68089],[120.389996,-3.680855],[120.389843,-3.680012],[120.390391,-3.679877],[120.390328,-3.679626],[120.389457,-3.679089],[120.389753,-3.678174],[120.390058,-3.677851],[120.391029,-3.677394],[120.392169,-3.67752],[120.392834,-3.678443],[120.392807,-3.679411],[120.393077,-3.679815],[120.393077,-3.678927],[120.393499,-3.678434],[120.392816,-3.677206],[120.392942,-3.676336],[120.39208,-3.676489],[120.391783,-3.676408],[120.391415,-3.676014],[120.391325,-3.675377],[120.391091,-3.675386],[120.390894,-3.675951],[120.390283,-3.676453],[120.390031,-3.677314],[120.388522,-3.67804],[120.385854,-3.677735],[120.38572,-3.677941],[120.385782,-3.679214],[120.385441,-3.679349],[120.384839,-3.679062],[120.384471,-3.67804],[120.383842,-3.677699],[120.383204,-3.677789],[120.382315,-3.678551],[120.381363,-3.678855],[120.380051,-3.678201],[120.380087,-3.677726],[120.380878,-3.677045],[120.380967,-3.676758],[120.381318,-3.676426],[120.381408,-3.675736],[120.380015,-3.676354],[120.379889,-3.676256],[120.377985,-3.677421],[120.378075,-3.677574],[120.3767,-3.678327],[120.376206,-3.678389],[120.37626,-3.677869],[120.375964,-3.677349],[120.375308,-3.676937],[120.374185,-3.677027],[120.373979,-3.676193],[120.372981,-3.675413],[120.372766,-3.674893],[120.37202,-3.67492],[120.371877,-3.675548],[120.371993,-3.675709],[120.371697,-3.676085],[120.371347,-3.676184],[120.369774,-3.675314],[120.368229,-3.675691],[120.367654,-3.675574],[120.367196,-3.675243],[120.366082,-3.675153],[120.365265,-3.674768],[120.365175,-3.675225],[120.366918,-3.675736],[120.367789,-3.676175],[120.367879,-3.676946],[120.367583,-3.676982],[120.367654,-3.679949],[120.367412,-3.679976],[120.367412,-3.680388],[120.367735,-3.680415],[120.367753,-3.683024],[120.367951,-3.682952],[120.368427,-3.683894],[120.370071,-3.685821],[120.369909,-3.68721],[120.37008,-3.687883],[120.370295,-3.68808]],[[120.389133,-3.67163],[120.389358,-3.671845],[120.39013,-3.671433],[120.389906,-3.6712],[120.389133,-3.67163]],[[120.377123,-3.674301],[120.37803,-3.672993],[120.378677,-3.671361],[120.378452,-3.670133],[120.379027,-3.667703],[120.379009,-3.667399],[120.378542,-3.666592],[120.378533,-3.665426],[120.377994,-3.664646],[120.378093,-3.665193],[120.377716,-3.665319],[120.378066,-3.666054],[120.377931,-3.666879],[120.377805,-3.667112],[120.377554,-3.667192],[120.37688,-3.666789],[120.376027,-3.666986],[120.37538,-3.666888],[120.375003,-3.66626],[120.373008,-3.66505],[120.372937,-3.665373],[120.37432,-3.66669],[120.374598,-3.667614],[120.375578,-3.667838],[120.376144,-3.667542],[120.376557,-3.667551],[120.37706,-3.667954],[120.377608,-3.668053],[120.37776,-3.668277],[120.377509,-3.670034],[120.377186,-3.67085],[120.377168,-3.671693],[120.376898,-3.671845],[120.376368,-3.67163],[120.376009,-3.67172],[120.376467,-3.672177],[120.376512,-3.672562],[120.376341,-3.672921],[120.375605,-3.673199],[120.375694,-3.673692],[120.375362,-3.67423],[120.375335,-3.674714],[120.374697,-3.675646],[120.374796,-3.676471],[120.375497,-3.676794],[120.37609,-3.676686],[120.376404,-3.675494],[120.377123,-3.674301]],[[120.37017,-3.659008],[120.369945,-3.658954],[120.369864,-3.659187],[120.370772,-3.659366],[120.370834,-3.659142],[120.37017,-3.659008]],[[120.369218,-3.673477],[120.370331,-3.673226],[120.370772,-3.672903],[120.370808,-3.672643],[120.370682,-3.672446],[120.37043,-3.67241],[120.368876,-3.672768],[120.368975,-3.673468],[120.369218,-3.673477]],[[120.346634,-3.663391],[120.347604,-3.663517],[120.348736,-3.663158],[120.348574,-3.662773],[120.348242,-3.662916],[120.348044,-3.662692],[120.346957,-3.662782],[120.345619,-3.662181],[120.345403,-3.662423],[120.346337,-3.663033],[120.346634,-3.663391]],[[120.33545,-3.665399],[120.335504,-3.665597],[120.33792,-3.664799],[120.337839,-3.664413],[120.336582,-3.664817],[120.33545,-3.665399]]],[[[120.382477,-3.696767],[120.382495,-3.696776],[120.382486,-3.696776],[120.382477,-3.696767]]],[[[120.319047,-3.687282],[120.320035,-3.68704],[120.321822,-3.687282],[120.322532,-3.687049],[120.323574,-3.687479],[120.325595,-3.68782],[120.325883,-3.688761],[120.326763,-3.69059],[120.326934,-3.691352],[120.32767,-3.692069],[120.328299,-3.69319],[120.328461,-3.693952],[120.328964,-3.694391],[120.329602,-3.695386],[120.330617,-3.696354],[120.3313,-3.696856],[120.33218,-3.697089],[120.332063,-3.697869],[120.332629,-3.698506],[120.333626,-3.700343],[120.335234,-3.701572],[120.335576,-3.702029],[120.335504,-3.703911],[120.335189,-3.70496],[120.334318,-3.705839],[120.333375,-3.707398],[120.332306,-3.708779],[120.332836,-3.710473],[120.331596,-3.710715],[120.330545,-3.710661],[120.328434,-3.709523],[120.327626,-3.708483],[120.326476,-3.704888],[120.326027,-3.704503],[120.324949,-3.704153],[120.324544,-3.705606],[120.324445,-3.706627],[120.325353,-3.707255],[120.325407,-3.707605],[120.324922,-3.708142],[120.324724,-3.709173],[120.325002,-3.71015],[120.324589,-3.710321],[120.325209,-3.711486],[120.327212,-3.711818],[120.326952,-3.712123],[120.326467,-3.712167],[120.324392,-3.711719],[120.323871,-3.710957],[120.322002,-3.711128],[120.322343,-3.712427],[120.322721,-3.713127],[120.323691,-3.714328],[120.324742,-3.716363],[120.326557,-3.71794],[120.32688,-3.719258],[120.327176,-3.719554],[120.328524,-3.720011],[120.329503,-3.720899],[120.329916,-3.723158],[120.331407,-3.724888],[120.331677,-3.726358],[120.331677,-3.727496],[120.331237,-3.727505],[120.330797,-3.727263],[120.330707,-3.726914],[120.330859,-3.72582],[120.330096,-3.724852],[120.329207,-3.724117],[120.329063,-3.723023],[120.32856,-3.72253],[120.327976,-3.722449],[120.32741,-3.722691],[120.326997,-3.722593],[120.325793,-3.721275],[120.325541,-3.721248],[120.325353,-3.721392],[120.325101,-3.722351],[120.324607,-3.722091],[120.324203,-3.721266],[120.323745,-3.721445],[120.323269,-3.722082],[120.322963,-3.722064],[120.322855,-3.721544],[120.323233,-3.720298],[120.323125,-3.719491],[120.321786,-3.718075],[120.32078,-3.716551],[120.320196,-3.715368],[120.319747,-3.713951],[120.319469,-3.713718],[120.318229,-3.713369],[120.316792,-3.712481],[120.315417,-3.709801],[120.315292,-3.709344],[120.315408,-3.708241],[120.314995,-3.707004],[120.314681,-3.706439],[120.313612,-3.705812],[120.313252,-3.704539],[120.312471,-3.704189],[120.312237,-3.703902],[120.311707,-3.700487],[120.311204,-3.699653],[120.311159,-3.699097],[120.310207,-3.698255],[120.309911,-3.697036],[120.309731,-3.695153],[120.307764,-3.695171],[120.309147,-3.693665],[120.310863,-3.692455],[120.317259,-3.686691],[120.318615,-3.685866],[120.318669,-3.686457],[120.319047,-3.687282]]],[[[120.221687,-3.727093],[120.221373,-3.729038],[120.220825,-3.728877],[120.220924,-3.728787],[120.220034,-3.728913],[120.219316,-3.729863],[120.218938,-3.730885],[120.219298,-3.731234],[120.218965,-3.73196],[120.219756,-3.732471],[120.219244,-3.734013],[120.219567,-3.734121],[120.219882,-3.733502],[120.220322,-3.733036],[120.220627,-3.734004],[120.220385,-3.734497],[120.219477,-3.734659],[120.219163,-3.735573],[120.218606,-3.736425],[120.218202,-3.736138],[120.217627,-3.735223],[120.217537,-3.733897],[120.21725,-3.733224],[120.217276,-3.732328],[120.216854,-3.731207],[120.216279,-3.731243],[120.215417,-3.731037],[120.215417,-3.730553],[120.215192,-3.730141],[120.214069,-3.729065],[120.213665,-3.729038],[120.212686,-3.729648],[120.212336,-3.729415],[120.212111,-3.729531],[120.211967,-3.729952],[120.212147,-3.730903],[120.211824,-3.731602],[120.211752,-3.732453],[120.211437,-3.733081],[120.2123,-3.733529],[120.211905,-3.734685],[120.212479,-3.734883],[120.213899,-3.734775],[120.214231,-3.734883],[120.214114,-3.736353],[120.214393,-3.737213],[120.213737,-3.738674],[120.212614,-3.738899],[120.212767,-3.739598],[120.212668,-3.739903],[120.212785,-3.741668],[120.213099,-3.741919],[120.214052,-3.742036],[120.215336,-3.742941],[120.213054,-3.742099],[120.212632,-3.741821],[120.212363,-3.741265],[120.212183,-3.739436],[120.211896,-3.73819],[120.210889,-3.735573],[120.209344,-3.734372],[120.208832,-3.734139],[120.208221,-3.734112],[120.208581,-3.733287],[120.208689,-3.732014],[120.208383,-3.726349],[120.208877,-3.72504],[120.210135,-3.723839],[120.211617,-3.723032],[120.212408,-3.722799],[120.213243,-3.722781],[120.221633,-3.724027],[120.221337,-3.72495],[120.221687,-3.727093]],[[120.212722,-3.728608],[120.213486,-3.728052],[120.213899,-3.728151],[120.213998,-3.727523],[120.213468,-3.727263],[120.21265,-3.727595],[120.212533,-3.728249],[120.212722,-3.728608]]]]}}]}
