{"type":"FeatureCollection","name":"potensi-peternakan","features":[{"type":"Feature","id":33,"geometry":{"type":"Polygon","coordinates":[[[120.325685,-4.147452],[120.326242,-4.148536],[120.325488,-4.148895],[120.325173,-4.149253],[120.325065,-4.149701],[120.325694,-4.150767],[120.326565,-4.151179],[120.328632,-4.151027],[120.329117,-4.151323],[120.329207,-4.15161],[120.329045,-4.152281],[120.328443,-4.153195],[120.327365,-4.154279],[120.327113,-4.155184],[120.327338,-4.155883],[120.327877,-4.156519],[120.329225,-4.157021],[120.329485,-4.15746],[120.329485,-4.157872],[120.328847,-4.158562],[120.328757,-4.158831],[120.328928,-4.15953],[120.328075,-4.161026],[120.327931,-4.161796],[120.325434,-4.161967],[120.323853,-4.162728],[120.322622,-4.164278],[120.322047,-4.164744],[120.321786,-4.165658],[120.32105,-4.166384],[120.321005,-4.16676],[120.320825,-4.16693],[120.31981,-4.16728],[120.317331,-4.166348],[120.314968,-4.165757],[120.313432,-4.165622],[120.3131,-4.166572],[120.312246,-4.167092],[120.311923,-4.16779],[120.311204,-4.168176],[120.310252,-4.168104],[120.309102,-4.169358],[120.308842,-4.169206],[120.308168,-4.169215],[120.307863,-4.16943],[120.307225,-4.169502],[120.306749,-4.169242],[120.306461,-4.169484],[120.305347,-4.169439],[120.305015,-4.169188],[120.305195,-4.168426],[120.30417,-4.167638],[120.303811,-4.168265],[120.3032,-4.168552],[120.302392,-4.169412],[120.301476,-4.169502],[120.30073,-4.169197],[120.300631,-4.169358],[120.300281,-4.169179],[120.299903,-4.169278],[120.29896,-4.168731],[120.298835,-4.168624],[120.298754,-4.167728],[120.297703,-4.167575],[120.29764,-4.167808],[120.29693,-4.167916],[120.29684,-4.168068],[120.296508,-4.167781],[120.29605,-4.168641],[120.295762,-4.168525],[120.295439,-4.168812],[120.294981,-4.168892],[120.29437,-4.168686],[120.294325,-4.168892],[120.293957,-4.168776],[120.293705,-4.169134],[120.293283,-4.169063],[120.293103,-4.169627],[120.29251,-4.169591],[120.292178,-4.170039],[120.291226,-4.170182],[120.291064,-4.170622],[120.290741,-4.170487],[120.28995,-4.171562],[120.288746,-4.171043],[120.28827,-4.171724],[120.287543,-4.17124],[120.286941,-4.172216],[120.286042,-4.171428],[120.285854,-4.172046],[120.285432,-4.172422],[120.285342,-4.172933],[120.284219,-4.172602],[120.283797,-4.173175],[120.283527,-4.1733],[120.283608,-4.173533],[120.283437,-4.173712],[120.283276,-4.173632],[120.28227,-4.174286],[120.281946,-4.174205],[120.28165,-4.174519],[120.281156,-4.174331],[120.280832,-4.174573],[120.280347,-4.174349],[120.28006,-4.174913],[120.279691,-4.174922],[120.278667,-4.175594],[120.277095,-4.174814],[120.276961,-4.174223],[120.277428,-4.173211],[120.277437,-4.172879],[120.277185,-4.172673],[120.277392,-4.172189],[120.277778,-4.172431],[120.278012,-4.1721],[120.278173,-4.172198],[120.278667,-4.171517],[120.278416,-4.171311],[120.278488,-4.171114],[120.279242,-4.169896],[120.280159,-4.169985],[120.280329,-4.169824],[120.280015,-4.16883],[120.280284,-4.168615],[120.277715,-4.162728],[120.277688,-4.160255],[120.27794,-4.160309],[120.278281,-4.159996],[120.278928,-4.160345],[120.279224,-4.160282],[120.278928,-4.159144],[120.279314,-4.158007],[120.279611,-4.157765],[120.280159,-4.157836],[120.280509,-4.157353],[120.280814,-4.156448],[120.281308,-4.156484],[120.281497,-4.156779],[120.281802,-4.156896],[120.282126,-4.156457],[120.282746,-4.156573],[120.283015,-4.155838],[120.283419,-4.155722],[120.28368,-4.155229],[120.284111,-4.154916],[120.283869,-4.15427],[120.284057,-4.152792],[120.284318,-4.152738],[120.285764,-4.153294],[120.286824,-4.15264],[120.286339,-4.152084],[120.286447,-4.151851],[120.287641,-4.151538],[120.288172,-4.151762],[120.287785,-4.150561],[120.288127,-4.149486],[120.28845,-4.149137],[120.289708,-4.148509],[120.290301,-4.147909],[120.291585,-4.148151],[120.294352,-4.14799],[120.295268,-4.148232],[120.295547,-4.148008],[120.295987,-4.146727],[120.296445,-4.146574],[120.296741,-4.146798],[120.297361,-4.147882],[120.297936,-4.147855],[120.298897,-4.147425],[120.299382,-4.147461],[120.299652,-4.148483],[120.299912,-4.148859],[120.301107,-4.149343],[120.301943,-4.150418],[120.302302,-4.15031],[120.302688,-4.149728],[120.302976,-4.149576],[120.30329,-4.149907],[120.30356,-4.150642],[120.304108,-4.150938],[120.304404,-4.150749],[120.305311,-4.149495],[120.305868,-4.149361],[120.30753,-4.149809],[120.308824,-4.148904],[120.309012,-4.148877],[120.309327,-4.14911],[120.309704,-4.150104],[120.310198,-4.150158],[120.310845,-4.149244],[120.311231,-4.148949],[120.313351,-4.148814],[120.313773,-4.148671],[120.314878,-4.147022],[120.315426,-4.146691],[120.317259,-4.147219],[120.318777,-4.147264],[120.320178,-4.147981],[120.320493,-4.1479],[120.320861,-4.147148],[120.321221,-4.14678],[120.322011,-4.14644],[120.32255,-4.146431],[120.322963,-4.1467],[120.323152,-4.14799],[120.323367,-4.148285],[120.32361,-4.148348],[120.323871,-4.1479],[120.324005,-4.146431],[120.324176,-4.146144],[120.324661,-4.145965],[120.324958,-4.146126],[120.325685,-4.147452]]]},"properties":{"FID":33,"KECAMATAN":"Kec. Takkalalla","DESA":"Lagoari","PETERNAKAN":"AYAM PETELUR","kecamatan_sumber_asli":"Takalala","wilayah_kecamatan_kode":["73.13.03"],"wilayah_desa_kode":["73.13.03.2010"],"pemetaan_wilayah":"terpetakan"}},{"type":"Feature","id":43,"geometry":{"type":"Polygon","coordinates":[[[120.032807,-4.125411],[120.032574,-4.125904],[120.033095,-4.126047],[120.033382,-4.125725],[120.034622,-4.126325],[120.035395,-4.125107],[120.035574,-4.125107],[120.036086,-4.126352],[120.036949,-4.127535],[120.036526,-4.131934],[120.036796,-4.13438],[120.035448,-4.134649],[120.034784,-4.135285],[120.034362,-4.13524],[120.034335,-4.135688],[120.033643,-4.135688],[120.033598,-4.135993],[120.032762,-4.13567],[120.032673,-4.136163],[120.032116,-4.136136],[120.031262,-4.135993],[120.029547,-4.133771],[120.029663,-4.131504],[120.030499,-4.12801],[120.030139,-4.127857],[120.029969,-4.128458],[120.029349,-4.128225],[120.029169,-4.128959],[120.028648,-4.128834],[120.02872,-4.128467],[120.028163,-4.128305],[120.028298,-4.127571],[120.027723,-4.127409],[120.028037,-4.126012],[120.029717,-4.126442],[120.030005,-4.125071],[120.031415,-4.125483],[120.031631,-4.124945],[120.032807,-4.125411]]]},"properties":{"FID":43,"KECAMATAN":"Kec. Tempe","DESA":"Lapongkoda","PETERNAKAN":"AYAM KAMPUNG","kecamatan_sumber_asli":"Tempe","wilayah_kecamatan_kode":["73.13.06"],"wilayah_desa_kode":["73.13.06.1010"],"pemetaan_wilayah":"terpetakan"}},{"type":"Feature","id":45,"geometry":{"type":"Polygon","coordinates":[[[120.074292,-4.119274],[120.075657,-4.119489],[120.075684,-4.119354],[120.07722,-4.119399],[120.078514,-4.119641],[120.078505,-4.119802],[120.079134,-4.120456],[120.079071,-4.12172],[120.079457,-4.122051],[120.079655,-4.122508],[120.079699,-4.123118],[120.079322,-4.123978],[120.07908,-4.123978],[120.078235,-4.125895],[120.076043,-4.132122],[120.074929,-4.129156],[120.0736,-4.129452],[120.071839,-4.132472],[120.06989,-4.133242],[120.066647,-4.136262],[120.06591,-4.138107],[120.061527,-4.135849],[120.058544,-4.134595],[120.058257,-4.134344],[120.054969,-4.134174],[120.05425,-4.134353],[120.052319,-4.135249],[120.052328,-4.135742],[120.051627,-4.136163],[120.051573,-4.136566],[120.051205,-4.136844],[120.050262,-4.136772],[120.050262,-4.137229],[120.049435,-4.13696],[120.049166,-4.137856],[120.048609,-4.137713],[120.048528,-4.137928],[120.048088,-4.137874],[120.048016,-4.138403],[120.047755,-4.138367],[120.047216,-4.139209],[120.044144,-4.140043],[120.043704,-4.139398],[120.042563,-4.140034],[120.042455,-4.13989],[120.041261,-4.139756],[120.039176,-4.138555],[120.038494,-4.138833],[120.03764,-4.139684],[120.036886,-4.140204],[120.037128,-4.13851],[120.036347,-4.135366],[120.036787,-4.134649],[120.036832,-4.133851],[120.036526,-4.131934],[120.036949,-4.127535],[120.039221,-4.12766],[120.041593,-4.128484],[120.043875,-4.128655],[120.045033,-4.127938],[120.047414,-4.126065],[120.048905,-4.125304],[120.054511,-4.124381],[120.055256,-4.12456],[120.055625,-4.124085],[120.057664,-4.124462],[120.057888,-4.123861],[120.059712,-4.124677],[120.060143,-4.123933],[120.060314,-4.124005],[120.060404,-4.123825],[120.061167,-4.124103],[120.061257,-4.12396],[120.063099,-4.124587],[120.06326,-4.124184],[120.065237,-4.12482],[120.065515,-4.124202],[120.066198,-4.124596],[120.066449,-4.124211],[120.067132,-4.124524],[120.067366,-4.124166],[120.069477,-4.12525],[120.069629,-4.124892],[120.070105,-4.125089],[120.070474,-4.124318],[120.071192,-4.124632],[120.071498,-4.124058],[120.072297,-4.124775],[120.073142,-4.122598],[120.073339,-4.12267],[120.073447,-4.122239],[120.073654,-4.122275],[120.07422,-4.120439],[120.074292,-4.119274]]]},"properties":{"FID":45,"KECAMATAN":"Kec. Tempe","DESA":"Pattirosompe","PETERNAKAN":"KAMBING, AYAM PETELUR","kecamatan_sumber_asli":"Tempe","wilayah_kecamatan_kode":["73.13.06"],"wilayah_desa_kode":["73.13.06.1002"],"pemetaan_wilayah":"terpetakan"}},{"type":"Feature","id":50,"geometry":{"type":"Polygon","coordinates":[[[120.049049,-4.111174],[120.049417,-4.111263],[120.049516,-4.11112],[120.051771,-4.111514],[120.052948,-4.111362],[120.053873,-4.111837],[120.058203,-4.113468],[120.059901,-4.114319],[120.060772,-4.113082],[120.062218,-4.113253],[120.062443,-4.113521],[120.062658,-4.114337],[120.063943,-4.114579],[120.064895,-4.115152],[120.065964,-4.113521],[120.066261,-4.113665],[120.066845,-4.113064],[120.066934,-4.113145],[120.067339,-4.112849],[120.067617,-4.112446],[120.068515,-4.112939],[120.068848,-4.112151],[120.070114,-4.112634],[120.071875,-4.112885],[120.072297,-4.113127],[120.073833,-4.113468],[120.075244,-4.114122],[120.076762,-4.114588],[120.076843,-4.114722],[120.076358,-4.115358],[120.08022,-4.116666],[120.080194,-4.116855],[120.079331,-4.118378],[120.078613,-4.119202],[120.078514,-4.119641],[120.07722,-4.119399],[120.075684,-4.119354],[120.075657,-4.119489],[120.074292,-4.119274],[120.07422,-4.120439],[120.073654,-4.122275],[120.073447,-4.122239],[120.073339,-4.12267],[120.073142,-4.122598],[120.072297,-4.124775],[120.071498,-4.124058],[120.071192,-4.124632],[120.070474,-4.124318],[120.070105,-4.125089],[120.069629,-4.124892],[120.069477,-4.12525],[120.067366,-4.124166],[120.067132,-4.124524],[120.066449,-4.124211],[120.066198,-4.124596],[120.065515,-4.124202],[120.065237,-4.12482],[120.06326,-4.124184],[120.063099,-4.124587],[120.061257,-4.12396],[120.061167,-4.124103],[120.060404,-4.123825],[120.060314,-4.124005],[120.060143,-4.123933],[120.059712,-4.124677],[120.057888,-4.123861],[120.057664,-4.124462],[120.055625,-4.124085],[120.055256,-4.12456],[120.054511,-4.124381],[120.048905,-4.125304],[120.047414,-4.126065],[120.045033,-4.127938],[120.043875,-4.128655],[120.041593,-4.128484],[120.039221,-4.12766],[120.036949,-4.127535],[120.036086,-4.126352],[120.035574,-4.125107],[120.035772,-4.118548],[120.03694,-4.11629],[120.038593,-4.113799],[120.039203,-4.113486],[120.040605,-4.113557],[120.040901,-4.112249],[120.042159,-4.11259],[120.043165,-4.112491],[120.043956,-4.112159],[120.044252,-4.111774],[120.044782,-4.111711],[120.045932,-4.112258],[120.046498,-4.112321],[120.047899,-4.110986],[120.048627,-4.110941],[120.049049,-4.111174]]]},"properties":{"FID":50,"KECAMATAN":"Kec. Tempe","DESA":"Cempalagi","PETERNAKAN":"ITIK","kecamatan_sumber_asli":"Tempe","wilayah_kecamatan_kode":["73.13.06"],"wilayah_desa_kode":["73.13.06.1002","73.13.06.1009","73.13.06.1016"],"pemetaan_wilayah":"terpetakan"}},{"type":"Feature","id":53,"geometry":{"type":"Polygon","coordinates":[[[120.220124,-4.103128],[120.220699,-4.103755],[120.220915,-4.103809],[120.221148,-4.104346],[120.221049,-4.104723],[120.221283,-4.104866],[120.221831,-4.104113],[120.223017,-4.103997],[120.224535,-4.104257],[120.226233,-4.105072],[120.22679,-4.105108],[120.227248,-4.104821],[120.228011,-4.105637],[120.228613,-4.105807],[120.228999,-4.105439],[120.229763,-4.105654],[120.230563,-4.105502],[120.230886,-4.106049],[120.231425,-4.106407],[120.232377,-4.106076],[120.23306,-4.106326],[120.234434,-4.106058],[120.235144,-4.106479],[120.235917,-4.107214],[120.236554,-4.107473],[120.236878,-4.108119],[120.238028,-4.108316],[120.238001,-4.108719],[120.238576,-4.108817],[120.238486,-4.109463],[120.238881,-4.109561],[120.239429,-4.110493],[120.23986,-4.11043],[120.239986,-4.11078],[120.240399,-4.110753],[120.240642,-4.111039],[120.241504,-4.111183],[120.241468,-4.112482],[120.241899,-4.112545],[120.242411,-4.112348],[120.244702,-4.113324],[120.245537,-4.113781],[120.245672,-4.114167],[120.245564,-4.114346],[120.248367,-4.116003],[120.248394,-4.116371],[120.248807,-4.116801],[120.249724,-4.11638],[120.2509,-4.117123],[120.251053,-4.117473],[120.251673,-4.117795],[120.251763,-4.119399],[120.25196,-4.119668],[120.251502,-4.120134],[120.251197,-4.120134],[120.250685,-4.120546],[120.250308,-4.121505],[120.249391,-4.122526],[120.249158,-4.122508],[120.248762,-4.123162],[120.248502,-4.124022],[120.248322,-4.12413],[120.24852,-4.124587],[120.248322,-4.125241],[120.248008,-4.125429],[120.248331,-4.126477],[120.248116,-4.127149],[120.247873,-4.127329],[120.24781,-4.127848],[120.247056,-4.127526],[120.246912,-4.127633],[120.246588,-4.128296],[120.246481,-4.12826],[120.245852,-4.130267],[120.245349,-4.131065],[120.245142,-4.131011],[120.244199,-4.13231],[120.243804,-4.131898],[120.243085,-4.131504],[120.241459,-4.131387],[120.240893,-4.132606],[120.2403,-4.133412],[120.240219,-4.134228],[120.239914,-4.134389],[120.239698,-4.135061],[120.237183,-4.134022],[120.234506,-4.134093],[120.234066,-4.133789],[120.233635,-4.134622],[120.233311,-4.134488],[120.233051,-4.134971],[120.233024,-4.135366],[120.23262,-4.135921],[120.232305,-4.135625],[120.232108,-4.135769],[120.231658,-4.136656],[120.230374,-4.135796],[120.229799,-4.135742],[120.229251,-4.136736],[120.228999,-4.137068],[120.228838,-4.136987],[120.227805,-4.138421],[120.225909,-4.137122],[120.22458,-4.139389],[120.224544,-4.139684],[120.223421,-4.141315],[120.222891,-4.141055],[120.222496,-4.14144],[120.221921,-4.141207],[120.221714,-4.141404],[120.22157,-4.141315],[120.221229,-4.141808],[120.219621,-4.141566],[120.219477,-4.141745],[120.218992,-4.141691],[120.217851,-4.141933],[120.214986,-4.141781],[120.21468,-4.141736],[120.214555,-4.141297],[120.214303,-4.1411],[120.213207,-4.140777],[120.211887,-4.140105],[120.212237,-4.139218],[120.212587,-4.138797],[120.212893,-4.13895],[120.213252,-4.138726],[120.213504,-4.138071],[120.213441,-4.137632],[120.213944,-4.137507],[120.213899,-4.137023],[120.214878,-4.136844],[120.214644,-4.136226],[120.214249,-4.135787],[120.213665,-4.135401],[120.213414,-4.135697],[120.213207,-4.135581],[120.213252,-4.13498],[120.213,-4.134774],[120.213135,-4.134604],[120.213845,-4.134452],[120.214043,-4.134129],[120.214348,-4.134031],[120.214366,-4.13386],[120.214644,-4.134022],[120.214788,-4.133816],[120.214546,-4.133206],[120.214842,-4.132543],[120.215911,-4.132176],[120.216279,-4.132185],[120.216809,-4.131325],[120.216971,-4.130832],[120.216432,-4.130491],[120.216513,-4.130294],[120.21636,-4.129999],[120.216899,-4.129183],[120.215992,-4.128511],[120.216306,-4.127875],[120.216495,-4.127911],[120.21654,-4.127436],[120.217106,-4.12654],[120.217753,-4.125994],[120.217321,-4.125223],[120.217519,-4.124193],[120.217097,-4.12396],[120.217133,-4.123798],[120.217663,-4.122768],[120.217887,-4.122571],[120.218004,-4.122643],[120.218345,-4.121926],[120.218399,-4.121675],[120.218031,-4.12146],[120.218498,-4.120591],[120.218336,-4.120071],[120.218426,-4.119829],[120.218875,-4.119444],[120.219765,-4.11948],[120.220142,-4.119256],[120.220232,-4.119023],[120.219792,-4.118682],[120.219953,-4.117329],[120.219594,-4.117096],[120.219585,-4.116604],[120.218866,-4.116111],[120.218911,-4.115851],[120.217564,-4.115457],[120.216764,-4.114588],[120.216782,-4.114283],[120.216136,-4.113154],[120.216037,-4.111792],[120.216172,-4.111443],[120.216764,-4.111138],[120.216836,-4.110583],[120.216073,-4.110323],[120.216216,-4.109418],[120.216387,-4.10914],[120.216746,-4.108961],[120.216971,-4.107124],[120.216935,-4.106766],[120.21663,-4.106524],[120.216423,-4.105914],[120.216234,-4.105798],[120.21663,-4.105018],[120.216154,-4.10406],[120.216324,-4.103423],[120.216818,-4.103728],[120.217285,-4.103764],[120.217941,-4.103468],[120.218435,-4.103558],[120.218768,-4.103379],[120.219271,-4.103361],[120.219414,-4.103181],[120.219819,-4.103137],[120.220016,-4.10285],[120.220124,-4.103128]]]},"properties":{"FID":53,"KECAMATAN":"Kec. Takkalalla","DESA":"Ceppaga","PETERNAKAN":"AYAM PEDAGING","kecamatan_sumber_asli":"Takalala","wilayah_kecamatan_kode":["73.13.03"],"wilayah_desa_kode":["73.13.03.2006"],"pemetaan_wilayah":"terpetakan"}},{"type":"Feature","id":61,"geometry":{"type":"Polygon","coordinates":[[[120.031783,-4.087035],[120.032493,-4.087304],[120.032879,-4.087098],[120.033796,-4.087429],[120.034236,-4.08734],[120.03543,-4.087922],[120.036221,-4.088119],[120.036284,-4.087913],[120.036526,-4.08803],[120.03641,-4.088245],[120.038242,-4.089177],[120.038646,-4.088612],[120.041503,-4.089481],[120.042653,-4.089616],[120.043084,-4.089445],[120.04321,-4.090216],[120.04409,-4.090888],[120.044557,-4.091856],[120.045662,-4.092716],[120.045959,-4.093263],[120.045528,-4.09389],[120.04506,-4.09509],[120.044917,-4.095673],[120.044971,-4.09621],[120.044638,-4.096632],[120.044063,-4.096909],[120.043623,-4.097644],[120.041575,-4.099624],[120.041485,-4.100108],[120.04082,-4.100511],[120.039482,-4.100682],[120.035996,-4.100323],[120.03605,-4.099176],[120.035386,-4.099006],[120.034478,-4.099114],[120.033697,-4.098916],[120.032259,-4.097563],[120.032134,-4.097322],[120.032206,-4.097008],[120.034182,-4.093496],[120.034703,-4.091999],[120.030553,-4.092608],[120.030526,-4.092071],[120.030023,-4.092017],[120.030095,-4.091712],[120.029897,-4.091614],[120.02996,-4.091202],[120.029771,-4.091121],[120.029978,-4.090619],[120.02996,-4.090288],[120.029771,-4.090252],[120.029906,-4.089616],[120.03013,-4.089562],[120.03049,-4.088379],[120.030678,-4.088388],[120.030777,-4.088182],[120.031092,-4.088254],[120.031568,-4.087331],[120.031711,-4.087367],[120.031783,-4.087035]]]},"properties":{"FID":61,"KECAMATAN":"Kec. Tanasitolo","DESA":"Ujung Baru","PETERNAKAN":"AYAM PEDAGING","kecamatan_sumber_asli":"Tanasitolo","wilayah_kecamatan_kode":["73.13.08"],"wilayah_desa_kode":["73.13.08.2018"],"pemetaan_wilayah":"terpetakan"}},{"type":"Feature","id":91,"geometry":{"type":"Polygon","coordinates":[[[120.041108,-3.984003],[120.04259,-3.984012],[120.042554,-3.984236],[120.044144,-3.984379],[120.045555,-3.98481],[120.046156,-3.985231],[120.046426,-3.985159],[120.046911,-3.985311],[120.047118,-3.985948],[120.047558,-3.986082],[120.048052,-3.98593],[120.049507,-3.986145],[120.050046,-3.985724],[120.050405,-3.985025],[120.051771,-3.985338],[120.052705,-3.985957],[120.053163,-3.985966],[120.053981,-3.986557],[120.054547,-3.987211],[120.056334,-3.98852],[120.056622,-3.988063],[120.057206,-3.988322],[120.057772,-3.988296],[120.058311,-3.988502],[120.058742,-3.98938],[120.059155,-3.989111],[120.059496,-3.989093],[120.060179,-3.989649],[120.060188,-3.989425],[120.060467,-3.989425],[120.060565,-3.989613],[120.061068,-3.989622],[120.061257,-3.989443],[120.061257,-3.989084],[120.062308,-3.98903],[120.063206,-3.989469],[120.063727,-3.989523],[120.063718,-3.988995],[120.063943,-3.988887],[120.064994,-3.989272],[120.06591,-3.989353],[120.066243,-3.988582],[120.066916,-3.988905],[120.067222,-3.989362],[120.067509,-3.989371],[120.06812,-3.988546],[120.070465,-3.989693],[120.071453,-3.990984],[120.071687,-3.990832],[120.07183,-3.990455],[120.072181,-3.990643],[120.072324,-3.99102],[120.072791,-3.99128],[120.073223,-3.991307],[120.073483,-3.992364],[120.073941,-3.993045],[120.074076,-3.993511],[120.074408,-3.993744],[120.076609,-3.994918],[120.076969,-3.994981],[120.077903,-3.994936],[120.077966,-3.993905],[120.078756,-3.993932],[120.0789,-3.995232],[120.079753,-3.99559],[120.080265,-3.994201],[120.080885,-3.993843],[120.081586,-3.993726],[120.08235,-3.993896],[120.083859,-3.995043],[120.08429,-3.995061],[120.085988,-3.994631],[120.086967,-3.994031],[120.088395,-3.993538],[120.088728,-3.993036],[120.08941,-3.993215],[120.09224,-3.991468],[120.093354,-3.990446],[120.093857,-3.98972],[120.094055,-3.989676],[120.094055,-3.990867],[120.093623,-3.992391],[120.093525,-3.995644],[120.093839,-3.996379],[120.093587,-3.996585],[120.093525,-3.996872],[120.093902,-3.998476],[120.094342,-3.999201],[120.095186,-3.999757],[120.095645,-4.000761],[120.095725,-4.001487],[120.096058,-4.00232],[120.095869,-4.003825],[120.096157,-4.004372],[120.096004,-4.00655],[120.096175,-4.007276],[120.096085,-4.007912],[120.096839,-4.008154],[120.097765,-4.008835],[120.098366,-4.010824],[120.099301,-4.011738],[120.100091,-4.013109],[120.100019,-4.013889],[120.100325,-4.014776],[120.100217,-4.015117],[120.099894,-4.01578],[120.099067,-4.016147],[120.098807,-4.016443],[120.098546,-4.017169],[120.099211,-4.017411],[120.099103,-4.017787],[120.099543,-4.018316],[120.099319,-4.019149],[120.099516,-4.019938],[120.098501,-4.01974],[120.0956,-4.020018],[120.094629,-4.019821],[120.09374,-4.020413],[120.092482,-4.020126],[120.091611,-4.02018],[120.091189,-4.020735],[120.08985,-4.021291],[120.089608,-4.021174],[120.088737,-4.02138],[120.08818,-4.020986],[120.087245,-4.022339],[120.086625,-4.022303],[120.085979,-4.023441],[120.084461,-4.023414],[120.084182,-4.022026],[120.083931,-4.021918],[120.083068,-4.022509],[120.081218,-4.024391],[120.079879,-4.025063],[120.077382,-4.025547],[120.077265,-4.025296],[120.076708,-4.02518],[120.076717,-4.024104],[120.07643,-4.022572],[120.074435,-4.022124],[120.072881,-4.021452],[120.072522,-4.02147],[120.072387,-4.021291],[120.072423,-4.02018],[120.07174,-4.019283],[120.068255,-4.018549],[120.06742,-4.018522],[120.064886,-4.017903],[120.063638,-4.017142],[120.062667,-4.017635],[120.060305,-4.017635],[120.05946,-4.017975],[120.058544,-4.017724],[120.055813,-4.017661],[120.053819,-4.017115],[120.051232,-4.017043],[120.049875,-4.016497],[120.049085,-4.016541],[120.047639,-4.016102],[120.04798,-4.013934],[120.047055,-4.014238],[120.046875,-4.014471],[120.046013,-4.014238],[120.045752,-4.014642],[120.044126,-4.013737],[120.043461,-4.013575],[120.043291,-4.013916],[120.042689,-4.013701],[120.045626,-4.006711],[120.043452,-4.005707],[120.043399,-4.005904],[120.040057,-4.004704],[120.040147,-4.004471],[120.039491,-4.004247],[120.039527,-4.004112],[120.038961,-4.003852],[120.039365,-4.003207],[120.038566,-4.00292],[120.038602,-4.002759],[120.038269,-4.002634],[120.039653,-3.999121],[120.038745,-3.9987],[120.039931,-3.996065],[120.039841,-3.995966],[120.040686,-3.993672],[120.04109,-3.991979],[120.04082,-3.991853],[120.040883,-3.991674],[120.03862,-3.990876],[120.038611,-3.990706],[120.036428,-3.989658],[120.034137,-3.989586],[120.034415,-3.9886],[120.033858,-3.98627],[120.033975,-3.984998],[120.034209,-3.984317],[120.034442,-3.984209],[120.035035,-3.98429],[120.036724,-3.985356],[120.038359,-3.984254],[120.038772,-3.983698],[120.039078,-3.983582],[120.041108,-3.984003]]]},"properties":{"FID":91,"KECAMATAN":"Kec. Tanasitolo","DESA":"Tonralipue","PETERNAKAN":"AYAM PEDAGING","kecamatan_sumber_asli":"Tanasitolo","wilayah_kecamatan_kode":["73.13.08"],"wilayah_desa_kode":["73.13.08.2017"],"pemetaan_wilayah":"terpetakan"}},{"type":"Feature","id":101,"geometry":{"type":"Polygon","coordinates":[[[119.988494,-3.934606],[119.989167,-3.931209],[119.989383,-3.930734],[119.989356,-3.930233],[119.99003,-3.928826],[119.991647,-3.928064],[119.993371,-3.927795],[119.993776,-3.928028],[119.994135,-3.929444],[119.994584,-3.930286],[119.995141,-3.930609],[119.99701,-3.930537],[119.997153,-3.930358],[119.997099,-3.930009],[119.996776,-3.929587],[119.99612,-3.927687],[119.996183,-3.92715],[119.997072,-3.925339],[120.000288,-3.926558],[120.001663,-3.926791],[120.00063,-3.930887],[120.000845,-3.933333],[120.000351,-3.934714],[120.007295,-3.936443],[120.010628,-3.937922],[120.013592,-3.938038],[120.016153,-3.938648],[120.016233,-3.938513],[120.023815,-3.940369],[120.023025,-3.941274],[120.02316,-3.941453],[120.022998,-3.941569],[120.022836,-3.942466],[120.02271,-3.942448],[120.022558,-3.943138],[120.022378,-3.943093],[120.022064,-3.944258],[120.021866,-3.944195],[120.019881,-3.954699],[120.020132,-3.954752],[120.017617,-3.963624],[120.017069,-3.963678],[120.016862,-3.966636],[120.016117,-3.966609],[120.01556,-3.968679],[120.015057,-3.968517],[120.014563,-3.971421],[120.012928,-3.97117],[120.011041,-3.97134],[120.011113,-3.979872],[120.010547,-3.986225],[120.005786,-3.984998],[120.003864,-3.989039],[120.001672,-3.991477],[119.995114,-3.988663],[119.99409,-3.988923],[119.991287,-3.988753],[119.990353,-3.988878],[119.987712,-3.987632],[119.987191,-3.986799],[119.986356,-3.986136],[119.986607,-3.985141],[119.986742,-3.985195],[119.987092,-3.98463],[119.987083,-3.983071],[119.987308,-3.981736],[119.98508,-3.981807],[119.984649,-3.981521],[119.985107,-3.980248],[119.985161,-3.979567],[119.984559,-3.978922],[119.984227,-3.978778],[119.980966,-3.977945],[119.98066,-3.97764],[119.980499,-3.977076],[119.980139,-3.976861],[119.979142,-3.974979],[119.979681,-3.971538],[119.978531,-3.969611],[119.978208,-3.96867],[119.978334,-3.967451],[119.97898,-3.964547],[119.979439,-3.963302],[119.982232,-3.95158],[119.983193,-3.949492],[119.984541,-3.94899],[119.984451,-3.94657],[119.985493,-3.94372],[119.985691,-3.94329],[119.986131,-3.942905],[119.986787,-3.940799],[119.987272,-3.940413],[119.987775,-3.937223],[119.988494,-3.934606]]]},"properties":{"FID":101,"KECAMATAN":"Kec. Belawa","DESA":"Wele","PETERNAKAN":"AYAM KAMPUNG, ITIK/MANILA","kecamatan_sumber_asli":"Belawa","wilayah_kecamatan_kode":["73.13.07"],"wilayah_desa_kode":["73.13.07.2006"],"pemetaan_wilayah":"terpetakan"}},{"type":"Feature","id":103,"geometry":{"type":"Polygon","coordinates":[[[120.016233,-3.938513],[120.017877,-3.93578],[120.017958,-3.934221],[120.018129,-3.934041],[120.018901,-3.93423],[120.019108,-3.93371],[120.018884,-3.932401],[120.017797,-3.931586],[120.01997,-3.932034],[120.019899,-3.932545],[120.030454,-3.935744],[120.030508,-3.935386],[120.030687,-3.935296],[120.032816,-3.93578],[120.03296,-3.935045],[120.033867,-3.935126],[120.033939,-3.934875],[120.034784,-3.934956],[120.034945,-3.934301],[120.036257,-3.933665],[120.03976,-3.934248],[120.040569,-3.933208],[120.041045,-3.932957],[120.046767,-3.934785],[120.046938,-3.934893],[120.046974,-3.935162],[120.046767,-3.936174],[120.047648,-3.936443],[120.047989,-3.936981],[120.049408,-3.93785],[120.050181,-3.9382],[120.051025,-3.938271],[120.05045,-3.940664],[120.049956,-3.940512],[120.049777,-3.941139],[120.052498,-3.942134],[120.053442,-3.942027],[120.054035,-3.941641],[120.055337,-3.94182],[120.054852,-3.943962],[120.054708,-3.944025],[120.05381,-3.946516],[120.05425,-3.946624],[120.053792,-3.948246],[120.054888,-3.948506],[120.054627,-3.949151],[120.054708,-3.949277],[120.054592,-3.949635],[120.054762,-3.949734],[120.054627,-3.950254],[120.05575,-3.950791],[120.055616,-3.951123],[120.05708,-3.951616],[120.056801,-3.952207],[120.056325,-3.952118],[120.056119,-3.952512],[120.056307,-3.952575],[120.05593,-3.953596],[120.05549,-3.953417],[120.055355,-3.95382],[120.05522,-3.953811],[120.05487,-3.954949],[120.054232,-3.954905],[120.054124,-3.955389],[120.053406,-3.955263],[120.053109,-3.956652],[120.053379,-3.956751],[120.052157,-3.961026],[120.053109,-3.961285],[120.052759,-3.962486],[120.052957,-3.962594],[120.05275,-3.963517],[120.053127,-3.963687],[120.0524,-3.965479],[120.051977,-3.966994],[120.051771,-3.966949],[120.05098,-3.969718],[120.05116,-3.969772],[120.050486,-3.972783],[120.04966,-3.972487],[120.049561,-3.972792],[120.049139,-3.972738],[120.049004,-3.972918],[120.048339,-3.972738],[120.048223,-3.973142],[120.047531,-3.973097],[120.046174,-3.972604],[120.046049,-3.973186],[120.045231,-3.972953],[120.04506,-3.973124],[120.043129,-3.972828],[120.042653,-3.97255],[120.040299,-3.972012],[120.040219,-3.972425],[120.039805,-3.972299],[120.039671,-3.972729],[120.035386,-3.971511],[120.035314,-3.971806],[120.034945,-3.971762],[120.034865,-3.971914],[120.032367,-3.970292],[120.031954,-3.97022],[120.031667,-3.970919],[120.030939,-3.970713],[120.030858,-3.971036],[120.030499,-3.970955],[120.030346,-3.971771],[120.030005,-3.971717],[120.029753,-3.972819],[120.029394,-3.97272],[120.02907,-3.973554],[120.028478,-3.97333],[120.027939,-3.97445],[120.02757,-3.97436],[120.027435,-3.974782],[120.026789,-3.974584],[120.026465,-3.975203],[120.025908,-3.975024],[120.025612,-3.976081],[120.025315,-3.976045],[120.024929,-3.976717],[120.024606,-3.976529],[120.02404,-3.977282],[120.023761,-3.97713],[120.023231,-3.977542],[120.022261,-3.978931],[120.021399,-3.979836],[120.02201,-3.982309],[120.022567,-3.982865],[120.01927,-3.988367],[120.010547,-3.986225],[120.011113,-3.979872],[120.011041,-3.97134],[120.012928,-3.97117],[120.014563,-3.971421],[120.015057,-3.968517],[120.01556,-3.968679],[120.016117,-3.966609],[120.016862,-3.966636],[120.017069,-3.963678],[120.017617,-3.963624],[120.020132,-3.954752],[120.019881,-3.954699],[120.021866,-3.944195],[120.022064,-3.944258],[120.022378,-3.943093],[120.022558,-3.943138],[120.02271,-3.942448],[120.022836,-3.942466],[120.022998,-3.941569],[120.02316,-3.941453],[120.023025,-3.941274],[120.023815,-3.940369],[120.016233,-3.938513]]]},"properties":{"FID":103,"KECAMATAN":"Kec. Maniangpajo","DESA":"Tangkoli","PETERNAKAN":"ITIK/MANILA","kecamatan_sumber_asli":"Maniang Pajo","wilayah_kecamatan_kode":["73.13.09"],"wilayah_desa_kode":["73.13.09.1003"],"pemetaan_wilayah":"terpetakan"}},{"type":"Feature","id":122,"geometry":{"type":"Polygon","coordinates":[[[120.235333,-3.984908],[120.234677,-3.985222],[120.234228,-3.985258],[120.233904,-3.985096],[120.233734,-3.984442],[120.233895,-3.983564],[120.234749,-3.982623],[120.23483,-3.98213],[120.234659,-3.98196],[120.234228,-3.981933],[120.233994,-3.982085],[120.233743,-3.983286],[120.233132,-3.984039],[120.232503,-3.984003],[120.232251,-3.983662],[120.232323,-3.982972],[120.232871,-3.982426],[120.233428,-3.982148],[120.233779,-3.981288],[120.2335,-3.978169],[120.233222,-3.977757],[120.232826,-3.977703],[120.232,-3.978142],[120.231596,-3.979343],[120.231227,-3.979513],[120.231209,-3.979997],[120.230329,-3.980159],[120.229404,-3.980069],[120.22935,-3.980893],[120.229233,-3.980965],[120.229152,-3.981861],[120.228865,-3.982856],[120.228712,-3.983295],[120.228326,-3.983196],[120.228173,-3.984003],[120.227742,-3.984926],[120.225748,-3.98394],[120.225164,-3.98351],[120.225703,-3.981565],[120.22528,-3.981324],[120.225864,-3.979513],[120.223394,-3.978931],[120.223421,-3.977945],[120.223178,-3.977936],[120.222792,-3.977058],[120.223053,-3.976413],[120.221121,-3.975749],[120.221049,-3.975561],[120.221256,-3.975346],[120.221139,-3.97393],[120.221445,-3.972819],[120.222675,-3.97229],[120.223816,-3.972434],[120.224472,-3.972281],[120.225119,-3.971475],[120.225882,-3.970964],[120.226574,-3.970839],[120.22723,-3.968643],[120.227059,-3.968526],[120.227059,-3.968293],[120.228218,-3.967962],[120.228056,-3.966761],[120.228227,-3.96617],[120.227948,-3.965193],[120.229008,-3.965229],[120.229269,-3.964718],[120.230392,-3.965005],[120.230868,-3.964081],[120.231551,-3.9615],[120.23165,-3.959762],[120.228775,-3.959224],[120.228892,-3.958991],[120.230545,-3.959126],[120.230922,-3.958973],[120.23182,-3.959009],[120.232117,-3.958848],[120.232224,-3.958158],[120.232718,-3.958149],[120.232718,-3.95857],[120.235485,-3.959296],[120.235764,-3.958884],[120.236455,-3.959529],[120.23686,-3.959126],[120.237623,-3.959394],[120.238019,-3.959341],[120.238351,-3.959672],[120.238737,-3.959287],[120.239806,-3.960049],[120.240022,-3.960067],[120.240175,-3.95978],[120.241288,-3.960371],[120.241585,-3.960443],[120.241666,-3.960228],[120.242169,-3.960604],[120.243022,-3.960936],[120.243301,-3.960819],[120.243759,-3.960264],[120.243876,-3.960407],[120.244334,-3.960344],[120.244459,-3.960094],[120.244998,-3.960138],[120.245394,-3.959959],[120.245412,-3.959825],[120.246499,-3.959654],[120.246499,-3.95926],[120.24746,-3.959135],[120.247927,-3.960192],[120.248628,-3.960049],[120.248825,-3.960353],[120.249625,-3.960049],[120.24984,-3.960327],[120.251152,-3.959878],[120.251502,-3.95995],[120.251718,-3.959762],[120.253613,-3.959861],[120.254476,-3.95961],[120.255167,-3.959968],[120.255311,-3.959645],[120.257054,-3.959735],[120.257099,-3.959466],[120.257773,-3.959511],[120.257934,-3.958973],[120.258356,-3.959018],[120.25841,-3.958812],[120.259021,-3.958955],[120.259102,-3.958678],[120.259569,-3.958695],[120.259749,-3.958498],[120.260018,-3.958534],[120.260117,-3.95874],[120.261177,-3.958902],[120.260962,-3.959475],[120.261213,-3.960255],[120.26115,-3.960981],[120.260791,-3.961859],[120.260494,-3.961904],[120.260476,-3.963257],[120.260315,-3.963302],[120.260135,-3.963857],[120.260279,-3.96444],[120.260234,-3.965704],[120.260423,-3.967406],[120.260854,-3.967541],[120.261339,-3.969028],[120.261429,-3.97065],[120.261617,-3.971313],[120.260881,-3.971394],[120.260153,-3.9735],[120.260755,-3.97367],[120.262102,-3.974369],[120.262138,-3.974522],[120.260908,-3.975956],[120.260881,-3.976314],[120.260575,-3.976672],[120.260674,-3.977416],[120.26027,-3.97764],[120.259731,-3.978725],[120.258635,-3.978133],[120.258159,-3.978178],[120.257368,-3.978805],[120.256847,-3.979684],[120.256182,-3.98015],[120.253721,-3.980625],[120.253541,-3.980633],[120.252077,-3.979675],[120.251628,-3.97963],[120.251385,-3.979881],[120.251323,-3.98066],[120.251134,-3.980938],[120.250101,-3.981171],[120.249778,-3.981037],[120.249589,-3.980705],[120.250316,-3.978922],[120.249804,-3.978303],[120.249122,-3.978268],[120.248304,-3.978581],[120.247487,-3.979406],[120.246633,-3.979836],[120.246175,-3.980947],[120.246202,-3.982757],[120.245681,-3.98351],[120.245052,-3.983761],[120.24366,-3.983788],[120.242618,-3.983618],[120.242223,-3.983725],[120.24163,-3.984308],[120.241854,-3.985302],[120.241468,-3.985724],[120.240983,-3.985768],[120.240228,-3.985159],[120.240273,-3.984872],[120.240902,-3.984281],[120.241019,-3.9836],[120.240579,-3.983232],[120.239375,-3.982955],[120.237524,-3.982874],[120.236869,-3.983447],[120.236626,-3.98437],[120.23589,-3.984962],[120.235333,-3.984908]]]},"properties":{"FID":122,"KECAMATAN":"Kec. Sajoanging","DESA":"Towalida","PETERNAKAN":"AYAM PETELUR","kecamatan_sumber_asli":"Sajoanging","wilayah_kecamatan_kode":["73.13.04"],"wilayah_desa_kode":["73.13.04.2008"],"pemetaan_wilayah":"terpetakan"}},{"type":"Feature","id":132,"geometry":{"type":"Polygon","coordinates":[[[120.353344,-3.737886],[120.353686,-3.738674],[120.353569,-3.739732],[120.354063,-3.741713],[120.354907,-3.743587],[120.355464,-3.744223],[120.35683,-3.747692],[120.357396,-3.748651],[120.359129,-3.751376],[120.360495,-3.752936],[120.361115,-3.753313],[120.362076,-3.753546],[120.362426,-3.753868],[120.363037,-3.754101],[120.362615,-3.755007],[120.361896,-3.755984],[120.360495,-3.757275],[120.364789,-3.762519],[120.367196,-3.764491],[120.368643,-3.76674],[120.370403,-3.767933],[120.377033,-3.773248],[120.371859,-3.773885],[120.371742,-3.774593],[120.371068,-3.774575],[120.371005,-3.775113],[120.370763,-3.775059],[120.370673,-3.775534],[120.370152,-3.775471],[120.369864,-3.77617],[120.368679,-3.775919],[120.366657,-3.775014],[120.364286,-3.775785],[120.364331,-3.774951],[120.363882,-3.774853],[120.363253,-3.775014],[120.36292,-3.774879],[120.362804,-3.774602],[120.361986,-3.774512],[120.361447,-3.773499],[120.36098,-3.773302],[120.360666,-3.772943],[120.360369,-3.773194],[120.358941,-3.772423],[120.358617,-3.773212],[120.358024,-3.773042],[120.357755,-3.772459],[120.354332,-3.772477],[120.354323,-3.771706],[120.353569,-3.771724],[120.351359,-3.770183],[120.350811,-3.770451],[120.35029,-3.77038],[120.349437,-3.769914],[120.348359,-3.770478],[120.348152,-3.770478],[120.348008,-3.770218],[120.347263,-3.770371],[120.347002,-3.770514],[120.346993,-3.771393],[120.346697,-3.771249],[120.346463,-3.771339],[120.344532,-3.770792],[120.342349,-3.768847],[120.34084,-3.768058],[120.339699,-3.76787],[120.338792,-3.76813],[120.336438,-3.768103],[120.33395,-3.766543],[120.332782,-3.766445],[120.330581,-3.766785],[120.329404,-3.767242],[120.32812,-3.767995],[120.326565,-3.768479],[120.325137,-3.76778],[120.324922,-3.768058],[120.323853,-3.767924],[120.324086,-3.767637],[120.323906,-3.767332],[120.32193,-3.767099],[120.321122,-3.766355],[120.319855,-3.76571],[120.320385,-3.764428],[120.320906,-3.764069],[120.32131,-3.764042],[120.32193,-3.764607],[120.322532,-3.76484],[120.323359,-3.764957],[120.32361,-3.764939],[120.323754,-3.764733],[120.323871,-3.764482],[120.323862,-3.762554],[120.323565,-3.762133],[120.322236,-3.76181],[120.322065,-3.761524],[120.322245,-3.761093],[120.323323,-3.760753],[120.32467,-3.760815],[120.326565,-3.761264],[120.32706,-3.761075],[120.32723,-3.760313],[120.327033,-3.759193],[120.326727,-3.758843],[120.326125,-3.758754],[120.325847,-3.758377],[120.325937,-3.757813],[120.326476,-3.757113],[120.326413,-3.75593],[120.326727,-3.755473],[120.327275,-3.755392],[120.327688,-3.755778],[120.327518,-3.757463],[120.327626,-3.757786],[120.328317,-3.75818],[120.328659,-3.758046],[120.32909,-3.757445],[120.329548,-3.755885],[120.32944,-3.754048],[120.329961,-3.753779],[120.331731,-3.754388],[120.332629,-3.754272],[120.33289,-3.753743],[120.332845,-3.752138],[120.333015,-3.751627],[120.33403,-3.750749],[120.33474,-3.749611],[120.335073,-3.749422],[120.335881,-3.74962],[120.336025,-3.749978],[120.33607,-3.751574],[120.336528,-3.751869],[120.336941,-3.751789],[120.337363,-3.751081],[120.337139,-3.750417],[120.337175,-3.749826],[120.338019,-3.748804],[120.338917,-3.748365],[120.339627,-3.748481],[120.340022,-3.748777],[120.340543,-3.748768],[120.341711,-3.748311],[120.342178,-3.747925],[120.342322,-3.747244],[120.341738,-3.746276],[120.341774,-3.745926],[120.34225,-3.745406],[120.343094,-3.745075],[120.343633,-3.744501],[120.3449,-3.744152],[120.345529,-3.743775],[120.345673,-3.742897],[120.345457,-3.742206],[120.3457,-3.741713],[120.346571,-3.741149],[120.347514,-3.741113],[120.347927,-3.740933],[120.348736,-3.740216],[120.349958,-3.739652],[120.350667,-3.739813],[120.351161,-3.74053],[120.351646,-3.740476],[120.351853,-3.740127],[120.351889,-3.739687],[120.350856,-3.7388],[120.350667,-3.738424],[120.350784,-3.738038],[120.351485,-3.737886],[120.352653,-3.73811],[120.353147,-3.737644],[120.353344,-3.737886]]]},"properties":{"FID":132,"KECAMATAN":"Kec. Pitumpanua","DESA":"Lauwa","PETERNAKAN":"SAPI, KERBAU","kecamatan_sumber_asli":"Pitumpanua","wilayah_kecamatan_kode":["73.13.10"],"wilayah_desa_kode":["73.13.10.2006"],"pemetaan_wilayah":"terpetakan"}},{"type":"Feature","id":135,"geometry":{"type":"Polygon","coordinates":[[[120.294855,-3.721652],[120.296023,-3.722476],[120.296688,-3.723938],[120.297397,-3.724825],[120.298125,-3.725345],[120.29967,-3.725614],[120.300559,-3.725972],[120.299661,-3.727918],[120.300038,-3.73023],[120.299598,-3.731656],[120.300074,-3.732409],[120.300407,-3.734201],[120.300155,-3.734703],[120.2994,-3.735268],[120.298754,-3.736317],[120.297774,-3.736864],[120.297334,-3.736756],[120.297209,-3.737563],[120.297298,-3.737966],[120.297424,-3.738388],[120.2979,-3.738782],[120.297954,-3.739033],[120.2979,-3.739472],[120.297658,-3.73984],[120.298026,-3.740942],[120.297837,-3.741193],[120.298026,-3.742153],[120.298224,-3.742341],[120.299571,-3.742377],[120.301269,-3.742735],[120.30205,-3.742502],[120.302239,-3.742646],[120.302329,-3.743524],[120.302985,-3.743282],[120.304117,-3.74321],[120.304467,-3.742888],[120.305356,-3.742592],[120.306174,-3.743049],[120.306946,-3.742986],[120.307171,-3.74365],[120.307395,-3.743892],[120.307422,-3.744223],[120.308186,-3.745586],[120.308267,-3.745908],[120.308051,-3.746186],[120.308159,-3.746366],[120.30903,-3.746679],[120.309363,-3.74607],[120.30992,-3.746007],[120.311195,-3.747137],[120.31186,-3.748669],[120.312237,-3.748867],[120.312857,-3.748535],[120.3131,-3.748571],[120.314196,-3.750077],[120.314295,-3.750982],[120.313324,-3.752703],[120.313432,-3.753178],[120.313809,-3.753582],[120.313468,-3.754594],[120.314097,-3.755751],[120.315822,-3.756782],[120.316172,-3.757194],[120.316486,-3.758422],[120.317088,-3.759543],[120.31698,-3.759794],[120.316424,-3.759704],[120.316172,-3.759856],[120.316145,-3.760295],[120.316459,-3.760529],[120.316855,-3.760573],[120.317816,-3.75965],[120.318229,-3.759874],[120.318984,-3.760851],[120.319442,-3.761066],[120.319846,-3.760771],[120.320367,-3.760663],[120.320753,-3.759883],[120.321077,-3.760071],[120.321238,-3.760484],[120.321742,-3.760484],[120.32246,-3.759587],[120.323152,-3.759785],[120.323709,-3.760242],[120.323718,-3.760762],[120.322469,-3.760977],[120.322119,-3.761246],[120.322065,-3.761524],[120.322236,-3.76181],[120.323565,-3.762133],[120.323862,-3.762554],[120.323871,-3.764482],[120.32361,-3.764939],[120.322182,-3.764715],[120.32131,-3.764042],[120.320655,-3.764186],[120.320385,-3.764428],[120.319927,-3.76536],[120.319756,-3.766678],[120.319568,-3.767027],[120.317825,-3.767834],[120.317493,-3.767798],[120.317268,-3.767547],[120.317223,-3.766696],[120.316603,-3.766382],[120.315768,-3.766391],[120.315274,-3.766588],[120.314645,-3.766454],[120.313217,-3.766498],[120.312669,-3.766265],[120.3116,-3.766427],[120.311294,-3.765979],[120.310728,-3.765602],[120.310728,-3.765441],[120.309983,-3.765154],[120.308815,-3.765091],[120.307386,-3.765378],[120.306371,-3.765378],[120.306273,-3.765109],[120.305464,-3.76519],[120.305213,-3.764544],[120.30462,-3.764195],[120.304341,-3.764195],[120.30435,-3.764491],[120.303218,-3.764966],[120.302724,-3.765001],[120.30267,-3.764473],[120.302284,-3.764446],[120.301601,-3.763809],[120.30108,-3.763738],[120.300793,-3.763881],[120.300793,-3.762178],[120.300478,-3.761676],[120.299751,-3.761568],[120.299598,-3.761425],[120.299769,-3.760618],[120.299329,-3.760412],[120.299167,-3.759919],[120.299122,-3.758431],[120.298313,-3.75827],[120.298358,-3.757275],[120.298161,-3.756898],[120.297092,-3.755939],[120.296975,-3.755276],[120.296562,-3.754684],[120.295475,-3.754003],[120.29525,-3.752515],[120.294514,-3.751305],[120.293346,-3.75143],[120.292349,-3.750857],[120.292025,-3.75039],[120.291576,-3.750256],[120.291019,-3.749772],[120.290525,-3.750265],[120.289196,-3.750722],[120.287785,-3.750686],[120.285728,-3.752129],[120.283195,-3.752371],[120.282548,-3.7523],[120.282117,-3.751789],[120.281569,-3.749637],[120.280976,-3.749001],[120.280176,-3.74884],[120.279206,-3.749422],[120.276978,-3.747522],[120.27741,-3.747074],[120.277571,-3.746518],[120.275793,-3.745299],[120.275766,-3.744967],[120.276143,-3.744618],[120.276502,-3.743201],[120.277023,-3.742188],[120.278515,-3.741713],[120.278479,-3.740835],[120.278622,-3.740414],[120.279278,-3.740772],[120.279763,-3.740611],[120.28032,-3.738011],[120.2805,-3.737859],[120.281874,-3.737796],[120.28182,-3.737464],[120.281021,-3.736909],[120.280455,-3.736066],[120.280724,-3.73586],[120.28129,-3.735869],[120.281991,-3.736783],[120.28271,-3.737339],[120.283374,-3.738128],[120.283626,-3.73776],[120.283608,-3.736693],[120.28341,-3.736398],[120.282422,-3.735842],[120.281784,-3.735161],[120.281802,-3.734605],[120.282404,-3.734354],[120.28253,-3.734157],[120.28227,-3.73318],[120.281928,-3.732875],[120.281084,-3.734192],[120.280653,-3.734157],[120.280123,-3.733628],[120.279853,-3.733556],[120.279503,-3.733726],[120.279386,-3.734318],[120.279206,-3.734255],[120.279,-3.733933],[120.278892,-3.733197],[120.279036,-3.731324],[120.278488,-3.73041],[120.277338,-3.730463],[120.277032,-3.729701],[120.276431,-3.729468],[120.275775,-3.730114],[120.275083,-3.730203],[120.274589,-3.730679],[120.274203,-3.730625],[120.273619,-3.730248],[120.272864,-3.73067],[120.272181,-3.729943],[120.270672,-3.7298],[120.269747,-3.72928],[120.269522,-3.727613],[120.269352,-3.727487],[120.268355,-3.727496],[120.267923,-3.726376],[120.266396,-3.717134],[120.267636,-3.716166],[120.268678,-3.714328],[120.269253,-3.713987],[120.27184,-3.713189],[120.272325,-3.713162],[120.273502,-3.713969],[120.276853,-3.714749],[120.27732,-3.715108],[120.277643,-3.715664],[120.277607,-3.717815],[120.277985,-3.71924],[120.278263,-3.719662],[120.278946,-3.719886],[120.28129,-3.721571],[120.282386,-3.722001],[120.283698,-3.722091],[120.28456,-3.721419],[120.285989,-3.721347],[120.286698,-3.721168],[120.288216,-3.720316],[120.29198,-3.719742],[120.292879,-3.719133],[120.29428,-3.721114],[120.294855,-3.721652]]]},"properties":{"FID":135,"KECAMATAN":"Kec. Pitumpanua","DESA":"Simpellu","PETERNAKAN":"SAPI, KUDA , ITIK/MANILA","kecamatan_sumber_asli":"Pitumpanua","wilayah_kecamatan_kode":["73.13.10"],"wilayah_desa_kode":["73.13.10.2013"],"pemetaan_wilayah":"terpetakan"}},{"type":"Feature","id":139,"geometry":{"type":"Polygon","coordinates":[[[120.417655,-3.67873],[120.42043,-3.678999],[120.42238,-3.680218],[120.423063,-3.680765],[120.423332,-3.681276],[120.424464,-3.682101],[120.425677,-3.68237],[120.426485,-3.682307],[120.4268,-3.682647],[120.428039,-3.682746],[120.428794,-3.68315],[120.42909,-3.68306],[120.429324,-3.682764],[120.429665,-3.683185],[120.430312,-3.683329],[120.431812,-3.684414],[120.432369,-3.684557],[120.432728,-3.684324],[120.436007,-3.686144],[120.436762,-3.686915],[120.437211,-3.687614],[120.438055,-3.689496],[120.437984,-3.691522],[120.437759,-3.691845],[120.437813,-3.692751],[120.43722,-3.695117],[120.437139,-3.696309],[120.43669,-3.696659],[120.435387,-3.696811],[120.435325,-3.697188],[120.433681,-3.697269],[120.431165,-3.698058],[120.429917,-3.698264],[120.429494,-3.698246],[120.429126,-3.69786],[120.428497,-3.696695],[120.427904,-3.6963],[120.426476,-3.696256],[120.424823,-3.696776],[120.424239,-3.697313],[120.423871,-3.698066],[120.423943,-3.69951],[120.423745,-3.700173],[120.423377,-3.700568],[120.422461,-3.700836],[120.420646,-3.700334],[120.419685,-3.70029],[120.419119,-3.700783],[120.418571,-3.701787],[120.417367,-3.703158],[120.417358,-3.703831],[120.419128,-3.705139],[120.419245,-3.705641],[120.418885,-3.706341],[120.418068,-3.706511],[120.417664,-3.706323],[120.416765,-3.705283],[120.416226,-3.705364],[120.416002,-3.705713],[120.416092,-3.70626],[120.416433,-3.706627],[120.417448,-3.706995],[120.417574,-3.707255],[120.417493,-3.707811],[120.416092,-3.710868],[120.415535,-3.710868],[120.414268,-3.709227],[120.413819,-3.709129],[120.413693,-3.709317],[120.413729,-3.709899],[120.414457,-3.71171],[120.414259,-3.712096],[120.41319,-3.713082],[120.412615,-3.713422],[120.41072,-3.713664],[120.409651,-3.713046],[120.409166,-3.7131],[120.408519,-3.713485],[120.408025,-3.713512],[120.407665,-3.713288],[120.40674,-3.712176],[120.406686,-3.711952],[120.407144,-3.710644],[120.40709,-3.710393],[120.406417,-3.70938],[120.405914,-3.709146],[120.407189,-3.707255],[120.408923,-3.705211],[120.409606,-3.704691],[120.41063,-3.703562],[120.411726,-3.703875],[120.412382,-3.703598],[120.412687,-3.702307],[120.413783,-3.700397],[120.413495,-3.699599],[120.413513,-3.699205],[120.413801,-3.698622],[120.414385,-3.69847],[120.41478,-3.697941],[120.415184,-3.696704],[120.415615,-3.696139],[120.416092,-3.694176],[120.416909,-3.694167],[120.416945,-3.694068],[120.416945,-3.693324],[120.416415,-3.692042],[120.416478,-3.691711],[120.415768,-3.688134],[120.41681,-3.687963],[120.4169,-3.686852],[120.41672,-3.682334],[120.416864,-3.68228],[120.416586,-3.68098],[120.415714,-3.680577],[120.415777,-3.679976],[120.415966,-3.679653],[120.417421,-3.678963],[120.417646,-3.678587],[120.417655,-3.67873]]]},"properties":{"FID":139,"KECAMATAN":"Kec. Pitumpanua","DESA":"Siwa","PETERNAKAN":"KERBAU, KAMBING","kecamatan_sumber_asli":"Pitumpanua","wilayah_kecamatan_kode":["73.13.10"],"wilayah_desa_kode":["73.13.10.1002"],"pemetaan_wilayah":"terpetakan"}},{"type":"Feature","id":140,"geometry":{"type":"Polygon","coordinates":[[[120.387346,-3.705023],[120.387408,-3.70548],[120.387157,-3.707129],[120.386025,-3.707811],[120.38598,-3.708214],[120.385782,-3.708322],[120.38501,-3.708196],[120.38377,-3.708429],[120.383752,-3.709254],[120.383132,-3.709245],[120.383079,-3.70886],[120.382378,-3.708842],[120.382324,-3.70981],[120.380914,-3.710007],[120.380842,-3.710375],[120.379611,-3.710491],[120.379575,-3.71085],[120.37838,-3.71076],[120.377931,-3.712114],[120.376368,-3.711952],[120.376278,-3.713171],[120.373224,-3.713073],[120.37308,-3.714453],[120.371338,-3.714068],[120.370987,-3.71561],[120.368885,-3.715323],[120.368732,-3.715197],[120.368598,-3.714471],[120.368238,-3.714113],[120.368184,-3.713889],[120.368382,-3.713539],[120.368202,-3.712956],[120.367636,-3.711943],[120.367017,-3.711405],[120.366091,-3.711244],[120.365112,-3.71085],[120.364232,-3.711029],[120.364187,-3.711172],[120.363244,-3.711585],[120.361483,-3.711235],[120.35895,-3.711074],[120.353596,-3.710357],[120.353254,-3.710321],[120.353057,-3.7105],[120.351431,-3.709864],[120.350416,-3.708636],[120.349437,-3.706681],[120.348987,-3.70522],[120.348952,-3.70418],[120.348547,-3.703705],[120.348646,-3.703104],[120.348215,-3.702611],[120.347954,-3.70271],[120.347676,-3.702576],[120.347272,-3.702674],[120.347209,-3.703051],[120.3464,-3.703391],[120.34587,-3.703418],[120.346266,-3.702011],[120.344577,-3.701419],[120.34464,-3.701061],[120.344146,-3.700272],[120.345286,-3.698748],[120.346167,-3.698102],[120.345493,-3.697421],[120.346418,-3.695834],[120.345825,-3.695476],[120.345664,-3.694902],[120.34534,-3.694579],[120.345179,-3.693692],[120.345439,-3.693504],[120.345403,-3.692894],[120.345888,-3.692697],[120.346167,-3.691764],[120.346706,-3.691576],[120.347002,-3.690967],[120.347308,-3.690931],[120.347649,-3.691146],[120.348484,-3.690787],[120.349589,-3.688717],[120.351,-3.687623],[120.351952,-3.686242],[120.35382,-3.68531],[120.355815,-3.685776],[120.356417,-3.684073],[120.356219,-3.683822],[120.357683,-3.682558],[120.361016,-3.680236],[120.361537,-3.680613],[120.362417,-3.680962],[120.363253,-3.681097],[120.364528,-3.680908],[120.365382,-3.68029],[120.36584,-3.680218],[120.366235,-3.680648],[120.366792,-3.681823],[120.366963,-3.683051],[120.366846,-3.683562],[120.366424,-3.684109],[120.364834,-3.685131],[120.364627,-3.68557],[120.364456,-3.687865],[120.364717,-3.6886],[120.366064,-3.689747],[120.367457,-3.688941],[120.369128,-3.688752],[120.376485,-3.687219],[120.377967,-3.68704],[120.379234,-3.687417],[120.383555,-3.690214],[120.38527,-3.691173],[120.385836,-3.693011],[120.386115,-3.693414],[120.386097,-3.695637],[120.386789,-3.696175],[120.386816,-3.697009],[120.387166,-3.69726],[120.386627,-3.697968],[120.386941,-3.698317],[120.386492,-3.69873],[120.38678,-3.69977],[120.385917,-3.702325],[120.385935,-3.703302],[120.386348,-3.703275],[120.386645,-3.702934],[120.386896,-3.703194],[120.387193,-3.7041],[120.387175,-3.704718],[120.387346,-3.705023]]]},"properties":{"FID":140,"KECAMATAN":"Kec. Pitumpanua","DESA":"Tanrongi","PETERNAKAN":"KUDA","kecamatan_sumber_asli":"Pitumpanua","wilayah_kecamatan_kode":["73.13.10"],"wilayah_desa_kode":["73.13.10.2007"],"pemetaan_wilayah":"terpetakan"}},{"type":"Feature","id":155,"geometry":{"type":"Polygon","coordinates":[[[119.950701,-3.967711],[119.951016,-3.967711],[119.951878,-3.968132],[119.952229,-3.967424],[119.95319,-3.967953],[119.952911,-3.96858],[119.953423,-3.968939],[119.953199,-3.969817],[119.953235,-3.970265],[119.952983,-3.970606],[119.952956,-3.971502],[119.953657,-3.971914],[119.954753,-3.972237],[119.955121,-3.971869],[119.955355,-3.971878],[119.955418,-3.972102],[119.955669,-3.972219],[119.956406,-3.971779],[119.957008,-3.9716],[119.95734,-3.971681],[119.957439,-3.972156],[119.957699,-3.972452],[119.960134,-3.973572],[119.960035,-3.974065],[119.961328,-3.974217],[119.961661,-3.974809],[119.96149,-3.975454],[119.961975,-3.975982],[119.962451,-3.976054],[119.963089,-3.977121],[119.96405,-3.977846],[119.964392,-3.977775],[119.965595,-3.978142],[119.96573,-3.978017],[119.96706,-3.978447],[119.967886,-3.978949],[119.968596,-3.979728],[119.969225,-3.98127],[119.970195,-3.982372],[119.972755,-3.982524],[119.973132,-3.98222],[119.973555,-3.981288],[119.974417,-3.981377],[119.974534,-3.981171],[119.976205,-3.981915],[119.977525,-3.982229],[119.97748,-3.982345],[119.978217,-3.982704],[119.978298,-3.98256],[119.978738,-3.982614],[119.979124,-3.982713],[119.979115,-3.982865],[119.980229,-3.983098],[119.980256,-3.982972],[119.980723,-3.983044],[119.980687,-3.983223],[119.981325,-3.983447],[119.981298,-3.983555],[119.983229,-3.984254],[119.983301,-3.984111],[119.986607,-3.985141],[119.986356,-3.986136],[119.987191,-3.986799],[119.987712,-3.987632],[119.990353,-3.988878],[119.991287,-3.988753],[119.99409,-3.988923],[119.995114,-3.988663],[120.001672,-3.991477],[119.995321,-3.997651],[119.991593,-4.001872],[119.990784,-4.004014],[119.99003,-4.003171],[119.985439,-4.001352],[119.983193,-4.000698],[119.981801,-4.000429],[119.98163,-4.001254],[119.981307,-4.001164],[119.981334,-4.001065],[119.979034,-4.000492],[119.978513,-4.00059],[119.975657,-3.999856],[119.975441,-4.000465],[119.975046,-4.000366],[119.974803,-4.000761],[119.973608,-4.000331],[119.972495,-3.999632],[119.972881,-3.99835],[119.972692,-3.998314],[119.972836,-3.997391],[119.970383,-3.996988],[119.970689,-3.995097],[119.970662,-3.99421],[119.970491,-3.993995],[119.970662,-3.991647],[119.9705,-3.991307],[119.969871,-3.990832],[119.967976,-3.990625],[119.968138,-3.989926],[119.967221,-3.989478],[119.96723,-3.989183],[119.963152,-3.988403],[119.963116,-3.988296],[119.961409,-3.988098],[119.961535,-3.98757],[119.96096,-3.987435],[119.960161,-3.98739],[119.960044,-3.987686],[119.959478,-3.98757],[119.959712,-3.986808],[119.959307,-3.986665],[119.95919,-3.986996],[119.95858,-3.986889],[119.957816,-3.986414],[119.957052,-3.986216],[119.957151,-3.985876],[119.956702,-3.985768],[119.956756,-3.985428],[119.953657,-3.984173],[119.953783,-3.983895],[119.952381,-3.983232],[119.952426,-3.98308],[119.952238,-3.982928],[119.951267,-3.98265],[119.951079,-3.983205],[119.950001,-3.982874],[119.950162,-3.982256],[119.949516,-3.98204],[119.948366,-3.981781],[119.948051,-3.981763],[119.947953,-3.981969],[119.94674,-3.981816],[119.945806,-3.981341],[119.946084,-3.980866],[119.945752,-3.980651],[119.94312,-3.980732],[119.943084,-3.980544],[119.942661,-3.980472],[119.942823,-3.978689],[119.943182,-3.977864],[119.94612,-3.974056],[119.94647,-3.973025],[119.946255,-3.972873],[119.946497,-3.971923],[119.942697,-3.971197],[119.942482,-3.971063],[119.942814,-3.970292],[119.943668,-3.970373],[119.945536,-3.969951],[119.946506,-3.967935],[119.946955,-3.966501],[119.950701,-3.967711]]]},"properties":{"FID":155,"KECAMATAN":"Kec. Belawa","DESA":"Malakke","PETERNAKAN":"KAMBING","kecamatan_sumber_asli":"Belawa","wilayah_kecamatan_kode":["73.13.07"],"wilayah_desa_kode":["73.13.07.1001","73.13.07.1002","73.13.07.2004","73.13.07.2005","73.13.07.2006"],"pemetaan_wilayah":"terpetakan"}},{"type":"Feature","id":156,"geometry":{"type":"Polygon","coordinates":[[[120.035448,-4.114175],[120.035404,-4.114713],[120.036616,-4.114606],[120.03738,-4.114337],[120.037937,-4.113907],[120.038593,-4.113799],[120.03694,-4.11629],[120.035772,-4.118548],[120.035574,-4.125107],[120.035395,-4.125107],[120.034622,-4.126325],[120.033382,-4.125725],[120.033095,-4.126047],[120.032574,-4.125904],[120.032807,-4.125411],[120.031891,-4.125008],[120.031631,-4.124945],[120.031415,-4.125483],[120.030005,-4.125071],[120.030391,-4.122938],[120.028855,-4.122696],[120.028487,-4.122481],[120.02881,-4.121021],[120.029627,-4.118557],[120.029915,-4.118682],[120.030436,-4.116846],[120.030795,-4.116953],[120.031056,-4.116541],[120.032448,-4.112867],[120.035341,-4.113808],[120.035448,-4.114175]]]},"properties":{"FID":156,"KECAMATAN":"Kec. Tempe","DESA":"Bulu Pabbulu","PETERNAKAN":"AYAM KAMPUNG","kecamatan_sumber_asli":"Tempe","wilayah_kecamatan_kode":["73.13.06"],"wilayah_desa_kode":["73.13.06.1016"],"pemetaan_wilayah":"terpetakan"}},{"type":"Feature","id":161,"geometry":{"type":"Polygon","coordinates":[[[120.105652,-3.846819],[120.105715,-3.84646],[120.10531,-3.845842],[120.104807,-3.843377],[120.10372,-3.842983],[120.098474,-3.841862],[120.098034,-3.840921],[120.098313,-3.840867],[120.098699,-3.841056],[120.09922,-3.840885],[120.099669,-3.839012],[120.100172,-3.83886],[120.10037,-3.838474],[120.099462,-3.838134],[120.099355,-3.83747],[120.099633,-3.837336],[120.099894,-3.837488],[120.10028,-3.837004],[120.101654,-3.836153],[120.101879,-3.836108],[120.102508,-3.837004],[120.102804,-3.836942],[120.103056,-3.836377],[120.10364,-3.836529],[120.103747,-3.835776],[120.104304,-3.835239],[120.103622,-3.833581],[120.103738,-3.832335],[120.103172,-3.830533],[120.103388,-3.828678],[120.10381,-3.828032],[120.105715,-3.8271],[120.106981,-3.825532],[120.107305,-3.824653],[120.107305,-3.823838],[120.110009,-3.823721],[120.110233,-3.823264],[120.111617,-3.821713],[120.115479,-3.821373],[120.116207,-3.821893],[120.117833,-3.822108],[120.11821,-3.821686],[120.118803,-3.821803],[120.11989,-3.822404],[120.120097,-3.822717],[120.120537,-3.821776],[120.120106,-3.821202],[120.120124,-3.820781],[120.121184,-3.820055],[120.121633,-3.819338],[120.121498,-3.818818],[120.120878,-3.817832],[120.12095,-3.817447],[120.12104,-3.817241],[120.121363,-3.817169],[120.122073,-3.817761],[120.12236,-3.817653],[120.122846,-3.815358],[120.122774,-3.814677],[120.123043,-3.814238],[120.122873,-3.813933],[120.12289,-3.813279],[120.123079,-3.812965],[120.123618,-3.812616],[120.124247,-3.812661],[120.124409,-3.813136],[120.124103,-3.813897],[120.124148,-3.814166],[120.124247,-3.814346],[120.124786,-3.814516],[120.125055,-3.81422],[120.126062,-3.814292],[120.12616,-3.814032],[120.125846,-3.813673],[120.126187,-3.81336],[120.12943,-3.813028],[120.129816,-3.812786],[120.130616,-3.813118],[120.132206,-3.813037],[120.133095,-3.812248],[120.133607,-3.81206],[120.134254,-3.811567],[120.134461,-3.811334],[120.134443,-3.810707],[120.135108,-3.810294],[120.135934,-3.810608],[120.136365,-3.811253],[120.13676,-3.811056],[120.137515,-3.811406],[120.138593,-3.811343],[120.140282,-3.81197],[120.141234,-3.811863],[120.142375,-3.811208],[120.142977,-3.810258],[120.142447,-3.809667],[120.141899,-3.80851],[120.140875,-3.808197],[120.140596,-3.807874],[120.140399,-3.807014],[120.139896,-3.806843],[120.139707,-3.806628],[120.139923,-3.806207],[120.140767,-3.805526],[120.140686,-3.805239],[120.139985,-3.804916],[120.139824,-3.804611],[120.139905,-3.804307],[120.140345,-3.80402],[120.140462,-3.80367],[120.139321,-3.801098],[120.139716,-3.799637],[120.139222,-3.798902],[120.139285,-3.797548],[120.141261,-3.797486],[120.142501,-3.797701],[120.143956,-3.798328],[120.146902,-3.798194],[120.149642,-3.798642],[120.150514,-3.798355],[120.150846,-3.797817],[120.151062,-3.797002],[120.15063,-3.794259],[120.149975,-3.793497],[120.149831,-3.793084],[120.152715,-3.792556],[120.159461,-3.791848],[120.161473,-3.791794],[120.16168,-3.792081],[120.163072,-3.79209],[120.163737,-3.791731],[120.163863,-3.791193],[120.164393,-3.790494],[120.165165,-3.790216],[120.166207,-3.789401],[120.166773,-3.789463],[120.167088,-3.790019],[120.16724,-3.791202],[120.168381,-3.792923],[120.16919,-3.793497],[120.16972,-3.794563],[120.169881,-3.795298],[120.169729,-3.796069],[120.167815,-3.797064],[120.167582,-3.797486],[120.167671,-3.797916],[120.168067,-3.798507],[120.16901,-3.799395],[120.169351,-3.799628],[120.16998,-3.799726],[120.170465,-3.79935],[120.170663,-3.798194],[120.170896,-3.797889],[120.171723,-3.797763],[120.172235,-3.797934],[120.172702,-3.798489],[120.173052,-3.799861],[120.174633,-3.801636],[120.174723,-3.802406],[120.174076,-3.803061],[120.17193,-3.803876],[120.171076,-3.806243],[120.170528,-3.806987],[120.170169,-3.807184],[120.166477,-3.808035],[120.165219,-3.807677],[120.164177,-3.807005],[120.163827,-3.806969],[120.163261,-3.807166],[120.162857,-3.807587],[120.162578,-3.809488],[120.162641,-3.80998],[120.163396,-3.81111],[120.164447,-3.811926],[120.165156,-3.812257],[120.16565,-3.812759],[120.166647,-3.814776],[120.167097,-3.815054],[120.167725,-3.815269],[120.168067,-3.815233],[120.169172,-3.814444],[120.17078,-3.813906],[120.171319,-3.813942],[120.172073,-3.814319],[120.174544,-3.817617],[120.176188,-3.818621],[120.176798,-3.819374],[120.17696,-3.81984],[120.177077,-3.821516],[120.177005,-3.822484],[120.176789,-3.822726],[120.176188,-3.822717],[120.174445,-3.821937],[120.173142,-3.821704],[120.172954,-3.821552],[120.172909,-3.821176],[120.173358,-3.820548],[120.173403,-3.820136],[120.173232,-3.819786],[120.172567,-3.81932],[120.170753,-3.819024],[120.169181,-3.819464],[120.167788,-3.820163],[120.166782,-3.821041],[120.165956,-3.822287],[120.165327,-3.822834],[120.164905,-3.822744],[120.164725,-3.82131],[120.164096,-3.820297],[120.162973,-3.819786],[120.162264,-3.819804],[120.161967,-3.820503],[120.162003,-3.821068],[120.163207,-3.822135],[120.163665,-3.822941],[120.163692,-3.823273],[120.163449,-3.824617],[120.163198,-3.825263],[120.162165,-3.826562],[120.161761,-3.826804],[120.160108,-3.827118],[120.159479,-3.826688],[120.158688,-3.824985],[120.159084,-3.823318],[120.158985,-3.82287],[120.158769,-3.822708],[120.158338,-3.822547],[120.157691,-3.822646],[120.156272,-3.823587],[120.155742,-3.824922],[120.155832,-3.825971],[120.155975,-3.826249],[120.157431,-3.82736],[120.158625,-3.828579],[120.158895,-3.829153],[120.158688,-3.830668],[120.159021,-3.831456],[120.158033,-3.831707],[120.157233,-3.832182],[120.15655,-3.832281],[120.155463,-3.831958],[120.154556,-3.831178],[120.154349,-3.831286],[120.154332,-3.831519],[120.154475,-3.832191],[120.153972,-3.832451],[120.153739,-3.832245],[120.153748,-3.831967],[120.154071,-3.831573],[120.153658,-3.830605],[120.153433,-3.830972],[120.153083,-3.830578],[120.152095,-3.830596],[120.150873,-3.831223],[120.1494,-3.831465],[120.149022,-3.831878],[120.148762,-3.8335],[120.148582,-3.833867],[120.145384,-3.836323],[120.142851,-3.838618],[120.141297,-3.83981],[120.140983,-3.841342],[120.140632,-3.841629],[120.140282,-3.841683],[120.138153,-3.846039],[120.136958,-3.846532],[120.136383,-3.84741],[120.134578,-3.848298],[120.134173,-3.850592],[120.134146,-3.852663],[120.134649,-3.854213],[120.134784,-3.855325],[120.13579,-3.8577],[120.135709,-3.859206],[120.135934,-3.860362],[120.136033,-3.860496],[120.136904,-3.860622],[120.136949,-3.860971],[120.13668,-3.861285],[120.136742,-3.861401],[120.136419,-3.861267],[120.135135,-3.861527],[120.134057,-3.86202],[120.133437,-3.861482],[120.132925,-3.86141],[120.132179,-3.861661],[120.130131,-3.861357],[120.129538,-3.860568],[120.129421,-3.858883],[120.129251,-3.858623],[120.128981,-3.858614],[120.127795,-3.859672],[120.126331,-3.859949],[120.124624,-3.861312],[120.122729,-3.861975],[120.121507,-3.861993],[120.120133,-3.862387],[120.118255,-3.862477],[120.117492,-3.861876],[120.116063,-3.863508],[120.113997,-3.864753],[120.113305,-3.864879],[120.111913,-3.86591],[120.110395,-3.864843],[120.108194,-3.862952],[120.107098,-3.864135],[120.106155,-3.863696],[120.101564,-3.861222],[120.101924,-3.859887],[120.103065,-3.858829],[120.103649,-3.856777],[120.105131,-3.854652],[120.106083,-3.852501],[120.105526,-3.849069],[120.105652,-3.846819]]]},"properties":{"FID":161,"KECAMATAN":"Kec. Maniangpajo","DESA":"Minangatellue","PETERNAKAN":"SAPI, KERBAU, KUDA","kecamatan_sumber_asli":"Maniangpajo","wilayah_kecamatan_kode":["73.13.09"],"wilayah_desa_kode":["73.13.09.2006","73.13.09.2007","73.13.09.2008"],"pemetaan_wilayah":"terpetakan"}},{"type":"Feature","id":165,"geometry":{"type":"Polygon","coordinates":[[[120.032116,-4.136136],[120.032673,-4.136163],[120.032762,-4.13567],[120.033598,-4.135993],[120.033643,-4.135688],[120.034335,-4.135688],[120.034362,-4.13524],[120.034784,-4.135285],[120.035448,-4.134649],[120.036796,-4.13438],[120.036787,-4.134649],[120.036347,-4.135366],[120.037003,-4.137839],[120.034164,-4.137704],[120.033508,-4.137901],[120.033445,-4.138206],[120.030472,-4.137695],[120.027768,-4.136943],[120.02801,-4.135133],[120.027804,-4.13404],[120.030059,-4.134398],[120.031262,-4.135993],[120.032116,-4.136136]]]},"properties":{"FID":165,"KECAMATAN":"Kec. Tempe","DESA":"Padduppa","PETERNAKAN":"AYAM KAMPUNG","kecamatan_sumber_asli":"Tempe","wilayah_kecamatan_kode":["73.13.06"],"wilayah_desa_kode":["73.13.06.1001","73.13.06.1002","73.13.06.1010","73.13.06.1012","73.13.06.1013"],"pemetaan_wilayah":"terpetakan"}},{"type":"Feature","id":166,"geometry":{"type":"Polygon","coordinates":[[[120.025271,-4.130178],[120.025756,-4.129336],[120.025783,-4.128565],[120.025531,-4.128368],[120.025567,-4.128072],[120.029106,-4.129228],[120.029349,-4.128225],[120.029969,-4.128458],[120.030139,-4.127857],[120.030499,-4.12801],[120.029663,-4.131504],[120.029547,-4.133771],[120.030059,-4.134398],[120.027804,-4.13404],[120.027211,-4.13317],[120.027534,-4.133117],[120.026923,-4.132015],[120.026232,-4.131065],[120.025271,-4.130178]]]},"properties":{"FID":166,"KECAMATAN":"Kec. Tempe","DESA":"Teddaopu","PETERNAKAN":"ITIK","kecamatan_sumber_asli":"Tempe","wilayah_kecamatan_kode":["73.13.06"],"wilayah_desa_kode":["73.13.06.1011"],"pemetaan_wilayah":"terpetakan"}},{"type":"Feature","id":167,"geometry":{"type":"Polygon","coordinates":[[[120.025567,-4.128072],[120.025531,-4.128368],[120.025783,-4.128565],[120.025756,-4.129336],[120.025271,-4.130178],[120.024417,-4.129793],[120.021704,-4.129228],[120.021291,-4.128153],[120.021246,-4.124856],[120.022522,-4.125349],[120.02254,-4.125187],[120.024022,-4.125662],[120.024112,-4.125098],[120.024669,-4.125178],[120.024588,-4.125931],[120.025064,-4.127167],[120.025351,-4.127311],[120.025567,-4.128072]]]},"properties":{"FID":167,"KECAMATAN":"Kec. Tempe","DESA":"Watallipue","PETERNAKAN":"AYAM KAMPUNG","kecamatan_sumber_asli":"Tempe","wilayah_kecamatan_kode":["73.13.06"],"wilayah_desa_kode":["73.13.06.1005"],"pemetaan_wilayah":"terpetakan"}},{"type":"Feature","id":169,"geometry":{"type":"Polygon","coordinates":[[[120.01008,-4.128825],[120.014688,-4.130214],[120.016117,-4.129542],[120.018695,-4.1287],[120.021201,-4.129049],[120.022162,-4.129389],[120.024417,-4.129793],[120.025136,-4.130079],[120.025765,-4.130554],[120.026923,-4.132015],[120.027534,-4.133117],[120.027211,-4.13317],[120.027067,-4.133018],[120.024669,-4.133574],[120.017437,-4.135733],[120.016296,-4.136548],[120.016063,-4.137167],[120.013952,-4.13645],[120.0137,-4.137032],[120.011562,-4.136208],[120.011445,-4.13653],[120.010332,-4.136163],[120.010143,-4.136566],[120.009694,-4.136405],[120.009523,-4.136844],[120.007008,-4.136306],[120.005535,-4.135805],[120.003163,-4.135608],[119.997567,-4.136477],[119.995015,-4.136521],[119.994288,-4.136736],[119.994288,-4.136029],[119.998878,-4.132579],[120.001708,-4.131513],[120.005211,-4.130509],[120.006756,-4.129488],[120.008346,-4.128735],[120.008975,-4.12861],[120.01008,-4.128825]]]},"properties":{"FID":169,"KECAMATAN":"Kec. Tempe","DESA":"Salomenraleng","PETERNAKAN":"ITIK","kecamatan_sumber_asli":"Tempe","wilayah_kecamatan_kode":["73.13.06"],"wilayah_desa_kode":["73.13.06.1008"],"pemetaan_wilayah":"terpetakan"}}],"metadata":{"data_quality_status":"cakupan_parsial","data_quality_note":"21 feature mencakup 7 dari 14 kecamatan menurut atribut; cakupan yang tidak tersedia tidak diekstrapolasi."}}
