{"type":"FeatureCollection","name":"Puskesmas_Wajo","features":[{"type":"Feature","id":0,"geometry":{"type":"Point","coordinates":[120.324395,-3.827528]},"properties":{"FID":0,"NO":1,"PUSKESMAS":"PKM KEERA","TITIK_KOOR":"S 3 49'39.1008\"  E 120 19'27.822''","ALAMAT":"JL.POROS, BALLAERE, KEERA, KAB.WAJO SULAWESI SELATAN 90993, INDONESIA","X":120.324395,"Y":-3.827528,"JML_PEND":28332}},{"type":"Feature","id":1,"geometry":{"type":"Point","coordinates":[120.294456,-4.085027]},"properties":{"FID":1,"NO":2,"PUSKESMAS":"PKM PENRANG","TITIK_KOOR":"S 4  5'6.0972\"     E 120  17'40.0416\"","ALAMAT":"JL.BOLA LUPE'E, DOPING PENRANG, KAB.WAJO, SULAWESI SELATAN 90983, INDONESIA","X":120.294456,"Y":-4.085027,"JML_PEND":15856}},{"type":"Feature","id":2,"geometry":{"type":"Point","coordinates":[120.272028,-4.149947]},"properties":{"FID":2,"NO":3,"PUSKESMAS":"PKM TAKKALALLA","TITIK_KOOR":"S 4 8'59.8092\"    E 120  16'19.3008\"","ALAMAT":"JL.LASANGKURU NO.85 PENEKI, TAKKALALLA KABUPATEN WAJO, SULAWESI SELATAN","X":120.272028,"Y":-4.149947,"JML_PEND":11509}},{"type":"Feature","id":3,"geometry":{"type":"Point","coordinates":[120.178164,-4.021569]},"properties":{"FID":3,"NO":4,"PUSKESMAS":"PKM MAJAULENG","TITIK_KOOR":"S 4 1'17.6484\"    E 120 10'41.3904\"","ALAMAT":"JL.KEMAKMURAN , RUMPIA, MAJAULENG KAB, WAJO, SELAWESI SELATAN 90991, INDONESIA","X":120.178164,"Y":-4.021569,"JML_PEND":21802}},{"type":"Feature","id":4,"geometry":{"type":"Point","coordinates":[119.957473,-4.248017]},"properties":{"FID":4,"NO":5,"PUSKESMAS":"PKM LIU","TITIK_KOOR":"S 4 14'52.8612\"  E 119 57'26.9028\"","ALAMAT":"LIU SABBANGPARU, KAB. WAJO SULSEL 90961, INDONESIA","X":119.957473,"Y":-4.248017,"JML_PEND":9344}},{"type":"Feature","id":5,"geometry":{"type":"Point","coordinates":[120.02851,-4.053961]},"properties":{"FID":5,"NO":6,"PUSKESMAS":"PKM TANASITOLO","TITIK_KOOR":"S 4  3'14.2596\"   E 120  1'42.636\"","ALAMAT":"JL.POROS ANABANUA-SENGKANG. BARU TANCUNG.TANASITOLO, KAB.WAJO SULAWESI SELATAN 90951, INDONESIA","X":120.02851,"Y":-4.053961,"JML_PEND":26057}},{"type":"Feature","id":6,"geometry":{"type":"Point","coordinates":[120.170759,-3.929251]},"properties":{"FID":6,"NO":7,"PUSKESMAS":"PKM GILIRENG","TITIK_KOOR":"S 3 55'45.3036\"  E 120  10'14.7324\"","ALAMAT":"GILIRENG, KABUPATEN WAJO, SELAWESI SELATAN 90954, INDONESIA","X":120.170759,"Y":-3.929251,"JML_PEND":11478}},{"type":"Feature","id":7,"geometry":{"type":"Point","coordinates":[120.055257,-4.118543]},"properties":{"FID":7,"NO":8,"PUSKESMAS":"PKM PATTIROSOMPE","TITIK_KOOR":"S 4 7'6.7548\"      E 120 3'18.9252\"","ALAMAT":"JL. KEJAKSAAN, CAMPALAGI, TEMPE KAB.WAJO, SULAWESI SELATAN 90911 INDONESIA","X":120.055257,"Y":-4.118543,"JML_PEND":17059}},{"type":"Feature","id":8,"geometry":{"type":"Point","coordinates":[120.419416,-3.704616]},"properties":{"FID":8,"NO":9,"PUSKESMAS":"PKM PITUMPANUA","TITIK_KOOR":"S 3 42'16.6176\"  E 120 25'9.8976\"","ALAMAT":"BULETE, PITUMPANUA. KABUPATEN WAJO. SULAWESI SELATAN 90992, INDONESIA","X":120.419416,"Y":-3.704616,"JML_PEND":45913}},{"type":"Feature","id":9,"geometry":{"type":"Point","coordinates":[119.967795,-3.955161]},"properties":{"FID":9,"NO":10,"PUSKESMAS":"PKM SAPPA","TITIK_KOOR":"S 3 57'18.5796\"  E 119 58'4.062\"","ALAMAT":"JL. BALAI DESA NO.4, SAPPA, BELAWA KAB. WAJO SULAWESI SELATAN 90953, INDONESIA","X":119.967795,"Y":-3.955161,"JML_PEND":12259}},{"type":"Feature","id":10,"geometry":{"type":"Point","coordinates":[119.934303,-4.001203]},"properties":{"FID":10,"NO":11,"PUSKESMAS":"PKM BELAWA","TITIK_KOOR":"S 4 0'4.3308\"      E 119 56'3.4908","ALAMAT":"JL.OLAHRAGA, MENGE, BELAWA, KAB.WAJO, SULAWESI SELATAN 90953, INDONESIA","X":119.934303,"Y":-4.001203,"JML_PEND":20111}},{"type":"Feature","id":11,"geometry":{"type":"Point","coordinates":[120.206823,-4.125774]},"properties":{"FID":11,"NO":12,"PUSKESMAS":"PKM PARIGI","TITIK_KOOR":"S 4 7'32.7864\"    E 120 12'24.5628\"","ALAMAT":"ALUPPANG, TAKKALALLA, KAB.WAJO, SULAWESI SELATAN 90984, INDONESIA KETINGGIAN 16.0 M","X":120.206823,"Y":-4.125774,"JML_PEND":9535}},{"type":"Feature","id":12,"geometry":{"type":"Point","coordinates":[120.064467,-3.944157]},"properties":{"FID":12,"NO":13,"PUSKESMAS":"PKM MANIANGPAJO","TITIK_KOOR":"S 3 56'38.9653\"  E 120 3'52.0812\"","ALAMAT":"JL.POROS PARE-PARE PANGKAJENE, MATTOROWALIE, MANIANGPAJO,KAB. WAJO SULAWESI SELATAN 90952, INDONESIA","X":120.064467,"Y":-3.944157,"JML_PEND":16343}},{"type":"Feature","id":13,"geometry":{"type":"Point","coordinates":[120.11521,-4.122629]},"properties":{"FID":13,"NO":14,"PUSKESMAS":"PKM TOSORA","TITIK_KOOR":"S 4 7'21. 4644\"  E 120  6'54.756\"","ALAMAT":"TELLIULIMPOE, MAJAULENG,KAB.WAJO SELAWESI SELATAN 90991, INDONESIA","X":120.11521,"Y":-4.122629,"JML_PEND":10351}},{"type":"Feature","id":14,"geometry":{"type":"Point","coordinates":[120.032972,-4.140139]},"properties":{"FID":14,"NO":15,"PUSKESMAS":"PKM SALEWANGENG","TITIK_KOOR":"S 4 08'24.5\"       E 120  01'58.7\"","ALAMAT":"SENGKANG, TEMPE, KAB.WAJO SULAWESI SELATAN","X":120.032972,"Y":-4.140139,"JML_PEND":24165}},{"type":"Feature","id":15,"geometry":{"type":"Point","coordinates":[120.262053,-3.952348]},"properties":{"FID":15,"NO":16,"PUSKESMAS":"PKM SALOBULO","TITIK_KOOR":"S 3 57'8.4528\"   E 120  15'43.3908\"","ALAMAT":"SALOBULO, SAJOANGING,KAB.WAJO. SELAWESI SELATAN 90982 INDONESIA","X":120.262053,"Y":-3.952348,"JML_PEND":10642}},{"type":"Feature","id":16,"geometry":{"type":"Point","coordinates":[120.02257,-4.126059]},"properties":{"FID":16,"NO":17,"PUSKESMAS":"PKM TEMPE","TITIK_KOOR":"S 4 7'33.8124\"   E 120  1'21.252\"","ALAMAT":"JL.UDANG, WATALIPPUE TEMPE, KAB WAJO, SULAWESI SELATAN 90911, INDONESIA","X":120.02257,"Y":-4.126059,"JML_PEND":22713}},{"type":"Feature","id":17,"geometry":{"type":"Point","coordinates":[120.111238,-4.214261]},"properties":{"FID":17,"NO":18,"PUSKESMAS":"PKM PAMMANA","TITIK_KOOR":"S 4 12'51.3396\" E 120  6'40.4568\"","ALAMAT":"JL.PAMPANUA- SENGKANG, KAMPIRI, PAMMANA, KAB. WAJO, SULAWESI SELATAN 90971, INDONESIA","X":120.111238,"Y":-4.214261,"JML_PEND":20354}},{"type":"Feature","id":18,"geometry":{"type":"Point","coordinates":[120.075111,-4.184257]},"properties":{"FID":18,"NO":19,"PUSKESMAS":"PKM LEMPA","TITIK_KOOR":"S 4 11'3.324\"     E 120 04304\"","ALAMAT":"JL.PAMMANA- SENGKANG , LEMPA, PAMMANA, KAB.WAJO, SULAWESI SELATAN 90971, INDONESIA","X":120.075111,"Y":-4.184257,"JML_PEND":13286}},{"type":"Feature","id":19,"geometry":{"type":"Point","coordinates":[120.326105,-4.038868]},"properties":{"FID":19,"NO":20,"PUSKESMAS":"PKM SAJOANGING","TITIK_KOOR":"S 4 2'19.9248\"   E 120  19'33978\"","ALAMAT":"AKKAJENG SAJOANGING KAB.WAJO SULAWESI SELATAN 90982, INDONESIA","X":120.326105,"Y":-4.038868,"JML_PEND":8505}},{"type":"Feature","id":20,"geometry":{"type":"Point","coordinates":[120.074287,-4.062682]},"properties":{"FID":20,"NO":22,"PUSKESMAS":"PKM WEWANGREWU","TITIK_KOOR":"4 3'45.6552\"  E 120 4'27.4332\"","ALAMAT":"WEWANGREWU, TANASITOLO, KAB.WAJO SULAWESI SELATAN 90951 INDONESIA","X":120.074287,"Y":-4.062682,"JML_PEND":14024}},{"type":"Feature","id":21,"geometry":{"type":"Point","coordinates":[120.010857,-4.216048]},"properties":{"FID":21,"NO":23,"PUSKESMAS":"PKM SABBANGPARU","TITIK_KOOR":"S 4 12'57.7728\"  E 120 0'39.0852\"","ALAMAT":"SOMPE, SABBANGPARU, KABUPATEN WAJO, SULAWESI SELATAN  90961, INDONESIA","X":120.010857,"Y":-4.216048,"JML_PEND":16949}},{"type":"Feature","id":22,"geometry":null,"properties":{"FID":22,"NO":21,"PUSKESMAS":"PKM SOLO","TITIK_KOOR":null,"ALAMAT":"SOLO, BOLA, KABUPATEN WAJO, SULAWESI SELATAN  90984, INDONESIA","X":null,"Y":null,"JML_PEND":19782,"koordinat_status":"Tidak valid / butuh penanganan","koordinat_valid":false,"validasi":"identitas_fasilitas_terverifikasi_koordinat_belum_tersedia","koordinat_catatan_validasi":"Fasilitas terkonfirmasi pada daftar fasilitas kesehatan, tetapi koordinat yang dapat dipakai belum ditemukan secara cukup kuat; tidak diisi dengan tebakan.","data_quality_status":"belum_terpetakan","data_quality_note":"Koordinat tidak tersedia/valid pada dataset; tidak dipindahkan ke titik tebakan."}}],"metadata":{"data_quality_status":"sebagian_terpetakan","data_quality_note":"23 record dipertahankan; record tanpa koordinat valid tetap disimpan tanpa geometry."}}