{"type":"FeatureCollection","name":"Sistem_Infrastruktur_Sumber_Daya_Air","features":[{"type":"Feature","properties":{"FID":0,"OBJECTID":60,"NAMOBJ":"Bangunan Sumber Daya Air","STSJRN":2,"WADMPR":"Provinsi Sulawesi Selatan","WADMKK":"Kabupaten Wajo","REMARK":"Bendungan Paselloreng","SBDATA":"BBWS Pompengan Jeneberang, 2022"},"geometry":{"type":"Point","coordinates":[120.182269,-3.886049]}},{"type":"Feature","properties":{"FID":1,"OBJECTID":61,"NAMOBJ":"Bangunan Sumber Daya Air","STSJRN":2,"WADMPR":"Provinsi Sulawesi Selatan","WADMKK":"Kabupaten Wajo","REMARK":"Embung Tempe","SBDATA":"Dinas PUPR dan Pertanahan Kabupaten Wajo, 2022"},"geometry":{"type":"Point","coordinates":[120.054933,-4.159655]}},{"type":"Feature","properties":{"FID":2,"OBJECTID":62,"NAMOBJ":"Bangunan Sumber Daya Air","STSJRN":2,"WADMPR":"Provinsi Sulawesi Selatan","WADMKK":"Kabupaten Wajo","REMARK":"Embung Sanreseng Ade","SBDATA":"Dinas PUPR dan Pertanahan Kabupaten Wajo, 2022"},"geometry":{"type":"Point","coordinates":[120.255688,-4.220452]}},{"type":"Feature","properties":{"FID":3,"OBJECTID":63,"NAMOBJ":"Bangunan Sumber Daya Air","STSJRN":2,"WADMPR":"Provinsi Sulawesi Selatan","WADMKK":"Kabupaten Wajo","REMARK":"Embung Ujung Tanah","SBDATA":"Dinas PUPR dan Pertanahan Kabupaten Wajo, 2022"},"geometry":{"type":"Point","coordinates":[120.246229,-4.216241]}},{"type":"Feature","properties":{"FID":4,"OBJECTID":64,"NAMOBJ":"Bangunan Sumber Daya Air","STSJRN":2,"WADMPR":"Provinsi Sulawesi Selatan","WADMKK":"Kabupaten Wajo","REMARK":"Embung Rajamawellang","SBDATA":"Dinas PUPR dan Pertanahan Kabupaten Wajo, 2022"},"geometry":{"type":"Point","coordinates":[120.240201,-4.213455]}},{"type":"Feature","properties":{"FID":5,"OBJECTID":65,"NAMOBJ":"Bangunan Sumber Daya Air","STSJRN":2,"WADMPR":"Provinsi Sulawesi Selatan","WADMKK":"Kabupaten Wajo","REMARK":"Embung Tocule","SBDATA":"Dinas PUPR dan Pertanahan Kabupaten Wajo, 2022"},"geometry":{"type":"Point","coordinates":[120.220519,-4.170335]}},{"type":"Feature","properties":{"FID":6,"OBJECTID":66,"NAMOBJ":"Bangunan Sumber Daya Air","STSJRN":2,"WADMPR":"Provinsi Sulawesi Selatan","WADMKK":"Kabupaten Wajo","REMARK":"Embung Laree","SBDATA":"Dinas PUPR dan Pertanahan Kabupaten Wajo, 2022"},"geometry":{"type":"Point","coordinates":[120.081406,-4.22692]}},{"type":"Feature","properties":{"FID":7,"OBJECTID":67,"NAMOBJ":"Bangunan Sumber Daya Air","STSJRN":2,"WADMPR":"Provinsi Sulawesi Selatan","WADMKK":"Kabupaten Wajo","REMARK":"Embung Kampiri","SBDATA":"Dinas PUPR dan Pertanahan Kabupaten Wajo, 2022"},"geometry":{"type":"Point","coordinates":[120.109083,-4.217316]}},{"type":"Feature","properties":{"FID":8,"OBJECTID":68,"NAMOBJ":"Bangunan Sumber Daya Air","STSJRN":2,"WADMPR":"Provinsi Sulawesi Selatan","WADMKK":"Kabupaten Wajo","REMARK":"Embung Pammana","SBDATA":"Dinas PUPR dan Pertanahan Kabupaten Wajo, 2022"},"geometry":{"type":"Point","coordinates":[120.080858,-4.213527]}},{"type":"Feature","properties":{"FID":9,"OBJECTID":69,"NAMOBJ":"Bangunan Sumber Daya Air","STSJRN":2,"WADMPR":"Provinsi Sulawesi Selatan","WADMKK":"Kabupaten Wajo","REMARK":"Embung Sarasa","SBDATA":"Dinas PUPR dan Pertanahan Kabupaten Wajo, 2022"},"geometry":{"type":"Point","coordinates":[120.084703,-4.211941]}},{"type":"Feature","properties":{"FID":10,"OBJECTID":70,"NAMOBJ":"Bangunan Sumber Daya Air","STSJRN":2,"WADMPR":"Provinsi Sulawesi Selatan","WADMKK":"Kabupaten Wajo","REMARK":"Embung Takkalalla","SBDATA":"Dinas PUPR dan Pertanahan Kabupaten Wajo, 2022"},"geometry":{"type":"Point","coordinates":[120.263405,-4.11035]}},{"type":"Feature","properties":{"FID":11,"OBJECTID":71,"NAMOBJ":"Bangunan Sumber Daya Air","STSJRN":2,"WADMPR":"Provinsi Sulawesi Selatan","WADMKK":"Kabupaten Wajo","REMARK":"Embung Benteng","SBDATA":"Dinas PUPR dan Pertanahan Kabupaten Wajo, 2022"},"geometry":{"type":"Point","coordinates":[120.263046,-4.105162]}},{"type":"Feature","properties":{"FID":12,"OBJECTID":72,"NAMOBJ":"Bangunan Sumber Daya Air","STSJRN":2,"WADMPR":"Provinsi Sulawesi Selatan","WADMKK":"Kabupaten Wajo","REMARK":"Embung Lameku","SBDATA":"Dinas PUPR dan Pertanahan Kabupaten Wajo, 2022"},"geometry":{"type":"Point","coordinates":[120.243031,-3.999246]}},{"type":"Feature","properties":{"FID":13,"OBJECTID":73,"NAMOBJ":"Bangunan Sumber Daya Air","STSJRN":2,"WADMPR":"Provinsi Sulawesi Selatan","WADMKK":"Kabupaten Wajo","REMARK":"Embung Tosora","SBDATA":"Dinas PUPR dan Pertanahan Kabupaten Wajo, 2022"},"geometry":{"type":"Point","coordinates":[120.134955,-4.104857]}},{"type":"Feature","properties":{"FID":14,"OBJECTID":74,"NAMOBJ":"Bangunan Sumber Daya Air","STSJRN":2,"WADMPR":"Provinsi Sulawesi Selatan","WADMKK":"Kabupaten Wajo","REMARK":"Embung Uraiyang","SBDATA":"Dinas PUPR dan Pertanahan Kabupaten Wajo, 2022"},"geometry":{"type":"Point","coordinates":[120.123295,-4.043397]}},{"type":"Feature","properties":{"FID":15,"OBJECTID":75,"NAMOBJ":"Bangunan Sumber Daya Air","STSJRN":2,"WADMPR":"Provinsi Sulawesi Selatan","WADMKK":"Kabupaten Wajo","REMARK":"Embung Sakkoli","SBDATA":"Dinas PUPR dan Pertanahan Kabupaten Wajo, 2022"},"geometry":{"type":"Point","coordinates":[120.223385,-3.93932]}},{"type":"Feature","properties":{"FID":16,"OBJECTID":76,"NAMOBJ":"Bangunan Sumber Daya Air","STSJRN":2,"WADMPR":"Provinsi Sulawesi Selatan","WADMKK":"Kabupaten Wajo","REMARK":"Embung Tarumpaje","SBDATA":"Dinas PUPR dan Pertanahan Kabupaten Wajo, 2022"},"geometry":{"type":"Point","coordinates":[120.1297,-3.879542]}},{"type":"Feature","properties":{"FID":17,"OBJECTID":77,"NAMOBJ":"Bangunan Sumber Daya Air","STSJRN":2,"WADMPR":"Provinsi Sulawesi Selatan","WADMKK":"Kabupaten Wajo","REMARK":"Embung Callacu I","SBDATA":"Dinas PUPR dan Pertanahan Kabupaten Wajo, 2022"},"geometry":{"type":"Point","coordinates":[120.12404,-3.879112]}},{"type":"Feature","properties":{"FID":18,"OBJECTID":78,"NAMOBJ":"Bangunan Sumber Daya Air","STSJRN":2,"WADMPR":"Provinsi Sulawesi Selatan","WADMKK":"Kabupaten Wajo","REMARK":"Embung Callacu II","SBDATA":"Dinas PUPR dan Pertanahan Kabupaten Wajo, 2022"},"geometry":{"type":"Point","coordinates":[120.123879,-3.878762]}},{"type":"Feature","properties":{"FID":19,"OBJECTID":79,"NAMOBJ":"Bangunan Sumber Daya Air","STSJRN":2,"WADMPR":"Provinsi Sulawesi Selatan","WADMKK":"Kabupaten Wajo","REMARK":"Embung Abbanungnge I","SBDATA":"Dinas PUPR dan Pertanahan Kabupaten Wajo, 2022"},"geometry":{"type":"Point","coordinates":[120.127373,-3.875795]}},{"type":"Feature","properties":{"FID":20,"OBJECTID":80,"NAMOBJ":"Bangunan Sumber Daya Air","STSJRN":2,"WADMPR":"Provinsi Sulawesi Selatan","WADMKK":"Kabupaten Wajo","REMARK":"Embung Abbanungnge II","SBDATA":"Dinas PUPR dan Pertanahan Kabupaten Wajo, 2022"},"geometry":{"type":"Point","coordinates":[120.127481,-3.874639]}},{"type":"Feature","properties":{"FID":21,"OBJECTID":81,"NAMOBJ":"Bangunan Sumber Daya Air","STSJRN":2,"WADMPR":"Provinsi Sulawesi Selatan","WADMKK":"Kabupaten Wajo","REMARK":"Embung Abbanungnge III","SBDATA":"Dinas PUPR dan Pertanahan Kabupaten Wajo, 2022"},"geometry":{"type":"Point","coordinates":[120.122055,-3.873519]}},{"type":"Feature","properties":{"FID":22,"OBJECTID":82,"NAMOBJ":"Bangunan Sumber Daya Air","STSJRN":2,"WADMPR":"Provinsi Sulawesi Selatan","WADMKK":"Kabupaten Wajo","REMARK":"Embung Lokasie Satu","SBDATA":"Dinas PUPR dan Pertanahan Kabupaten Wajo, 2022"},"geometry":{"type":"Point","coordinates":[120.111491,-3.873044]}},{"type":"Feature","properties":{"FID":23,"OBJECTID":83,"NAMOBJ":"Bangunan Sumber Daya Air","STSJRN":2,"WADMPR":"Provinsi Sulawesi Selatan","WADMKK":"Kabupaten Wajo","REMARK":"Embung Tingaraposi","SBDATA":"Dinas PUPR dan Pertanahan Kabupaten Wajo, 2022"},"geometry":{"type":"Point","coordinates":[120.110215,-3.841056]}},{"type":"Feature","properties":{"FID":24,"OBJECTID":84,"NAMOBJ":"Bangunan Sumber Daya Air","STSJRN":2,"WADMPR":"Provinsi Sulawesi Selatan","WADMKK":"Kabupaten Wajo","REMARK":"Embung Mamminassae","SBDATA":"Dinas PUPR dan Pertanahan Kabupaten Wajo, 2022"},"geometry":{"type":"Point","coordinates":[120.200712,-3.934006]}},{"type":"Feature","properties":{"FID":25,"OBJECTID":85,"NAMOBJ":"Bangunan Sumber Daya Air","STSJRN":2,"WADMPR":"Provinsi Sulawesi Selatan","WADMKK":"Kabupaten Wajo","REMARK":"Embung Poleonro","SBDATA":"Dinas PUPR dan Pertanahan Kabupaten Wajo, 2022"},"geometry":{"type":"Point","coordinates":[120.168696,-3.931846]}},{"type":"Feature","properties":{"FID":26,"OBJECTID":86,"NAMOBJ":"Bangunan Sumber Daya Air","STSJRN":2,"WADMPR":"Provinsi Sulawesi Selatan","WADMKK":"Kabupaten Wajo","REMARK":"Embung Alelimpo","SBDATA":"Dinas PUPR dan Pertanahan Kabupaten Wajo, 2022"},"geometry":{"type":"Point","coordinates":[120.168992,-3.930492]}},{"type":"Feature","properties":{"FID":27,"OBJECTID":87,"NAMOBJ":"Bangunan Sumber Daya Air","STSJRN":2,"WADMPR":"Provinsi Sulawesi Selatan","WADMKK":"Kabupaten Wajo","REMARK":"Embung Polewalie","SBDATA":"Dinas PUPR dan Pertanahan Kabupaten Wajo, 2022"},"geometry":{"type":"Point","coordinates":[120.151753,-3.917497]}},{"type":"Feature","properties":{"FID":28,"OBJECTID":88,"NAMOBJ":"Bangunan Sumber Daya Air","STSJRN":2,"WADMPR":"Provinsi Sulawesi Selatan","WADMKK":"Kabupaten Wajo","REMARK":"Embung Arajang II","SBDATA":"Dinas PUPR dan Pertanahan Kabupaten Wajo, 2022"},"geometry":{"type":"Point","coordinates":[120.163845,-3.899842]}},{"type":"Feature","properties":{"FID":29,"OBJECTID":89,"NAMOBJ":"Bangunan Sumber Daya Air","STSJRN":2,"WADMPR":"Provinsi Sulawesi Selatan","WADMKK":"Kabupaten Wajo","REMARK":"Embung Apetae","SBDATA":"Dinas PUPR dan Pertanahan Kabupaten Wajo, 2022"},"geometry":{"type":"Point","coordinates":[120.235378,-3.886031]}},{"type":"Feature","properties":{"FID":30,"OBJECTID":90,"NAMOBJ":"Bangunan Sumber Daya Air","STSJRN":2,"WADMPR":"Provinsi Sulawesi Selatan","WADMKK":"Kabupaten Wajo","REMARK":"Embung Arajang","SBDATA":"Dinas PUPR dan Pertanahan Kabupaten Wajo, 2022"},"geometry":{"type":"Point","coordinates":[120.250838,-3.858354]}},{"type":"Feature","properties":{"FID":31,"OBJECTID":91,"NAMOBJ":"Bangunan Sumber Daya Air","STSJRN":2,"WADMPR":"Provinsi Sulawesi Selatan","WADMKK":"Kabupaten Wajo","REMARK":"Embung Lauwa","SBDATA":"Dinas PUPR dan Pertanahan Kabupaten Wajo, 2022"},"geometry":{"type":"Point","coordinates":[120.340552,-3.764257]}},{"type":"Feature","properties":{"FID":32,"OBJECTID":92,"NAMOBJ":"Bangunan Sumber Daya Air","STSJRN":2,"WADMPR":"Provinsi Sulawesi Selatan","WADMKK":"Kabupaten Wajo","REMARK":"Embung Lompo","SBDATA":"Dinas PUPR dan Pertanahan Kabupaten Wajo, 2022"},"geometry":{"type":"Point","coordinates":[120.317564,-3.740387]}},{"type":"Feature","properties":{"FID":33,"OBJECTID":93,"NAMOBJ":"Bangunan Sumber Daya Air","STSJRN":2,"WADMPR":"Provinsi Sulawesi Selatan","WADMKK":"Kabupaten Wajo","REMARK":"Embung Labawi Masara","SBDATA":"Dinas PUPR dan Pertanahan Kabupaten Wajo, 2022"},"geometry":{"type":"Point","coordinates":[120.315121,-3.737957]}},{"type":"Feature","properties":{"FID":34,"OBJECTID":94,"NAMOBJ":"Bangunan Sumber Daya Air","STSJRN":2,"WADMPR":"Provinsi Sulawesi Selatan","WADMKK":"Kabupaten Wajo","REMARK":"Embung Batucokong","SBDATA":"Dinas PUPR dan Pertanahan Kabupaten Wajo, 2022"},"geometry":{"type":"Point","coordinates":[120.301826,-3.872739]}},{"type":"Feature","properties":{"FID":35,"OBJECTID":95,"NAMOBJ":"Bangunan Sumber Daya Air","STSJRN":2,"WADMPR":"Provinsi Sulawesi Selatan","WADMKK":"Kabupaten Wajo","REMARK":"Embung Laliseng","SBDATA":"Dinas PUPR dan Pertanahan Kabupaten Wajo, 2022"},"geometry":{"type":"Point","coordinates":[120.288064,-3.870032]}},{"type":"Feature","properties":{"FID":36,"OBJECTID":96,"NAMOBJ":"Bangunan Sumber Daya Air","STSJRN":2,"WADMPR":"Provinsi Sulawesi Selatan","WADMKK":"Kabupaten Wajo","REMARK":"Embung Bakkae","SBDATA":"Dinas PUPR dan Pertanahan Kabupaten Wajo, 2022"},"geometry":{"type":"Point","coordinates":[120.313288,-3.836574]}},{"type":"Feature","properties":{"FID":37,"OBJECTID":97,"NAMOBJ":"Bangunan Sumber Daya Air","STSJRN":2,"WADMPR":"Provinsi Sulawesi Selatan","WADMKK":"Kabupaten Wajo","REMARK":"Embung Lempa","SBDATA":"Dinas PUPR dan Pertanahan Kabupaten Wajo, 2022"},"geometry":{"type":"Point","coordinates":[120.305608,-3.82857]}},{"type":"Feature","properties":{"FID":38,"OBJECTID":98,"NAMOBJ":"Bangunan Sumber Daya Air","STSJRN":2,"WADMPR":"Provinsi Sulawesi Selatan","WADMKK":"Kabupaten Wajo","REMARK":"Embung Bulucironge","SBDATA":"Dinas PUPR dan Pertanahan Kabupaten Wajo, 2022"},"geometry":{"type":"Point","coordinates":[120.332144,-3.807417]}},{"type":"Feature","properties":{"FID":39,"OBJECTID":99,"NAMOBJ":"Bangunan Sumber Daya Air","STSJRN":2,"WADMPR":"Provinsi Sulawesi Selatan","WADMKK":"Kabupaten Wajo","REMARK":"Embung Ciromanie","SBDATA":"Dinas PUPR dan Pertanahan Kabupaten Wajo, 2022"},"geometry":{"type":"Point","coordinates":[120.332593,-3.801788]}},{"type":"Feature","properties":{"FID":40,"OBJECTID":100,"NAMOBJ":"Bangunan Sumber Daya Air","STSJRN":2,"WADMPR":"Provinsi Sulawesi Selatan","WADMKK":"Kabupaten Wajo","REMARK":"Embung Paojepe","SBDATA":"Dinas PUPR dan Pertanahan Kabupaten Wajo, 2022"},"geometry":{"type":"Point","coordinates":[120.337624,-3.783171]}},{"type":"Feature","properties":{"FID":41,"OBJECTID":101,"NAMOBJ":"Bangunan Sumber Daya Air","STSJRN":2,"WADMPR":"Provinsi Sulawesi Selatan","WADMKK":"Kabupaten Wajo","REMARK":"Embung Awo","SBDATA":"Dinas PUPR dan Pertanahan Kabupaten Wajo, 2022"},"geometry":{"type":"Point","coordinates":[120.248134,-3.776816]}},{"type":"Feature","properties":{"FID":42,"OBJECTID":102,"NAMOBJ":"Bangunan Sumber Daya Air","STSJRN":2,"WADMPR":"Provinsi Sulawesi Selatan","WADMKK":"Kabupaten Wajo","REMARK":"Bendungan Kalola","SBDATA":"BBWS Pompengan Jeneberang, 2022"},"geometry":{"type":"Point","coordinates":[120.076996,-3.884256]}},{"type":"Feature","properties":{"FID":43,"OBJECTID":104,"NAMOBJ":"Bangunan Sumber Daya Air","STSJRN":2,"WADMPR":"Provinsi Sulawesi Selatan","WADMKK":"Kabupaten Wajo","REMARK":"Bendung Awo","SBDATA":"Dinas PUPR dan Pertanahan Kabupaten Wajo, 2022"},"geometry":{"type":"Point","coordinates":[120.274939,-3.759686]}},{"type":"Feature","properties":{"FID":44,"OBJECTID":105,"NAMOBJ":"Bangunan Pengendalian Banjir","STSJRN":2,"WADMPR":"Provinsi Sulawesi Selatan","WADMKK":"Kabupaten Wajo","REMARK":"Bendung Gerak Tempe","SBDATA":"Dinas PUPR dan Pertanahan Kabupaten Wajo, 2022"},"geometry":{"type":"Point","coordinates":[120.031918,-4.153088]}},{"type":"Feature","properties":{"FID":45,"OBJECTID":106,"NAMOBJ":"Bangunan Sumber Daya Air","STSJRN":2,"WADMPR":"Provinsi Sulawesi Selatan","WADMKK":"Kabupaten Wajo","REMARK":"Bendung Cilellang","SBDATA":"Dinas PUPR dan Pertanahan Kabupaten Wajo, 2022"},"geometry":{"type":"Point","coordinates":[119.94294,-4.237267]}},{"type":"Feature","properties":{"FID":46,"OBJECTID":107,"NAMOBJ":"Bangunan Sumber Daya Air","STSJRN":2,"WADMPR":"Provinsi Sulawesi Selatan","WADMKK":"Kabupaten Wajo","REMARK":"Bendung Cenrana","SBDATA":"Dinas PUPR dan Pertanahan Kabupaten Wajo, 2022"},"geometry":{"type":"Point","coordinates":[120.111617,-4.123485]}},{"type":"Feature","properties":{"FID":47,"OBJECTID":108,"NAMOBJ":"Bangunan Sumber Daya Air","STSJRN":2,"WADMPR":"Provinsi Sulawesi Selatan","WADMKK":"Kabupaten Wajo","REMARK":"Embung Callacu III","SBDATA":"Dinas PUPR dan Pertanahan Kabupaten Wajo, 2022"},"geometry":{"type":"Point","coordinates":[120.124211,-3.878601]}},{"type":"Feature","properties":{"FID":48,"OBJECTID":109,"NAMOBJ":"Bangunan Sumber Daya Air","STSJRN":2,"WADMPR":"Provinsi Sulawesi Selatan","WADMKK":"Kabupaten Wajo","REMARK":"Embung Lamatadua","SBDATA":"BBWS Pompengan Jeneberang, 2022"},"geometry":{"type":"Point","coordinates":[120.128981,-3.940494]}},{"type":"Feature","properties":{"FID":49,"OBJECTID":110,"NAMOBJ":"Bangunan Sumber Daya Air","STSJRN":2,"WADMPR":"Provinsi Sulawesi Selatan","WADMKK":"Kabupaten Wajo","REMARK":"Embung Salojampu","SBDATA":"BBWS Pompengan Jeneberang, 2022"},"geometry":{"type":"Point","coordinates":[120.025702,-4.223399]}},{"type":"Feature","properties":{"FID":50,"OBJECTID":111,"NAMOBJ":"Bangunan Sumber Daya Air","STSJRN":2,"WADMPR":"Provinsi Sulawesi Selatan","WADMKK":"Kabupaten Wajo","REMARK":"Embung Sompe","SBDATA":"BBWS Pompengan Jeneberang, 2022"},"geometry":{"type":"Point","coordinates":[120.031864,-4.22761]}},{"type":"Feature","properties":{"FID":51,"OBJECTID":112,"NAMOBJ":"Bangunan Sumber Daya Air","STSJRN":2,"WADMPR":"Provinsi Sulawesi Selatan","WADMKK":"Kabupaten Wajo","REMARK":"Embung Palaguna","SBDATA":"BBWS Pompengan Jeneberang, 2022"},"geometry":{"type":"Point","coordinates":[120.039769,-4.1702]}},{"type":"Feature","properties":{"FID":52,"OBJECTID":113,"NAMOBJ":"Bangunan Sumber Daya Air","STSJRN":2,"WADMPR":"Provinsi Sulawesi Selatan","WADMKK":"Kabupaten Wajo","REMARK":"Embung Talotenreng","SBDATA":"BBWS Pompengan Jeneberang, 2022"},"geometry":{"type":"Point","coordinates":[120.01026,-4.258481]}},{"type":"Feature","properties":{"FID":53,"OBJECTID":114,"NAMOBJ":"Bangunan Sumber Daya Air","STSJRN":2,"WADMPR":"Provinsi Sulawesi Selatan","WADMKK":"Kabupaten Wajo","REMARK":"Embung Lamagarang","SBDATA":"BBWS Pompengan Jeneberang, 2022"},"geometry":{"type":"Point","coordinates":[120.126331,-3.863857]}},{"type":"Feature","properties":{"FID":54,"OBJECTID":116,"NAMOBJ":"Bangunan Sumber Daya Air","STSJRN":2,"WADMPR":"Provinsi Sulawesi Selatan","WADMKK":"Kabupaten Wajo","REMARK":"Bendung Gilireng","SBDATA":"Ditjen SDA Kementerian PUPR, 2022"},"geometry":{"type":"Point","coordinates":[120.185261,-3.919146]}}]}