{"type":"FeatureCollection","name":"Sistem_Infrastruktur_Prasarana_Lainnya","features":[{"type":"Feature","properties":{"FID":0,"OBJECTID":1,"NAMOBJ":"Tempat Evakuasi Bencana","STSJRN":1,"WADMPR":"Provinsi Sulawesi Selatan","WADMKK":"Kabupaten Wajo","REMARK":"Lapangan Desa Inalipue","SBDATA":"Analisis Tim Penyusun, 2022","wilayah_kecamatan_kode":["73.13.08"],"wilayah_desa_kode":["73.13.08.2007"],"pemetaan_wilayah":"terpetakan"},"geometry":{"type":"Point","coordinates":[120.040605,-4.021721]}},{"type":"Feature","properties":{"FID":1,"OBJECTID":2,"NAMOBJ":"Tempat Evakuasi Bencana","STSJRN":1,"WADMPR":"Provinsi Sulawesi Selatan","WADMKK":"Kabupaten Wajo","REMARK":"Lapangan Desa Mattirowalie","SBDATA":"Analisis Tim Penyusun, 2022","wilayah_kecamatan_kode":["73.13.10"],"wilayah_desa_kode":["73.13.10.2023"],"pemetaan_wilayah":"terpetakan"},"geometry":{"type":"Point","coordinates":[120.06406,-3.948049]}},{"type":"Feature","properties":{"FID":2,"OBJECTID":3,"NAMOBJ":"Tempat Evakuasi Bencana","STSJRN":1,"WADMPR":"Provinsi Sulawesi Selatan","WADMKK":"Kabupaten Wajo","REMARK":"Lapangan Desa Ongkoe","SBDATA":"Analisis Tim Penyusun, 2022","wilayah_kecamatan_kode":["73.13.07"],"wilayah_desa_kode":["73.13.07.2004"],"pemetaan_wilayah":"terpetakan"},"geometry":{"type":"Point","coordinates":[119.940946,-3.955102]}},{"type":"Feature","properties":{"FID":3,"OBJECTID":4,"NAMOBJ":"Tempat Evakuasi Bencana","STSJRN":1,"WADMPR":"Provinsi Sulawesi Selatan","WADMKK":"Kabupaten Wajo","REMARK":"Lapangan Desa Lamata","SBDATA":"Analisis Tim Penyusun, 2022","wilayah_kecamatan_kode":["73.13.13"],"wilayah_desa_kode":["73.13.13.2005"],"pemetaan_wilayah":"terpetakan"},"geometry":{"type":"Point","coordinates":[120.131317,-3.949456]}},{"type":"Feature","properties":{"FID":4,"OBJECTID":5,"NAMOBJ":"Tempat Evakuasi Bencana","STSJRN":1,"WADMPR":"Provinsi Sulawesi Selatan","WADMKK":"Kabupaten Wajo","REMARK":"Lapangan Desa Paria","SBDATA":"Analisis Tim Penyusun, 2022","wilayah_kecamatan_kode":["73.13.05"],"wilayah_desa_kode":["73.13.05.1001"],"pemetaan_wilayah":"terpetakan"},"geometry":{"type":"Point","coordinates":[120.154125,-4.019956]}},{"type":"Feature","properties":{"FID":5,"OBJECTID":6,"NAMOBJ":"Tempat Evakuasi Bencana","STSJRN":1,"WADMPR":"Provinsi Sulawesi Selatan","WADMKK":"Kabupaten Wajo","REMARK":"Lapangan Desa Salobulo","SBDATA":"Analisis Tim Penyusun, 2022","wilayah_kecamatan_kode":["73.13.04"],"wilayah_desa_kode":["73.13.04.2007"],"pemetaan_wilayah":"terpetakan"},"geometry":{"type":"Point","coordinates":[120.26248,-3.953336]}},{"type":"Feature","properties":{"FID":6,"OBJECTID":7,"NAMOBJ":"Tempat Evakuasi Bencana","STSJRN":1,"WADMPR":"Provinsi Sulawesi Selatan","WADMKK":"Kabupaten Wajo","REMARK":"Lapangan Desa Ballaere","SBDATA":"Analisis Tim Penyusun, 2022","wilayah_kecamatan_kode":["73.13.14"],"wilayah_desa_kode":["73.13.14.1001"],"pemetaan_wilayah":"terpetakan"},"geometry":{"type":"Point","coordinates":[120.323502,-3.822861]}},{"type":"Feature","properties":{"FID":7,"OBJECTID":8,"NAMOBJ":"Tempat Evakuasi Bencana","STSJRN":1,"WADMPR":"Provinsi Sulawesi Selatan","WADMKK":"Kabupaten Wajo","REMARK":"Lapangan Kelurahan Tempe","SBDATA":"Analisis Tim Penyusun, 2022","wilayah_kecamatan_kode":["73.13.06"],"wilayah_desa_kode":["73.13.06.1003"],"pemetaan_wilayah":"terpetakan"},"geometry":{"type":"Point","coordinates":[120.030337,-4.111962]}},{"type":"Feature","properties":{"FID":8,"OBJECTID":9,"NAMOBJ":"Tempat Evakuasi Bencana","STSJRN":1,"WADMPR":"Provinsi Sulawesi Selatan","WADMKK":"Kabupaten Wajo","REMARK":"Lapangan Kelurahan Siengkang","SBDATA":"Analisis Tim Penyusun, 2022","wilayah_kecamatan_kode":["73.13.06"],"wilayah_desa_kode":["73.13.06.1001"],"pemetaan_wilayah":"terpetakan"},"geometry":{"type":"Point","coordinates":[120.031909,-4.140213]}},{"type":"Feature","properties":{"FID":9,"OBJECTID":10,"NAMOBJ":"Tempat Evakuasi Bencana","STSJRN":1,"WADMPR":"Provinsi Sulawesi Selatan","WADMKK":"Kabupaten Wajo","REMARK":"Lapangan Desa Tolotenreng","SBDATA":"Analisis Tim Penyusun, 2022","wilayah_kecamatan_kode":["73.13.01"],"wilayah_desa_kode":["73.13.01.1002"],"pemetaan_wilayah":"terpetakan"},"geometry":{"type":"Point","coordinates":[120.010341,-4.219314]}},{"type":"Feature","properties":{"FID":10,"OBJECTID":11,"NAMOBJ":"Tempat Evakuasi Bencana","STSJRN":1,"WADMPR":"Provinsi Sulawesi Selatan","WADMKK":"Kabupaten Wajo","REMARK":"Lapangan Kelurahan Siwa","SBDATA":"Analisis Tim Penyusun, 2022","wilayah_kecamatan_kode":["73.13.10"],"wilayah_desa_kode":["73.13.10.1002"],"pemetaan_wilayah":"terpetakan"},"geometry":{"type":"Point","coordinates":[120.415867,-3.70349]}},{"type":"Feature","properties":{"FID":11,"OBJECTID":12,"NAMOBJ":"Tempat Evakuasi Bencana","STSJRN":1,"WADMPR":"Provinsi Sulawesi Selatan","WADMKK":"Kabupaten Wajo","REMARK":"Lapangan Kelurahan Benteng","SBDATA":"Analisis Tim Penyusun, 2022","wilayah_kecamatan_kode":["73.13.10"],"wilayah_desa_kode":["73.13.10.1004"],"pemetaan_wilayah":"terpetakan"},"geometry":{"type":"Point","coordinates":[120.295843,-4.094633]}},{"type":"Feature","properties":{"FID":12,"OBJECTID":13,"NAMOBJ":"Tempat Evakuasi Bencana","STSJRN":1,"WADMPR":"Provinsi Sulawesi Selatan","WADMKK":"Kabupaten Wajo","REMARK":"Lapangan Desa Manyili","SBDATA":"Analisis Tim Penyusun, 2022","wilayah_kecamatan_kode":["73.13.03"],"wilayah_desa_kode":["73.13.03.2004"],"pemetaan_wilayah":"terpetakan"},"geometry":{"type":"Point","coordinates":[120.284776,-4.179572]}},{"type":"Feature","properties":{"FID":13,"OBJECTID":14,"NAMOBJ":"Tempat Evakuasi Bencana","STSJRN":1,"WADMPR":"Provinsi Sulawesi Selatan","WADMKK":"Kabupaten Wajo","REMARK":"Lapangan Desa Sanreseng Ade","SBDATA":"Analisis Tim Penyusun, 2022","wilayah_kecamatan_kode":["73.13.11"],"wilayah_desa_kode":["73.13.11.2005"],"pemetaan_wilayah":"terpetakan"},"geometry":{"type":"Point","coordinates":[120.267214,-4.230826]}},{"type":"Feature","properties":{"FID":14,"OBJECTID":15,"NAMOBJ":"Tempat Evakuasi Bencana","STSJRN":1,"WADMPR":"Provinsi Sulawesi Selatan","WADMKK":"Kabupaten Wajo","REMARK":"Lapangan Kelurahan Cina","SBDATA":"Analisis Tim Penyusun, 2022","wilayah_kecamatan_kode":["73.13.02"],"wilayah_desa_kode":["73.13.02.1002"],"pemetaan_wilayah":"terpetakan"},"geometry":{"type":"Point","coordinates":[120.099885,-4.195026]}},{"type":"Feature","properties":{"FID":15,"OBJECTID":16,"NAMOBJ":"Unit Produksi","STSJRN":2,"WADMPR":"Provinsi Sulawesi Selatan","WADMKK":"Kabupaten Wajo","REMARK":"SPAM IKK Bola","SBDATA":"PDAM Kabupaten Wajo, 2022","wilayah_kecamatan_kode":["73.13.11"],"wilayah_desa_kode":["73.13.11.2002"],"pemetaan_wilayah":"terpetakan"},"geometry":{"type":"Point","coordinates":[120.228784,-4.238181]}},{"type":"Feature","properties":{"FID":16,"OBJECTID":17,"NAMOBJ":"Unit Produksi","STSJRN":1,"WADMPR":"Provinsi Sulawesi Selatan","WADMKK":"Kabupaten Wajo","REMARK":"SPAM IKK Maniangpajo","SBDATA":"PDAM Kabupaten Wajo, 2022","wilayah_kecamatan_kode":["73.13.09"],"wilayah_desa_kode":["73.13.09.2006"],"pemetaan_wilayah":"terpetakan"},"geometry":{"type":"Point","coordinates":[120.083526,-3.909817]}},{"type":"Feature","properties":{"FID":17,"OBJECTID":18,"NAMOBJ":"Unit Produksi","STSJRN":2,"WADMPR":"Provinsi Sulawesi Selatan","WADMKK":"Kabupaten Wajo","REMARK":"SPAM IKK Tanasitolo","SBDATA":"PDAM Kabupaten Wajo, 2022","wilayah_kecamatan_kode":["73.13.08"],"wilayah_desa_kode":["73.13.08.2012"],"pemetaan_wilayah":"terpetakan"},"geometry":{"type":"Point","coordinates":[120.021749,-4.102796]}},{"type":"Feature","properties":{"FID":18,"OBJECTID":19,"NAMOBJ":"Unit Produksi","STSJRN":2,"WADMPR":"Provinsi Sulawesi Selatan","WADMKK":"Kabupaten Wajo","REMARK":"SPAM IKK Pitumpanua","SBDATA":"PDAM Kabupaten Wajo, 2022","wilayah_kecamatan_kode":["73.13.10"],"wilayah_desa_kode":["73.13.10.1001"],"pemetaan_wilayah":"terpetakan"},"geometry":{"type":"Point","coordinates":[120.39517,-3.71093]}},{"type":"Feature","properties":{"FID":19,"OBJECTID":20,"NAMOBJ":"Tempat Pemrosesan Akhir (TPA)","STSJRN":2,"WADMPR":"Provinsi Sulawesi Selatan","WADMKK":"Kabupaten Wajo","REMARK":"Tidak Ada","SBDATA":"Dinas PUPR dan Pertanahan Kabupaten Wajo, 2022","wilayah_kecamatan_kode":["73.13.06"],"wilayah_desa_kode":["73.13.06.1009"],"pemetaan_wilayah":"terpetakan"},"geometry":{"type":"Point","coordinates":[120.041818,-4.117455]}},{"type":"Feature","properties":{"FID":20,"OBJECTID":21,"NAMOBJ":"Tempat Pemrosesan Akhir (TPA)","STSJRN":2,"WADMPR":"Provinsi Sulawesi Selatan","WADMKK":"Kabupaten Wajo","REMARK":"Tidak Ada","SBDATA":"Dinas PUPR dan Pertanahan Kabupaten Wajo, 2022","wilayah_kecamatan_kode":["73.13.09"],"wilayah_desa_kode":["73.13.09.2004"],"pemetaan_wilayah":"terpetakan"},"geometry":{"type":"Point","coordinates":[120.08871,-3.946588]}},{"type":"Feature","properties":{"FID":21,"OBJECTID":22,"NAMOBJ":"Tempat Pengelolaan Sampah Reuse, Reduce, Recycle (TPS3R)","STSJRN":1,"WADMPR":"Provinsi Sulawesi Selatan","WADMKK":"Kabupaten Wajo","REMARK":"Tidak Ada","SBDATA":"Analisis Tim Penyusun, 2022","wilayah_kecamatan_kode":["73.13.07"],"wilayah_desa_kode":["73.13.07.2009"],"pemetaan_wilayah":"terpetakan"},"geometry":{"type":"Point","coordinates":[119.931217,-4.007562]}},{"type":"Feature","properties":{"FID":22,"OBJECTID":23,"NAMOBJ":"Tempat Penampungan Sementara (TPS)","STSJRN":1,"WADMPR":"Provinsi Sulawesi Selatan","WADMKK":"Kabupaten Wajo","REMARK":"Tidak Ada","SBDATA":"Analisis Tim Penyusun, 2022","wilayah_kecamatan_kode":["73.13.07"],"wilayah_desa_kode":["73.13.07.2004"],"pemetaan_wilayah":"terpetakan"},"geometry":{"type":"Point","coordinates":[119.957403,-3.962737]}},{"type":"Feature","properties":{"FID":23,"OBJECTID":24,"NAMOBJ":"Tempat Pengolahan Sampah Terpadu (TPST)","STSJRN":1,"WADMPR":"Provinsi Sulawesi Selatan","WADMKK":"Kabupaten Wajo","REMARK":"Tidak Ada","SBDATA":"Dinas PUPR dan Pertanahan Kabupaten Wajo, 2022","wilayah_kecamatan_kode":["73.13.07"],"wilayah_desa_kode":["73.13.07.2004"],"pemetaan_wilayah":"terpetakan"},"geometry":{"type":"Point","coordinates":[119.957582,-3.962934]}},{"type":"Feature","properties":{"FID":24,"OBJECTID":25,"NAMOBJ":"Tempat Pengelolaan Sampah Reuse, Reduce, Recycle (TPS3R)","STSJRN":1,"WADMPR":"Provinsi Sulawesi Selatan","WADMKK":"Kabupaten Wajo","REMARK":"Tidak Ada","SBDATA":"Analisis Tim Penyusun, 2022","wilayah_kecamatan_kode":["73.13.05"],"wilayah_desa_kode":["73.13.05.1004"],"pemetaan_wilayah":"terpetakan"},"geometry":{"type":"Point","coordinates":[120.14639,-4.027053]}},{"type":"Feature","properties":{"FID":25,"OBJECTID":26,"NAMOBJ":"Tempat Pengolahan Sampah Terpadu (TPST)","STSJRN":1,"WADMPR":"Provinsi Sulawesi Selatan","WADMKK":"Kabupaten Wajo","REMARK":"Tidak Ada","SBDATA":"Dinas PUPR dan Pertanahan Kabupaten Wajo, 2022","wilayah_kecamatan_kode":["73.13.05"],"wilayah_desa_kode":["73.13.05.2016"],"pemetaan_wilayah":"terpetakan"},"geometry":{"type":"Point","coordinates":[120.120366,-4.115546]}},{"type":"Feature","properties":{"FID":26,"OBJECTID":27,"NAMOBJ":"Tempat Penampungan Sementara (TPS)","STSJRN":1,"WADMPR":"Provinsi Sulawesi Selatan","WADMKK":"Kabupaten Wajo","REMARK":"Tidak Ada","SBDATA":"Analisis Tim Penyusun, 2022","wilayah_kecamatan_kode":["73.13.05"],"wilayah_desa_kode":["73.13.05.2016"],"pemetaan_wilayah":"terpetakan"},"geometry":{"type":"Point","coordinates":[120.120609,-4.115116]}},{"type":"Feature","properties":{"FID":27,"OBJECTID":28,"NAMOBJ":"Tempat Pengelolaan Sampah Reuse, Reduce, Recycle (TPS3R)","STSJRN":1,"WADMPR":"Provinsi Sulawesi Selatan","WADMKK":"Kabupaten Wajo","REMARK":"Tidak Ada","SBDATA":"Analisis Tim Penyusun, 2022","wilayah_kecamatan_kode":["73.13.12"],"wilayah_desa_kode":["73.13.12.2006"],"pemetaan_wilayah":"terpetakan"},"geometry":{"type":"Point","coordinates":[120.29587,-4.095288]}},{"type":"Feature","properties":{"FID":28,"OBJECTID":29,"NAMOBJ":"Tempat Penampungan Sementara (TPS)","STSJRN":1,"WADMPR":"Provinsi Sulawesi Selatan","WADMKK":"Kabupaten Wajo","REMARK":"Tidak Ada","SBDATA":"Analisis Tim Penyusun, 2022","wilayah_kecamatan_kode":["73.13.12"],"wilayah_desa_kode":["73.13.12.2003"],"pemetaan_wilayah":"terpetakan"},"geometry":{"type":"Point","coordinates":[120.238764,-4.062493]}},{"type":"Feature","properties":{"FID":29,"OBJECTID":30,"NAMOBJ":"Tempat Pengolahan Sampah Terpadu (TPST)","STSJRN":1,"WADMPR":"Provinsi Sulawesi Selatan","WADMKK":"Kabupaten Wajo","REMARK":"Tidak Ada","SBDATA":"Dinas PUPR dan Pertanahan Kabupaten Wajo, 2022","wilayah_kecamatan_kode":["73.13.12"],"wilayah_desa_kode":["73.13.12.2003"],"pemetaan_wilayah":"terpetakan"},"geometry":{"type":"Point","coordinates":[120.238881,-4.062269]}},{"type":"Feature","properties":{"FID":30,"OBJECTID":31,"NAMOBJ":"Tempat Pengolahan Sampah Terpadu (TPST)","STSJRN":1,"WADMPR":"Provinsi Sulawesi Selatan","WADMKK":"Kabupaten Wajo","REMARK":"Tidak Ada","SBDATA":"Dinas PUPR dan Pertanahan Kabupaten Wajo, 2022","wilayah_kecamatan_kode":["73.13.09"],"wilayah_desa_kode":["73.13.09.2004"],"pemetaan_wilayah":"terpetakan"},"geometry":{"type":"Point","coordinates":[120.088728,-3.948174]}},{"type":"Feature","properties":{"FID":31,"OBJECTID":32,"NAMOBJ":"Tempat Penampungan Sementara (TPS)","STSJRN":1,"WADMPR":"Provinsi Sulawesi Selatan","WADMKK":"Kabupaten Wajo","REMARK":"Tidak Ada","SBDATA":"Analisis Tim Penyusun, 2022","wilayah_kecamatan_kode":["73.13.09"],"wilayah_desa_kode":["73.13.09.1002"],"pemetaan_wilayah":"terpetakan"},"geometry":{"type":"Point","coordinates":[120.06008,-3.978232]}},{"type":"Feature","properties":{"FID":32,"OBJECTID":33,"NAMOBJ":"Tempat Pengelolaan Sampah Reuse, Reduce, Recycle (TPS3R)","STSJRN":1,"WADMPR":"Provinsi Sulawesi Selatan","WADMKK":"Kabupaten Wajo","REMARK":"Tidak Ada","SBDATA":"Analisis Tim Penyusun, 2022","wilayah_kecamatan_kode":["73.13.09"],"wilayah_desa_kode":["73.13.09.1002"],"pemetaan_wilayah":"terpetakan"},"geometry":{"type":"Point","coordinates":[120.059999,-3.978384]}},{"type":"Feature","properties":{"FID":33,"OBJECTID":34,"NAMOBJ":"Tempat Pengolahan Sampah Terpadu (TPST)","STSJRN":1,"WADMPR":"Provinsi Sulawesi Selatan","WADMKK":"Kabupaten Wajo","REMARK":"Tidak Ada","SBDATA":"Dinas PUPR dan Pertanahan Kabupaten Wajo, 2022","wilayah_kecamatan_kode":["73.13.11"],"wilayah_desa_kode":["73.13.11.1001"],"pemetaan_wilayah":"terpetakan"},"geometry":{"type":"Point","coordinates":[120.230581,-4.236058]}},{"type":"Feature","properties":{"FID":34,"OBJECTID":35,"NAMOBJ":"Tempat Pengelolaan Sampah Reuse, Reduce, Recycle (TPS3R)","STSJRN":1,"WADMPR":"Provinsi Sulawesi Selatan","WADMKK":"Kabupaten Wajo","REMARK":"Tidak Ada","SBDATA":"Analisis Tim Penyusun, 2022","wilayah_kecamatan_kode":["73.13.11"],"wilayah_desa_kode":["73.13.11.1001"],"pemetaan_wilayah":"terpetakan"},"geometry":{"type":"Point","coordinates":[120.230131,-4.236676]}},{"type":"Feature","properties":{"FID":35,"OBJECTID":36,"NAMOBJ":"Tempat Penampungan Sementara (TPS)","STSJRN":1,"WADMPR":"Provinsi Sulawesi Selatan","WADMKK":"Kabupaten Wajo","REMARK":"Tidak Ada","SBDATA":"Analisis Tim Penyusun, 2022","wilayah_kecamatan_kode":["73.13.11"],"wilayah_desa_kode":["73.13.11.2006"],"pemetaan_wilayah":"terpetakan"},"geometry":{"type":"Point","coordinates":[120.336501,-4.217227]}},{"type":"Feature","properties":{"FID":36,"OBJECTID":37,"NAMOBJ":"Tempat Pengolahan Sampah Terpadu (TPST)","STSJRN":1,"WADMPR":"Provinsi Sulawesi Selatan","WADMKK":"Kabupaten Wajo","REMARK":"Tidak Ada","SBDATA":"Dinas PUPR dan Pertanahan Kabupaten Wajo, 2022","wilayah_kecamatan_kode":["73.13.14"],"wilayah_desa_kode":["73.13.14.2009"],"pemetaan_wilayah":"terpetakan"},"geometry":{"type":"Point","coordinates":[120.327203,-3.80834]}},{"type":"Feature","properties":{"FID":37,"OBJECTID":38,"NAMOBJ":"Tempat Pengelolaan Sampah Reuse, Reduce, Recycle (TPS3R)","STSJRN":1,"WADMPR":"Provinsi Sulawesi Selatan","WADMKK":"Kabupaten Wajo","REMARK":"Tidak Ada","SBDATA":"Analisis Tim Penyusun, 2022","wilayah_kecamatan_kode":["73.13.14"],"wilayah_desa_kode":["73.13.14.2009"],"pemetaan_wilayah":"terpetakan"},"geometry":{"type":"Point","coordinates":[120.327257,-3.808]}},{"type":"Feature","properties":{"FID":38,"OBJECTID":39,"NAMOBJ":"Tempat Penampungan Sementara (TPS)","STSJRN":1,"WADMPR":"Provinsi Sulawesi Selatan","WADMKK":"Kabupaten Wajo","REMARK":"Tidak Ada","SBDATA":"Analisis Tim Penyusun, 2022","wilayah_kecamatan_kode":["73.13.14"],"wilayah_desa_kode":["73.13.14.2004"],"pemetaan_wilayah":"terpetakan"},"geometry":{"type":"Point","coordinates":[120.279108,-3.899134]}},{"type":"Feature","properties":{"FID":39,"OBJECTID":40,"NAMOBJ":"Tempat Pengelolaan Sampah Reuse, Reduce, Recycle (TPS3R)","STSJRN":1,"WADMPR":"Provinsi Sulawesi Selatan","WADMKK":"Kabupaten Wajo","REMARK":"Tidak Ada","SBDATA":"Analisis Tim Penyusun, 2022","wilayah_kecamatan_kode":["73.13.06"],"wilayah_desa_kode":["73.13.06.1009"],"pemetaan_wilayah":"terpetakan"},"geometry":{"type":"Point","coordinates":[120.040802,-4.11784]}},{"type":"Feature","properties":{"FID":40,"OBJECTID":41,"NAMOBJ":"Tempat Penampungan Sementara (TPS)","STSJRN":1,"WADMPR":"Provinsi Sulawesi Selatan","WADMKK":"Kabupaten Wajo","REMARK":"Tidak Ada","SBDATA":"Analisis Tim Penyusun, 2022","wilayah_kecamatan_kode":["73.13.06"],"wilayah_desa_kode":["73.13.06.1002"],"pemetaan_wilayah":"terpetakan"},"geometry":{"type":"Point","coordinates":[120.051142,-4.13033]}},{"type":"Feature","properties":{"FID":41,"OBJECTID":42,"NAMOBJ":"Tempat Pengelolaan Sampah Reuse, Reduce, Recycle (TPS3R)","STSJRN":1,"WADMPR":"Provinsi Sulawesi Selatan","WADMKK":"Kabupaten Wajo","REMARK":"Tidak Ada","SBDATA":"Analisis Tim Penyusun, 2022","wilayah_kecamatan_kode":["73.13.08"],"wilayah_desa_kode":["73.13.08.2019"],"pemetaan_wilayah":"terpetakan"},"geometry":{"type":"Point","coordinates":[120.035817,-4.017742]}},{"type":"Feature","properties":{"FID":42,"OBJECTID":43,"NAMOBJ":"Tempat Penampungan Sementara (TPS)","STSJRN":1,"WADMPR":"Provinsi Sulawesi Selatan","WADMKK":"Kabupaten Wajo","REMARK":"Tidak Ada","SBDATA":"Analisis Tim Penyusun, 2022","wilayah_kecamatan_kode":["73.13.08"],"wilayah_desa_kode":["73.13.08.2019"],"pemetaan_wilayah":"terpetakan"},"geometry":{"type":"Point","coordinates":[120.035448,-4.017715]}},{"type":"Feature","properties":{"FID":43,"OBJECTID":44,"NAMOBJ":"Tempat Pengelolaan Sampah Reuse, Reduce, Recycle (TPS3R)","STSJRN":1,"WADMPR":"Provinsi Sulawesi Selatan","WADMKK":"Kabupaten Wajo","REMARK":"Tidak Ada","SBDATA":"Analisis Tim Penyusun, 2022","wilayah_kecamatan_kode":["73.13.03"],"wilayah_desa_kode":["73.13.03.1001"],"pemetaan_wilayah":"terpetakan"},"geometry":{"type":"Point","coordinates":[120.273197,-4.152147]}},{"type":"Feature","properties":{"FID":44,"OBJECTID":45,"NAMOBJ":"Tempat Penampungan Sementara (TPS)","STSJRN":1,"WADMPR":"Provinsi Sulawesi Selatan","WADMKK":"Kabupaten Wajo","REMARK":"Tidak Ada","SBDATA":"Analisis Tim Penyusun, 2022","wilayah_kecamatan_kode":["73.13.03"],"wilayah_desa_kode":["73.13.03.2008"],"pemetaan_wilayah":"terpetakan"},"geometry":{"type":"Point","coordinates":[120.287552,-4.19078]}},{"type":"Feature","properties":{"FID":45,"OBJECTID":46,"NAMOBJ":"Tempat Pengelolaan Sampah Reuse, Reduce, Recycle (TPS3R)","STSJRN":1,"WADMPR":"Provinsi Sulawesi Selatan","WADMKK":"Kabupaten Wajo","REMARK":"Tidak Ada","SBDATA":"Analisis Tim Penyusun, 2022","wilayah_kecamatan_kode":["73.13.04"],"wilayah_desa_kode":["73.13.04.1001"],"pemetaan_wilayah":"terpetakan"},"geometry":{"type":"Point","coordinates":[120.330482,-4.038541]}},{"type":"Feature","properties":{"FID":46,"OBJECTID":47,"NAMOBJ":"Tempat Penampungan Sementara (TPS)","STSJRN":1,"WADMPR":"Provinsi Sulawesi Selatan","WADMKK":"Kabupaten Wajo","REMARK":"Tidak Ada","SBDATA":"Analisis Tim Penyusun, 2022","wilayah_kecamatan_kode":["73.13.04"],"wilayah_desa_kode":["73.13.04.2007"],"pemetaan_wilayah":"terpetakan"},"geometry":{"type":"Point","coordinates":[120.263665,-3.957629]}},{"type":"Feature","properties":{"FID":47,"OBJECTID":48,"NAMOBJ":"Tempat Pengelolaan Sampah Reuse, Reduce, Recycle (TPS3R)","STSJRN":1,"WADMPR":"Provinsi Sulawesi Selatan","WADMKK":"Kabupaten Wajo","REMARK":"Tidak Ada","SBDATA":"Analisis Tim Penyusun, 2022","wilayah_kecamatan_kode":["73.13.01"],"wilayah_desa_kode":["73.13.01.1002"],"pemetaan_wilayah":"terpetakan"},"geometry":{"type":"Point","coordinates":[120.014311,-4.219269]}},{"type":"Feature","properties":{"FID":48,"OBJECTID":49,"NAMOBJ":"Tempat Penampungan Sementara (TPS)","STSJRN":1,"WADMPR":"Provinsi Sulawesi Selatan","WADMKK":"Kabupaten Wajo","REMARK":"Tidak Ada","SBDATA":"Analisis Tim Penyusun, 2022","wilayah_kecamatan_kode":["73.13.01"],"wilayah_desa_kode":["73.13.01.2010"],"pemetaan_wilayah":"terpetakan"},"geometry":{"type":"Point","coordinates":[119.978163,-4.205087]}},{"type":"Feature","properties":{"FID":49,"OBJECTID":50,"NAMOBJ":"Tempat Pengelolaan Sampah Reuse, Reduce, Recycle (TPS3R)","STSJRN":1,"WADMPR":"Provinsi Sulawesi Selatan","WADMKK":"Kabupaten Wajo","REMARK":"Tidak Ada","SBDATA":"Analisis Tim Penyusun, 2022","wilayah_kecamatan_kode":["73.13.10"],"wilayah_desa_kode":["73.13.10.2018"],"pemetaan_wilayah":"terpetakan"},"geometry":{"type":"Point","coordinates":[120.405069,-3.684467]}},{"type":"Feature","properties":{"FID":50,"OBJECTID":51,"NAMOBJ":"Tempat Penampungan Sementara (TPS)","STSJRN":1,"WADMPR":"Provinsi Sulawesi Selatan","WADMKK":"Kabupaten Wajo","REMARK":"Tidak Ada","SBDATA":"Analisis Tim Penyusun, 2022","wilayah_kecamatan_kode":["73.13.10"],"wilayah_desa_kode":["73.13.10.2014"],"pemetaan_wilayah":"terpetakan"},"geometry":{"type":"Point","coordinates":[120.366954,-3.750606]}},{"type":"Feature","properties":{"FID":51,"OBJECTID":52,"NAMOBJ":"Tempat Penampungan Sementara (TPS)","STSJRN":1,"WADMPR":"Provinsi Sulawesi Selatan","WADMKK":"Kabupaten Wajo","REMARK":"Tidak Ada","SBDATA":"Analisis Tim Penyusun, 2022","wilayah_kecamatan_kode":["73.13.02"],"wilayah_desa_kode":["73.13.02.2005"],"pemetaan_wilayah":"terpetakan"},"geometry":{"type":"Point","coordinates":[120.116477,-4.219126]}},{"type":"Feature","properties":{"FID":52,"OBJECTID":53,"NAMOBJ":"Tempat Pengelolaan Sampah Reuse, Reduce, Recycle (TPS3R)","STSJRN":1,"WADMPR":"Provinsi Sulawesi Selatan","WADMKK":"Kabupaten Wajo","REMARK":"Tidak Ada","SBDATA":"Analisis Tim Penyusun, 2022","wilayah_kecamatan_kode":["73.13.02"],"wilayah_desa_kode":["73.13.02.1002"],"pemetaan_wilayah":"terpetakan"},"geometry":{"type":"Point","coordinates":[120.101277,-4.195958]}},{"type":"Feature","properties":{"FID":53,"OBJECTID":54,"NAMOBJ":"Tempat Pengelolaan Sampah Reuse, Reduce, Recycle (TPS3R)","STSJRN":1,"WADMPR":"Provinsi Sulawesi Selatan","WADMKK":"Kabupaten Wajo","REMARK":"Tidak Ada","SBDATA":"Analisis Tim Penyusun, 2022","wilayah_kecamatan_kode":["73.13.13"],"wilayah_desa_kode":["73.13.13.2003"],"pemetaan_wilayah":"terpetakan"},"geometry":{"type":"Point","coordinates":[120.164447,-3.928252]}},{"type":"Feature","properties":{"FID":54,"OBJECTID":55,"NAMOBJ":"Tempat Penampungan Sementara (TPS)","STSJRN":1,"WADMPR":"Provinsi Sulawesi Selatan","WADMKK":"Kabupaten Wajo","REMARK":"Tidak Ada","SBDATA":"Analisis Tim Penyusun, 2022","wilayah_kecamatan_kode":["73.13.13"],"wilayah_desa_kode":["73.13.13.2005"],"pemetaan_wilayah":"terpetakan"},"geometry":{"type":"Point","coordinates":[120.13217,-3.949115]}},{"type":"Feature","properties":{"FID":55,"OBJECTID":56,"NAMOBJ":"Infrastruktur Sistem Pengelolaan Air Limbah Non Domestik","STSJRN":2,"WADMPR":"Provinsi Sulawesi Selatan","WADMKK":"Kabupaten Wajo","REMARK":"Tidak Ada","SBDATA":"Dinas PUPR dan Pertanahan Kabupaten Wajo, 2022","wilayah_kecamatan_kode":["73.13.06"],"wilayah_desa_kode":["73.13.06.1009"],"pemetaan_wilayah":"terpetakan"},"geometry":{"type":"Point","coordinates":[120.051627,-4.114426]}},{"type":"Feature","properties":{"FID":56,"OBJECTID":57,"NAMOBJ":"Sistem Pengelolaan Limbah Bahan Berbahaya dan Beracun (B3)","STSJRN":1,"WADMPR":"Provinsi Sulawesi Selatan","WADMKK":"Kabupaten Wajo","REMARK":"Limbah B3 RSUD Wajo","SBDATA":"Analisis Tim Penyusun, 2022","wilayah_kecamatan_kode":["73.13.06"],"wilayah_desa_kode":["73.13.06.1004"],"pemetaan_wilayah":"terpetakan"},"geometry":{"type":"Point","coordinates":[120.041018,-4.148088]}},{"type":"Feature","properties":{"FID":57,"OBJECTID":58,"NAMOBJ":"Sistem Pengelolaan Limbah Bahan Berbahaya dan Beracun (B3)","STSJRN":1,"WADMPR":"Provinsi Sulawesi Selatan","WADMKK":"Kabupaten Wajo","REMARK":"Limbah B3 Tambang Migas Gilireng","SBDATA":"Analisis Tim Penyusun, 2022","wilayah_kecamatan_kode":["73.13.13"],"wilayah_desa_kode":["73.13.13.1002"],"pemetaan_wilayah":"terpetakan"},"geometry":{"type":"Point","coordinates":[120.169935,-3.955057]}},{"type":"Feature","properties":{"FID":58,"OBJECTID":59,"NAMOBJ":"Tempat Pemrosesan Akhir (TPA)","STSJRN":1,"WADMPR":"Provinsi Sulawesi Selatan","WADMKK":"Kabupaten Wajo","REMARK":"Tidak Ada","SBDATA":"Analisis Tim Penyusun, 2022","wilayah_kecamatan_kode":["73.13.10"],"wilayah_desa_kode":["73.13.10.2018"],"pemetaan_wilayah":"terpetakan"},"geometry":{"type":"Point","coordinates":[120.404881,-3.684342]}},{"type":"Feature","properties":{"FID":59,"OBJECTID":60,"NAMOBJ":"Unit Produksi","STSJRN":2,"WADMPR":"Provinsi Sulawesi Selatan","WADMKK":"Kabupaten Wajo","REMARK":"SPAM IKK Sabbangparu","SBDATA":"PDAM Kabupaten Wajo, 2022","wilayah_kecamatan_kode":["73.13.01"],"wilayah_desa_kode":["73.13.01.1003"],"pemetaan_wilayah":"terpetakan"},"geometry":{"type":"Point","coordinates":[120.004277,-4.216349]}},{"type":"Feature","properties":{"FID":60,"OBJECTID":61,"NAMOBJ":"Unit Produksi","STSJRN":2,"WADMPR":"Provinsi Sulawesi Selatan","WADMKK":"Kabupaten Wajo","REMARK":"SPAM IKK Tempe","SBDATA":"PDAM Kabupaten Wajo, 2022","wilayah_kecamatan_kode":["73.13.06"],"wilayah_desa_kode":["73.13.06.1003"],"pemetaan_wilayah":"terpetakan"},"geometry":{"type":"Point","coordinates":[120.035709,-4.138761]}},{"type":"Feature","properties":{"FID":61,"OBJECTID":62,"NAMOBJ":"Unit Produksi","STSJRN":2,"WADMPR":"Provinsi Sulawesi Selatan","WADMKK":"Kabupaten Wajo","REMARK":"SPAM IKK Belawa","SBDATA":"PDAM Kabupaten Wajo, 2022","wilayah_kecamatan_kode":["73.13.07"],"wilayah_desa_kode":["73.13.07.1003"],"pemetaan_wilayah":"terpetakan"},"geometry":{"type":"Point","coordinates":[119.966458,-3.959484]}},{"type":"Feature","properties":{"FID":62,"OBJECTID":63,"NAMOBJ":"Unit Produksi","STSJRN":2,"WADMPR":"Provinsi Sulawesi Selatan","WADMKK":"Kabupaten Wajo","REMARK":"SPAM IKK Keera","SBDATA":"PDAM Kabupaten Wajo, 2022","wilayah_kecamatan_kode":["73.13.14"],"wilayah_desa_kode":["73.13.14.2003"],"pemetaan_wilayah":"terpetakan"},"geometry":{"type":"Point","coordinates":[120.353219,-3.738128]}},{"type":"Feature","properties":{"FID":63,"OBJECTID":64,"NAMOBJ":"Sistem Pengelolaan Limbah Bahan Berbahaya dan Beracun (B3)","STSJRN":1,"WADMPR":"Provinsi Sulawesi Selatan","WADMKK":"Kabupaten Wajo","REMARK":"Limbah B3 RSUD Siwa","SBDATA":"Analisis Tim Penyusun, 2022","wilayah_kecamatan_kode":["73.13.10"],"wilayah_desa_kode":["73.13.10.1002"],"pemetaan_wilayah":"terpetakan"},"geometry":{"type":"Point","coordinates":[120.41434,-3.700568]}},{"type":"Feature","properties":{"FID":64,"OBJECTID":65,"NAMOBJ":"Unit Air Baku","STSJRN":2,"WADMPR":"Provinsi Sulawesi Selatan","WADMKK":"Kabupaten Wajo","REMARK":"Mata Air Talotenreng","SBDATA":"PDAM Kabupaten Wajo, 2022","wilayah_kecamatan_kode":["73.13.01"],"wilayah_desa_kode":["73.13.01.1002"],"pemetaan_wilayah":"terpetakan"},"geometry":{"type":"Point","coordinates":[120.008661,-4.21849]}},{"type":"Feature","properties":{"FID":65,"OBJECTID":66,"NAMOBJ":"Unit Air Baku","STSJRN":2,"WADMPR":"Provinsi Sulawesi Selatan","WADMKK":"Kabupaten Wajo","REMARK":"Mata Air Sumpabakae","SBDATA":"PDAM Kabupaten Wajo, 2022","wilayah_kecamatan_kode":["73.13.01"],"wilayah_desa_kode":["73.13.01.2012"],"pemetaan_wilayah":"terpetakan"},"geometry":{"type":"Point","coordinates":[120.031711,-4.183532]}},{"type":"Feature","properties":{"FID":66,"OBJECTID":68,"NAMOBJ":"Sistem Pengelolaan Limbah Bahan Berbahaya dan Beracun (B3)","STSJRN":1,"WADMPR":"Provinsi Sulawesi Selatan","WADMKK":"Kabupaten Wajo","REMARK":"Limbah B3 LNG Langkenna","SBDATA":"Analisis Tim Penyusun, 2022","wilayah_kecamatan_kode":["73.13.14"],"wilayah_desa_kode":["73.13.14.2007"],"pemetaan_wilayah":"terpetakan"},"geometry":{"type":"Point","coordinates":[120.339654,-3.909656]}},{"type":"Feature","properties":{"FID":67,"OBJECTID":69,"NAMOBJ":"Unit Produksi","STSJRN":2,"WADMPR":"Provinsi Sulawesi Selatan","WADMKK":"Kabupaten Wajo","REMARK":"SPAM IKK Pammana","SBDATA":"PDAM Kabupaten Wajo, 2022","wilayah_kecamatan_kode":["73.13.02"],"wilayah_desa_kode":["73.13.02.1001"],"pemetaan_wilayah":"terpetakan"},"geometry":{"type":"Point","coordinates":[120.048249,-4.169923]}},{"type":"Feature","properties":{"FID":68,"OBJECTID":70,"NAMOBJ":"Unit Produksi","STSJRN":2,"WADMPR":"Provinsi Sulawesi Selatan","WADMKK":"Kabupaten Wajo","REMARK":"SPAM IPA Sengkang","SBDATA":"PDAM Kabupaten Wajo, 2022","wilayah_kecamatan_kode":["73.13.06"],"wilayah_desa_kode":["73.13.06.1001"],"pemetaan_wilayah":"terpetakan"},"geometry":{"type":"Point","coordinates":[120.031011,-4.141808]}},{"type":"Feature","properties":{"FID":69,"OBJECTID":71,"NAMOBJ":"Unit Air Baku","STSJRN":1,"WADMPR":"Provinsi Sulawesi Selatan","WADMKK":"Kabupaten Wajo","REMARK":"Intake","SBDATA":"Balai Permukiman dan Prasarana Wilayah (BPPW) Sulawesi Selatan, 2022","wilayah_kecamatan_kode":["73.13.08"],"wilayah_desa_kode":["73.13.08.2012"],"pemetaan_wilayah":"terpetakan"},"geometry":{"type":"Point","coordinates":[120.021623,-4.10268]}},{"type":"Feature","properties":{"FID":70,"OBJECTID":72,"NAMOBJ":"Unit Produksi","STSJRN":1,"WADMPR":"Provinsi Sulawesi Selatan","WADMKK":"Kabupaten Wajo","REMARK":"SPAM Danau Tempe","SBDATA":"Balai Permukiman dan Prasarana Wilayah (BPPW) Sulawesi Selatan, 2022","wilayah_kecamatan_kode":["73.13.06"],"wilayah_desa_kode":["73.13.06.1003"],"pemetaan_wilayah":"terpetakan"},"geometry":{"type":"Point","coordinates":[120.03915,-4.104158]}},{"type":"Feature","properties":{"FID":71,"OBJECTID":73,"NAMOBJ":"Unit Air Baku","STSJRN":2,"WADMPR":"Provinsi Sulawesi Selatan","WADMKK":"Kabupaten Wajo","REMARK":"Intake","SBDATA":"PDAM Kabupaten Wajo, 2022","wilayah_kecamatan_kode":["73.13.10"],"wilayah_desa_kode":["73.13.10.1001"],"pemetaan_wilayah":"terpetakan"},"geometry":{"type":"Point","coordinates":[120.395242,-3.710993]}},{"type":"Feature","properties":{"FID":72,"OBJECTID":74,"NAMOBJ":"Unit Air Baku","STSJRN":2,"WADMPR":"Provinsi Sulawesi Selatan","WADMKK":"Kabupaten Wajo","REMARK":"Intake","SBDATA":"PDAM Kabupaten Wajo, 2022","wilayah_kecamatan_kode":["73.13.09"],"wilayah_desa_kode":["73.13.09.2006"],"pemetaan_wilayah":"terpetakan"},"geometry":{"type":"Point","coordinates":[120.083643,-3.909772]}},{"type":"Feature","properties":{"FID":73,"OBJECTID":75,"NAMOBJ":"Unit Air Baku","STSJRN":2,"WADMPR":"Provinsi Sulawesi Selatan","WADMKK":"Kabupaten Wajo","REMARK":"Intake","SBDATA":"PDAM Kabupaten Wajo, 2022","wilayah_kecamatan_kode":["73.13.10"],"wilayah_desa_kode":["73.13.10.2022"],"pemetaan_wilayah":"terpetakan"},"geometry":{"type":"Point","coordinates":[120.353245,-3.73819]}},{"type":"Feature","properties":{"FID":74,"OBJECTID":76,"NAMOBJ":"Unit Air Baku","STSJRN":2,"WADMPR":"Provinsi Sulawesi Selatan","WADMKK":"Kabupaten Wajo","REMARK":"Intake","SBDATA":"PDAM Kabupaten Wajo, 2022","wilayah_kecamatan_kode":["73.13.06"],"wilayah_desa_kode":["73.13.06.1001"],"pemetaan_wilayah":"terpetakan"},"geometry":{"type":"Point","coordinates":[120.030939,-4.141799]}},{"type":"Feature","properties":{"FID":75,"OBJECTID":78,"NAMOBJ":"Unit Air Baku","STSJRN":2,"WADMPR":"Provinsi Sulawesi Selatan","WADMKK":"Kabupaten Wajo","REMARK":"Intake","SBDATA":"PDAM Kabupaten Wajo, 2022","wilayah_kecamatan_kode":["73.13.02"],"wilayah_desa_kode":["73.13.02.2010"],"pemetaan_wilayah":"terpetakan"},"geometry":{"type":"Point","coordinates":[120.048205,-4.169967]}},{"type":"Feature","properties":{"FID":76,"OBJECTID":79,"NAMOBJ":"Unit Air Baku","STSJRN":2,"WADMPR":"Provinsi Sulawesi Selatan","WADMKK":"Kabupaten Wajo","REMARK":"Intake","SBDATA":"PDAM Kabupaten Wajo, 2022","wilayah_kecamatan_kode":["73.13.01"],"wilayah_desa_kode":["73.13.01.1003"],"pemetaan_wilayah":"terpetakan"},"geometry":{"type":"Point","coordinates":[120.004259,-4.216331]}},{"type":"Feature","properties":{"FID":77,"OBJECTID":80,"NAMOBJ":"Unit Air Baku","STSJRN":2,"WADMPR":"Provinsi Sulawesi Selatan","WADMKK":"Kabupaten Wajo","REMARK":"Intake","SBDATA":"PDAM Kabupaten Wajo, 2022","wilayah_kecamatan_kode":["73.13.11"],"wilayah_desa_kode":["73.13.11.1001"],"pemetaan_wilayah":"terpetakan"},"geometry":{"type":"Point","coordinates":[120.228811,-4.238226]}},{"type":"Feature","properties":{"FID":78,"OBJECTID":81,"NAMOBJ":"Unit Air Baku","STSJRN":2,"WADMPR":"Provinsi Sulawesi Selatan","WADMKK":"Kabupaten Wajo","REMARK":"Intake","SBDATA":"PDAM Kabupaten Wajo, 2022","wilayah_kecamatan_kode":["73.13.07"],"wilayah_desa_kode":["73.13.07.2008"],"pemetaan_wilayah":"terpetakan"},"geometry":{"type":"Point","coordinates":[119.966539,-3.959484]}},{"type":"Feature","properties":{"FID":79,"OBJECTID":82,"NAMOBJ":"Tempat Pengolahan Sampah Terpadu (TPST)","STSJRN":1,"WADMPR":"Provinsi Sulawesi Selatan","WADMKK":"Kabupaten Wajo","REMARK":"Tidak Ada","SBDATA":"Dinas PUPR dan Pertanahan Kabupaten Wajo, 2022","wilayah_kecamatan_kode":["73.13.04"],"wilayah_desa_kode":["73.13.04.1001"],"pemetaan_wilayah":"terpetakan"},"geometry":{"type":"Point","coordinates":[120.329135,-4.034006]}},{"type":"Feature","properties":{"FID":80,"OBJECTID":83,"NAMOBJ":"Infrastruktur Sistem Pengelolaan Air Limbah Domestik","STSJRN":1,"WADMPR":"Provinsi Sulawesi Selatan","WADMKK":"Kabupaten Wajo","REMARK":"Tidak Ada","SBDATA":"Analisis Tim Penyusun, 2022","wilayah_kecamatan_kode":["73.13.06"],"wilayah_desa_kode":["73.13.06.1009"],"pemetaan_wilayah":"terpetakan"},"geometry":{"type":"Point","coordinates":[120.041818,-4.117983]}},{"type":"Feature","properties":{"FID":81,"OBJECTID":84,"NAMOBJ":"Infrastruktur Sistem Pengelolaan Air Limbah Domestik","STSJRN":1,"WADMPR":"Provinsi Sulawesi Selatan","WADMKK":"Kabupaten Wajo","REMARK":"Tidak Ada","SBDATA":"Analisis Tim Penyusun, 2022","wilayah_kecamatan_kode":["73.13.08"],"wilayah_desa_kode":["73.13.08.2019"],"pemetaan_wilayah":"terpetakan"},"geometry":{"type":"Point","coordinates":[120.035296,-4.017715]}},{"type":"Feature","properties":{"FID":82,"OBJECTID":85,"NAMOBJ":"Infrastruktur Sistem Pengelolaan Air Limbah Domestik","STSJRN":1,"WADMPR":"Provinsi Sulawesi Selatan","WADMKK":"Kabupaten Wajo","REMARK":"Tidak Ada","SBDATA":"Analisis Tim Penyusun, 2022","wilayah_kecamatan_kode":["73.13.09"],"wilayah_desa_kode":["73.13.09.1002"],"pemetaan_wilayah":"terpetakan"},"geometry":{"type":"Point","coordinates":[120.060107,-3.978357]}},{"type":"Feature","properties":{"FID":83,"OBJECTID":86,"NAMOBJ":"Infrastruktur Sistem Pengelolaan Air Limbah Domestik","STSJRN":1,"WADMPR":"Provinsi Sulawesi Selatan","WADMKK":"Kabupaten Wajo","REMARK":"Tidak Ada","SBDATA":"Analisis Tim Penyusun, 2022","wilayah_kecamatan_kode":["73.13.07"],"wilayah_desa_kode":["73.13.07.2009"],"pemetaan_wilayah":"terpetakan"},"geometry":{"type":"Point","coordinates":[119.931199,-4.007661]}},{"type":"Feature","properties":{"FID":84,"OBJECTID":87,"NAMOBJ":"Infrastruktur Sistem Pengelolaan Air Limbah Domestik","STSJRN":1,"WADMPR":"Provinsi Sulawesi Selatan","WADMKK":"Kabupaten Wajo","REMARK":"Tidak Ada","SBDATA":"Analisis Tim Penyusun, 2022","wilayah_kecamatan_kode":["73.13.13"],"wilayah_desa_kode":["73.13.13.2003"],"pemetaan_wilayah":"terpetakan"},"geometry":{"type":"Point","coordinates":[120.164402,-3.928342]}},{"type":"Feature","properties":{"FID":85,"OBJECTID":88,"NAMOBJ":"Infrastruktur Sistem Pengelolaan Air Limbah Domestik","STSJRN":1,"WADMPR":"Provinsi Sulawesi Selatan","WADMKK":"Kabupaten Wajo","REMARK":"Tidak Ada","SBDATA":"Analisis Tim Penyusun, 2022","wilayah_kecamatan_kode":["73.13.14"],"wilayah_desa_kode":["73.13.14.2009"],"pemetaan_wilayah":"terpetakan"},"geometry":{"type":"Point","coordinates":[120.32723,-3.808152]}},{"type":"Feature","properties":{"FID":86,"OBJECTID":89,"NAMOBJ":"Infrastruktur Sistem Pengelolaan Air Limbah Domestik","STSJRN":1,"WADMPR":"Provinsi Sulawesi Selatan","WADMKK":"Kabupaten Wajo","REMARK":"Tidak Ada","SBDATA":"Analisis Tim Penyusun, 2022","wilayah_kecamatan_kode":["73.13.10"],"wilayah_desa_kode":["73.13.10.2018"],"pemetaan_wilayah":"terpetakan"},"geometry":{"type":"Point","coordinates":[120.405069,-3.684324]}},{"type":"Feature","properties":{"FID":87,"OBJECTID":90,"NAMOBJ":"Infrastruktur Sistem Pengelolaan Air Limbah Domestik","STSJRN":1,"WADMPR":"Provinsi Sulawesi Selatan","WADMKK":"Kabupaten Wajo","REMARK":"Tidak Ada","SBDATA":"Analisis Tim Penyusun, 2022","wilayah_kecamatan_kode":["73.13.12"],"wilayah_desa_kode":["73.13.12.2006"],"pemetaan_wilayah":"terpetakan"},"geometry":{"type":"Point","coordinates":[120.295942,-4.095288]}},{"type":"Feature","properties":{"FID":88,"OBJECTID":92,"NAMOBJ":"Infrastruktur Sistem Pengelolaan Air Limbah Domestik","STSJRN":1,"WADMPR":"Provinsi Sulawesi Selatan","WADMKK":"Kabupaten Wajo","REMARK":"Tidak Ada","SBDATA":"Analisis Tim Penyusun, 2022","wilayah_kecamatan_kode":["73.13.03"],"wilayah_desa_kode":["73.13.03.1001"],"pemetaan_wilayah":"terpetakan"},"geometry":{"type":"Point","coordinates":[120.273367,-4.152183]}},{"type":"Feature","properties":{"FID":89,"OBJECTID":93,"NAMOBJ":"Infrastruktur Sistem Pengelolaan Air Limbah Domestik","STSJRN":1,"WADMPR":"Provinsi Sulawesi Selatan","WADMKK":"Kabupaten Wajo","REMARK":"Tidak Ada","SBDATA":"Analisis Tim Penyusun, 2022","wilayah_kecamatan_kode":["73.13.11"],"wilayah_desa_kode":["73.13.11.1001"],"pemetaan_wilayah":"terpetakan"},"geometry":{"type":"Point","coordinates":[120.230257,-4.236524]}},{"type":"Feature","properties":{"FID":90,"OBJECTID":94,"NAMOBJ":"Infrastruktur Sistem Pengelolaan Air Limbah Domestik","STSJRN":1,"WADMPR":"Provinsi Sulawesi Selatan","WADMKK":"Kabupaten Wajo","REMARK":"Tidak Ada","SBDATA":"Analisis Tim Penyusun, 2022","wilayah_kecamatan_kode":["73.13.02"],"wilayah_desa_kode":["73.13.02.1002"],"pemetaan_wilayah":"terpetakan"},"geometry":{"type":"Point","coordinates":[120.101367,-4.195797]}},{"type":"Feature","properties":{"FID":91,"OBJECTID":95,"NAMOBJ":"Infrastruktur Sistem Pengelolaan Air Limbah Domestik","STSJRN":1,"WADMPR":"Provinsi Sulawesi Selatan","WADMKK":"Kabupaten Wajo","REMARK":"Tidak Ada","SBDATA":"Analisis Tim Penyusun, 2022","wilayah_kecamatan_kode":["73.13.01"],"wilayah_desa_kode":["73.13.01.1002"],"pemetaan_wilayah":"terpetakan"},"geometry":{"type":"Point","coordinates":[120.014428,-4.219305]}},{"type":"Feature","properties":{"FID":92,"OBJECTID":96,"NAMOBJ":"Infrastruktur Sistem Pengelolaan Air Limbah Domestik","STSJRN":1,"WADMPR":"Provinsi Sulawesi Selatan","WADMKK":"Kabupaten Wajo","REMARK":"Tidak Ada","SBDATA":"Analisis Tim Penyusun, 2022","wilayah_kecamatan_kode":["73.13.05"],"wilayah_desa_kode":["73.13.05.1004"],"pemetaan_wilayah":"terpetakan"},"geometry":{"type":"Point","coordinates":[120.146534,-4.027062]}},{"type":"Feature","properties":{"FID":93,"OBJECTID":97,"NAMOBJ":"Infrastruktur Sistem Pengelolaan Air Limbah Domestik","STSJRN":1,"WADMPR":"Provinsi Sulawesi Selatan","WADMKK":"Kabupaten Wajo","REMARK":"Tidak Ada","SBDATA":"Analisis Tim Penyusun, 2022","wilayah_kecamatan_kode":["73.13.04"],"wilayah_desa_kode":["73.13.04.1001"],"pemetaan_wilayah":"terpetakan"},"geometry":{"type":"Point","coordinates":[120.330572,-4.038594]}}]}
