{"type":"FeatureCollection","name":"Sistem_Infrastruktur_Telekomunikasi","features":[{"type":"Feature","properties":{"FID":0,"OBJECTID":1,"NAMOBJ":"Jaringan Bergerak Seluler","STSJRN":2,"WADMPR":"Provinsi Sulawesi Selatan","WADMKK":"Kabupaten Wajo","REMARK":"Menara Base Transciever Station (BTS)","SBDATA":"PT. Telkom Kabupaten Wajo, 2022","wilayah_kecamatan_kode":["73.13.10"],"wilayah_desa_kode":["73.13.10.2018"],"pemetaan_wilayah":"terpetakan"},"geometry":{"type":"Point","coordinates":[120.387534,-3.692428]}},{"type":"Feature","properties":{"FID":1,"OBJECTID":2,"NAMOBJ":"Jaringan Bergerak Seluler","STSJRN":2,"WADMPR":"Provinsi Sulawesi Selatan","WADMKK":"Kabupaten Wajo","REMARK":"Menara Base Transciever Station (BTS)","SBDATA":"PT. Telkom Kabupaten Wajo, 2022","wilayah_kecamatan_kode":["73.13.10"],"wilayah_desa_kode":["73.13.10.2009"],"pemetaan_wilayah":"terpetakan"},"geometry":{"type":"Point","coordinates":[120.399572,-3.672168]}},{"type":"Feature","properties":{"FID":2,"OBJECTID":3,"NAMOBJ":"Jaringan Bergerak Seluler","STSJRN":2,"WADMPR":"Provinsi Sulawesi Selatan","WADMKK":"Kabupaten Wajo","REMARK":"Menara Base Transciever Station (BTS)","SBDATA":"PT. Telkom Kabupaten Wajo, 2022","wilayah_kecamatan_kode":["73.13.10"],"wilayah_desa_kode":["73.13.10.1002"],"pemetaan_wilayah":"terpetakan"},"geometry":{"type":"Point","coordinates":[120.412453,-3.697179]}},{"type":"Feature","properties":{"FID":3,"OBJECTID":4,"NAMOBJ":"Jaringan Bergerak Seluler","STSJRN":2,"WADMPR":"Provinsi Sulawesi Selatan","WADMKK":"Kabupaten Wajo","REMARK":"Menara Base Transciever Station (BTS)","SBDATA":"PT. Telkom Kabupaten Wajo, 2022","wilayah_kecamatan_kode":["73.13.10"],"wilayah_desa_kode":["73.13.10.1001"],"pemetaan_wilayah":"terpetakan"},"geometry":{"type":"Point","coordinates":[120.42026,-3.704566]}},{"type":"Feature","properties":{"FID":4,"OBJECTID":5,"NAMOBJ":"Jaringan Bergerak Seluler","STSJRN":2,"WADMPR":"Provinsi Sulawesi Selatan","WADMKK":"Kabupaten Wajo","REMARK":"Menara Base Transciever Station (BTS)","SBDATA":"PT. Telkom Kabupaten Wajo, 2022","wilayah_kecamatan_kode":["73.13.10"],"wilayah_desa_kode":["73.13.10.2021"],"pemetaan_wilayah":"terpetakan"},"geometry":{"type":"Point","coordinates":[120.366145,-3.745048]}},{"type":"Feature","properties":{"FID":5,"OBJECTID":6,"NAMOBJ":"Jaringan Bergerak Seluler","STSJRN":2,"WADMPR":"Provinsi Sulawesi Selatan","WADMKK":"Kabupaten Wajo","REMARK":"Menara Base Transciever Station (BTS)","SBDATA":"PT. Telkom Kabupaten Wajo, 2022","wilayah_kecamatan_kode":["73.13.10"],"wilayah_desa_kode":["73.13.10.2013"],"pemetaan_wilayah":"terpetakan"},"geometry":{"type":"Point","coordinates":[120.291082,-3.749512]}},{"type":"Feature","properties":{"FID":6,"OBJECTID":7,"NAMOBJ":"Jaringan Bergerak Seluler","STSJRN":2,"WADMPR":"Provinsi Sulawesi Selatan","WADMKK":"Kabupaten Wajo","REMARK":"Menara Base Transciever Station (BTS)","SBDATA":"PT. Telkom Kabupaten Wajo, 2022","wilayah_kecamatan_kode":["73.13.14"],"wilayah_desa_kode":["73.13.14.1001"],"pemetaan_wilayah":"terpetakan"},"geometry":{"type":"Point","coordinates":[120.322936,-3.829959]}},{"type":"Feature","properties":{"FID":7,"OBJECTID":8,"NAMOBJ":"Jaringan Bergerak Seluler","STSJRN":2,"WADMPR":"Provinsi Sulawesi Selatan","WADMKK":"Kabupaten Wajo","REMARK":"Menara Base Transciever Station (BTS)","SBDATA":"PT. Telkom Kabupaten Wajo, 2022","wilayah_kecamatan_kode":["73.13.14"],"wilayah_desa_kode":["73.13.14.1001"],"pemetaan_wilayah":"terpetakan"},"geometry":{"type":"Point","coordinates":[120.324212,-3.828328]}},{"type":"Feature","properties":{"FID":8,"OBJECTID":9,"NAMOBJ":"Jaringan Bergerak Seluler","STSJRN":2,"WADMPR":"Provinsi Sulawesi Selatan","WADMKK":"Kabupaten Wajo","REMARK":"Menara Base Transciever Station (BTS)","SBDATA":"PT. Telkom Kabupaten Wajo, 2022","wilayah_kecamatan_kode":["73.13.04"],"wilayah_desa_kode":["73.13.04.2008"],"pemetaan_wilayah":"terpetakan"},"geometry":{"type":"Point","coordinates":[120.256452,-3.956634]}},{"type":"Feature","properties":{"FID":9,"OBJECTID":10,"NAMOBJ":"Jaringan Bergerak Seluler","STSJRN":2,"WADMPR":"Provinsi Sulawesi Selatan","WADMKK":"Kabupaten Wajo","REMARK":"Menara Base Transciever Station (BTS)","SBDATA":"PT. Telkom Kabupaten Wajo, 2022","wilayah_kecamatan_kode":["73.13.04"],"wilayah_desa_kode":["73.13.04.2009"],"pemetaan_wilayah":"terpetakan"},"geometry":{"type":"Point","coordinates":[120.278254,-3.942125]}},{"type":"Feature","properties":{"FID":10,"OBJECTID":11,"NAMOBJ":"Jaringan Bergerak Seluler","STSJRN":2,"WADMPR":"Provinsi Sulawesi Selatan","WADMKK":"Kabupaten Wajo","REMARK":"Menara Base Transciever Station (BTS)","SBDATA":"PT. Telkom Kabupaten Wajo, 2022","wilayah_kecamatan_kode":["73.13.14"],"wilayah_desa_kode":["73.13.14.2004"],"pemetaan_wilayah":"terpetakan"},"geometry":{"type":"Point","coordinates":[120.280096,-3.898551]}},{"type":"Feature","properties":{"FID":11,"OBJECTID":12,"NAMOBJ":"Jaringan Bergerak Seluler","STSJRN":2,"WADMPR":"Provinsi Sulawesi Selatan","WADMKK":"Kabupaten Wajo","REMARK":"Menara Base Transciever Station (BTS)","SBDATA":"PT. Telkom Kabupaten Wajo, 2022","wilayah_kecamatan_kode":["73.13.13"],"wilayah_desa_kode":["73.13.13.2003"],"pemetaan_wilayah":"terpetakan"},"geometry":{"type":"Point","coordinates":[120.164707,-3.958964]}},{"type":"Feature","properties":{"FID":12,"OBJECTID":13,"NAMOBJ":"Jaringan Bergerak Seluler","STSJRN":2,"WADMPR":"Provinsi Sulawesi Selatan","WADMKK":"Kabupaten Wajo","REMARK":"Menara Base Transciever Station (BTS)","SBDATA":"PT. Telkom Kabupaten Wajo, 2022","wilayah_kecamatan_kode":["73.13.05"],"wilayah_desa_kode":["73.13.05.2008"],"pemetaan_wilayah":"terpetakan"},"geometry":{"type":"Point","coordinates":[120.167483,-3.986512]}},{"type":"Feature","properties":{"FID":13,"OBJECTID":14,"NAMOBJ":"Jaringan Bergerak Seluler","STSJRN":2,"WADMPR":"Provinsi Sulawesi Selatan","WADMKK":"Kabupaten Wajo","REMARK":"Menara Base Transciever Station (BTS)","SBDATA":"PT. Telkom Kabupaten Wajo, 2022","wilayah_kecamatan_kode":["73.13.04"],"wilayah_desa_kode":["73.13.04.2005"],"pemetaan_wilayah":"terpetakan"},"geometry":{"type":"Point","coordinates":[120.225703,-3.958185]}},{"type":"Feature","properties":{"FID":14,"OBJECTID":15,"NAMOBJ":"Jaringan Bergerak Seluler","STSJRN":2,"WADMPR":"Provinsi Sulawesi Selatan","WADMKK":"Kabupaten Wajo","REMARK":"Menara Base Transciever Station (BTS)","SBDATA":"PT. Telkom Kabupaten Wajo, 2022","wilayah_kecamatan_kode":["73.13.09"],"wilayah_desa_kode":["73.13.09.2005"],"pemetaan_wilayah":"terpetakan"},"geometry":{"type":"Point","coordinates":[120.04913,-3.912568]}},{"type":"Feature","properties":{"FID":15,"OBJECTID":16,"NAMOBJ":"Jaringan Bergerak Seluler","STSJRN":2,"WADMPR":"Provinsi Sulawesi Selatan","WADMKK":"Kabupaten Wajo","REMARK":"Menara Base Transciever Station (BTS)","SBDATA":"PT. Telkom Kabupaten Wajo, 2022","wilayah_kecamatan_kode":["73.13.07"],"wilayah_desa_kode":["73.13.07.2006"],"pemetaan_wilayah":"terpetakan"},"geometry":{"type":"Point","coordinates":[120.000459,-3.935081]}},{"type":"Feature","properties":{"FID":16,"OBJECTID":17,"NAMOBJ":"Jaringan Bergerak Seluler","STSJRN":2,"WADMPR":"Provinsi Sulawesi Selatan","WADMKK":"Kabupaten Wajo","REMARK":"Menara Base Transciever Station (BTS)","SBDATA":"PT. Telkom Kabupaten Wajo, 2022","wilayah_kecamatan_kode":["73.13.09"],"wilayah_desa_kode":["73.13.09.1001"],"pemetaan_wilayah":"terpetakan"},"geometry":{"type":"Point","coordinates":[120.06662,-3.951661]}},{"type":"Feature","properties":{"FID":17,"OBJECTID":18,"NAMOBJ":"Jaringan Bergerak Seluler","STSJRN":2,"WADMPR":"Provinsi Sulawesi Selatan","WADMKK":"Kabupaten Wajo","REMARK":"Menara Base Transciever Station (BTS)","SBDATA":"PT. Telkom Kabupaten Wajo, 2022","wilayah_kecamatan_kode":["73.13.09"],"wilayah_desa_kode":["73.13.09.1002"],"pemetaan_wilayah":"terpetakan"},"geometry":{"type":"Point","coordinates":[120.063611,-3.96513]}},{"type":"Feature","properties":{"FID":18,"OBJECTID":19,"NAMOBJ":"Jaringan Bergerak Seluler","STSJRN":2,"WADMPR":"Provinsi Sulawesi Selatan","WADMKK":"Kabupaten Wajo","REMARK":"Menara Base Transciever Station (BTS)","SBDATA":"PT. Telkom Kabupaten Wajo, 2022","wilayah_kecamatan_kode":["73.13.09"],"wilayah_desa_kode":["73.13.09.1002"],"pemetaan_wilayah":"terpetakan"},"geometry":{"type":"Point","coordinates":[120.058652,-3.980365]}},{"type":"Feature","properties":{"FID":19,"OBJECTID":20,"NAMOBJ":"Jaringan Bergerak Seluler","STSJRN":2,"WADMPR":"Provinsi Sulawesi Selatan","WADMKK":"Kabupaten Wajo","REMARK":"Menara Base Transciever Station (BTS)","SBDATA":"PT. Telkom Kabupaten Wajo, 2022","wilayah_kecamatan_kode":["73.13.13"],"wilayah_desa_kode":["73.13.13.2005"],"pemetaan_wilayah":"terpetakan"},"geometry":{"type":"Point","coordinates":[120.121965,-3.947699]}},{"type":"Feature","properties":{"FID":20,"OBJECTID":21,"NAMOBJ":"Jaringan Bergerak Seluler","STSJRN":2,"WADMPR":"Provinsi Sulawesi Selatan","WADMKK":"Kabupaten Wajo","REMARK":"Menara Base Transciever Station (BTS)","SBDATA":"PT. Telkom Kabupaten Wajo, 2022","wilayah_kecamatan_kode":["73.13.09"],"wilayah_desa_kode":["73.13.09.2004"],"pemetaan_wilayah":"terpetakan"},"geometry":{"type":"Point","coordinates":[120.068111,-3.948085]}},{"type":"Feature","properties":{"FID":21,"OBJECTID":22,"NAMOBJ":"Jaringan Bergerak Seluler","STSJRN":2,"WADMPR":"Provinsi Sulawesi Selatan","WADMKK":"Kabupaten Wajo","REMARK":"Menara Base Transciever Station (BTS)","SBDATA":"PT. Telkom Kabupaten Wajo, 2022","wilayah_kecamatan_kode":["73.13.13"],"wilayah_desa_kode":["73.13.13.2005"],"pemetaan_wilayah":"terpetakan"},"geometry":{"type":"Point","coordinates":[120.115641,-3.947395]}},{"type":"Feature","properties":{"FID":22,"OBJECTID":23,"NAMOBJ":"Jaringan Bergerak Seluler","STSJRN":2,"WADMPR":"Provinsi Sulawesi Selatan","WADMKK":"Kabupaten Wajo","REMARK":"Menara Base Transciever Station (BTS)","SBDATA":"PT. Telkom Kabupaten Wajo, 2022","wilayah_kecamatan_kode":["73.13.13"],"wilayah_desa_kode":["73.13.13.2005"],"pemetaan_wilayah":"terpetakan"},"geometry":{"type":"Point","coordinates":[120.110655,-3.94726]}},{"type":"Feature","properties":{"FID":23,"OBJECTID":24,"NAMOBJ":"Jaringan Bergerak Seluler","STSJRN":2,"WADMPR":"Provinsi Sulawesi Selatan","WADMKK":"Kabupaten Wajo","REMARK":"Menara Base Transciever Station (BTS)","SBDATA":"PT. Telkom Kabupaten Wajo, 2022","wilayah_kecamatan_kode":["73.13.04"],"wilayah_desa_kode":["73.13.04.1001"],"pemetaan_wilayah":"terpetakan"},"geometry":{"type":"Point","coordinates":[120.328443,-4.039204]}},{"type":"Feature","properties":{"FID":24,"OBJECTID":25,"NAMOBJ":"Jaringan Bergerak Seluler","STSJRN":2,"WADMPR":"Provinsi Sulawesi Selatan","WADMKK":"Kabupaten Wajo","REMARK":"Menara Base Transciever Station (BTS)","SBDATA":"PT. Telkom Kabupaten Wajo, 2022","wilayah_kecamatan_kode":["73.13.12"],"wilayah_desa_kode":["73.13.12.2006"],"pemetaan_wilayah":"terpetakan"},"geometry":{"type":"Point","coordinates":[120.290893,-4.10897]}},{"type":"Feature","properties":{"FID":25,"OBJECTID":26,"NAMOBJ":"Jaringan Bergerak Seluler","STSJRN":2,"WADMPR":"Provinsi Sulawesi Selatan","WADMKK":"Kabupaten Wajo","REMARK":"Menara Base Transciever Station (BTS)","SBDATA":"PT. Telkom Kabupaten Wajo, 2022","wilayah_kecamatan_kode":["73.13.12"],"wilayah_desa_kode":["73.13.12.2010"],"pemetaan_wilayah":"terpetakan"},"geometry":{"type":"Point","coordinates":[120.303326,-4.068048]}},{"type":"Feature","properties":{"FID":26,"OBJECTID":27,"NAMOBJ":"Jaringan Bergerak Seluler","STSJRN":2,"WADMPR":"Provinsi Sulawesi Selatan","WADMKK":"Kabupaten Wajo","REMARK":"Menara Base Transciever Station (BTS)","SBDATA":"PT. Telkom Kabupaten Wajo, 2022","wilayah_kecamatan_kode":["73.13.03"],"wilayah_desa_kode":["73.13.03.2012"],"pemetaan_wilayah":"terpetakan"},"geometry":{"type":"Point","coordinates":[120.292178,-4.119381]}},{"type":"Feature","properties":{"FID":27,"OBJECTID":28,"NAMOBJ":"Jaringan Bergerak Seluler","STSJRN":2,"WADMPR":"Provinsi Sulawesi Selatan","WADMKK":"Kabupaten Wajo","REMARK":"Menara Base Transciever Station (BTS)","SBDATA":"PT. Telkom Kabupaten Wajo, 2022","wilayah_kecamatan_kode":["73.13.12"],"wilayah_desa_kode":["73.13.12.1001"],"pemetaan_wilayah":"terpetakan"},"geometry":{"type":"Point","coordinates":[120.286662,-4.081946]}},{"type":"Feature","properties":{"FID":28,"OBJECTID":29,"NAMOBJ":"Jaringan Bergerak Seluler","STSJRN":2,"WADMPR":"Provinsi Sulawesi Selatan","WADMKK":"Kabupaten Wajo","REMARK":"Menara Base Transciever Station (BTS)","SBDATA":"PT. Telkom Kabupaten Wajo, 2022","wilayah_kecamatan_kode":["73.13.04"],"wilayah_desa_kode":["73.13.04.1003"],"pemetaan_wilayah":"terpetakan"},"geometry":{"type":"Point","coordinates":[120.313585,-4.000546]}},{"type":"Feature","properties":{"FID":29,"OBJECTID":30,"NAMOBJ":"Jaringan Bergerak Seluler","STSJRN":2,"WADMPR":"Provinsi Sulawesi Selatan","WADMKK":"Kabupaten Wajo","REMARK":"Menara Base Transciever Station (BTS)","SBDATA":"PT. Telkom Kabupaten Wajo, 2022","wilayah_kecamatan_kode":["73.13.11"],"wilayah_desa_kode":["73.13.11.2009"],"pemetaan_wilayah":"terpetakan"},"geometry":{"type":"Point","coordinates":[120.312219,-4.218848]}},{"type":"Feature","properties":{"FID":30,"OBJECTID":31,"NAMOBJ":"Jaringan Bergerak Seluler","STSJRN":2,"WADMPR":"Provinsi Sulawesi Selatan","WADMKK":"Kabupaten Wajo","REMARK":"Menara Base Transciever Station (BTS)","SBDATA":"PT. Telkom Kabupaten Wajo, 2022","wilayah_kecamatan_kode":["73.13.03"],"wilayah_desa_kode":["73.13.03.1001"],"pemetaan_wilayah":"terpetakan"},"geometry":{"type":"Point","coordinates":[120.274562,-4.153142]}},{"type":"Feature","properties":{"FID":31,"OBJECTID":32,"NAMOBJ":"Jaringan Bergerak Seluler","STSJRN":2,"WADMPR":"Provinsi Sulawesi Selatan","WADMKK":"Kabupaten Wajo","REMARK":"Menara Base Transciever Station (BTS)","SBDATA":"PT. Telkom Kabupaten Wajo, 2022","wilayah_kecamatan_kode":["73.13.03"],"wilayah_desa_kode":["73.13.03.1001"],"pemetaan_wilayah":"terpetakan"},"geometry":{"type":"Point","coordinates":[120.26742,-4.148303]}},{"type":"Feature","properties":{"FID":32,"OBJECTID":33,"NAMOBJ":"Jaringan Bergerak Seluler","STSJRN":2,"WADMPR":"Provinsi Sulawesi Selatan","WADMKK":"Kabupaten Wajo","REMARK":"Menara Base Transciever Station (BTS)","SBDATA":"PT. Telkom Kabupaten Wajo, 2022","wilayah_kecamatan_kode":["73.13.03"],"wilayah_desa_kode":["73.13.03.2004"],"pemetaan_wilayah":"terpetakan"},"geometry":{"type":"Point","coordinates":[120.284435,-4.177457]}},{"type":"Feature","properties":{"FID":33,"OBJECTID":34,"NAMOBJ":"Jaringan Bergerak Seluler","STSJRN":2,"WADMPR":"Provinsi Sulawesi Selatan","WADMKK":"Kabupaten Wajo","REMARK":"Menara Base Transciever Station (BTS)","SBDATA":"PT. Telkom Kabupaten Wajo, 2022","wilayah_kecamatan_kode":["73.13.05"],"wilayah_desa_kode":["73.13.05.2007"],"pemetaan_wilayah":"terpetakan"},"geometry":{"type":"Point","coordinates":[120.177993,-4.021246]}},{"type":"Feature","properties":{"FID":34,"OBJECTID":35,"NAMOBJ":"Jaringan Bergerak Seluler","STSJRN":2,"WADMPR":"Provinsi Sulawesi Selatan","WADMKK":"Kabupaten Wajo","REMARK":"Menara Base Transciever Station (BTS)","SBDATA":"PT. Telkom Kabupaten Wajo, 2022","wilayah_kecamatan_kode":["73.13.05"],"wilayah_desa_kode":["73.13.05.1004"],"pemetaan_wilayah":"terpetakan"},"geometry":{"type":"Point","coordinates":[120.135476,-4.023952]}},{"type":"Feature","properties":{"FID":35,"OBJECTID":36,"NAMOBJ":"Jaringan Bergerak Seluler","STSJRN":2,"WADMPR":"Provinsi Sulawesi Selatan","WADMKK":"Kabupaten Wajo","REMARK":"Menara Base Transciever Station (BTS)","SBDATA":"PT. Telkom Kabupaten Wajo, 2022","wilayah_kecamatan_kode":["73.13.05"],"wilayah_desa_kode":["73.13.05.2011"],"pemetaan_wilayah":"terpetakan"},"geometry":{"type":"Point","coordinates":[120.215929,-4.038998]}},{"type":"Feature","properties":{"FID":36,"OBJECTID":37,"NAMOBJ":"Jaringan Bergerak Seluler","STSJRN":2,"WADMPR":"Provinsi Sulawesi Selatan","WADMKK":"Kabupaten Wajo","REMARK":"Menara Base Transciever Station (BTS)","SBDATA":"PT. Telkom Kabupaten Wajo, 2022","wilayah_kecamatan_kode":["73.13.05"],"wilayah_desa_kode":["73.13.05.1001"],"pemetaan_wilayah":"terpetakan"},"geometry":{"type":"Point","coordinates":[120.152014,-4.021103]}},{"type":"Feature","properties":{"FID":37,"OBJECTID":38,"NAMOBJ":"Jaringan Bergerak Seluler","STSJRN":2,"WADMPR":"Provinsi Sulawesi Selatan","WADMKK":"Kabupaten Wajo","REMARK":"Menara Base Transciever Station (BTS)","SBDATA":"PT. Telkom Kabupaten Wajo, 2022","wilayah_kecamatan_kode":["73.13.03"],"wilayah_desa_kode":["73.13.03.2011"],"pemetaan_wilayah":"terpetakan"},"geometry":{"type":"Point","coordinates":[120.208644,-4.122867]}},{"type":"Feature","properties":{"FID":38,"OBJECTID":39,"NAMOBJ":"Jaringan Bergerak Seluler","STSJRN":2,"WADMPR":"Provinsi Sulawesi Selatan","WADMKK":"Kabupaten Wajo","REMARK":"Menara Base Transciever Station (BTS)","SBDATA":"PT. Telkom Kabupaten Wajo, 2022","wilayah_kecamatan_kode":["73.13.08"],"wilayah_desa_kode":["73.13.08.2006"],"pemetaan_wilayah":"terpetakan"},"geometry":{"type":"Point","coordinates":[120.006657,-4.017169]}},{"type":"Feature","properties":{"FID":39,"OBJECTID":40,"NAMOBJ":"Jaringan Bergerak Seluler","STSJRN":2,"WADMPR":"Provinsi Sulawesi Selatan","WADMKK":"Kabupaten Wajo","REMARK":"Menara Base Transciever Station (BTS)","SBDATA":"PT. Telkom Kabupaten Wajo, 2022","wilayah_kecamatan_kode":["73.13.11"],"wilayah_desa_kode":["73.13.11.2003"],"pemetaan_wilayah":"terpetakan"},"geometry":{"type":"Point","coordinates":[120.233464,-4.233666]}},{"type":"Feature","properties":{"FID":40,"OBJECTID":41,"NAMOBJ":"Jaringan Bergerak Seluler","STSJRN":2,"WADMPR":"Provinsi Sulawesi Selatan","WADMKK":"Kabupaten Wajo","REMARK":"Menara Base Transciever Station (BTS)","SBDATA":"PT. Telkom Kabupaten Wajo, 2022","wilayah_kecamatan_kode":["73.13.11"],"wilayah_desa_kode":["73.13.11.2003"],"pemetaan_wilayah":"terpetakan"},"geometry":{"type":"Point","coordinates":[120.222783,-4.192769]}},{"type":"Feature","properties":{"FID":41,"OBJECTID":42,"NAMOBJ":"Jaringan Bergerak Seluler","STSJRN":2,"WADMPR":"Provinsi Sulawesi Selatan","WADMKK":"Kabupaten Wajo","REMARK":"Menara Base Transciever Station (BTS)","SBDATA":"PT. Telkom Kabupaten Wajo, 2022","wilayah_kecamatan_kode":["73.13.01"],"wilayah_desa_kode":["73.13.01.1002"],"pemetaan_wilayah":"terpetakan"},"geometry":{"type":"Point","coordinates":[120.01114,-4.222441]}},{"type":"Feature","properties":{"FID":42,"OBJECTID":43,"NAMOBJ":"Jaringan Bergerak Seluler","STSJRN":2,"WADMPR":"Provinsi Sulawesi Selatan","WADMKK":"Kabupaten Wajo","REMARK":"Menara Base Transciever Station (BTS)","SBDATA":"PT. Telkom Kabupaten Wajo, 2022","wilayah_kecamatan_kode":["73.13.06"],"wilayah_desa_kode":["73.13.06.1002"],"pemetaan_wilayah":"terpetakan"},"geometry":{"type":"Point","coordinates":[120.05257,-4.12542]}},{"type":"Feature","properties":{"FID":43,"OBJECTID":44,"NAMOBJ":"Jaringan Bergerak Seluler","STSJRN":2,"WADMPR":"Provinsi Sulawesi Selatan","WADMKK":"Kabupaten Wajo","REMARK":"Menara Base Transciever Station (BTS)","SBDATA":"PT. Telkom Kabupaten Wajo, 2022","wilayah_kecamatan_kode":["73.13.06"],"wilayah_desa_kode":["73.13.06.1001"],"pemetaan_wilayah":"terpetakan"},"geometry":{"type":"Point","coordinates":[120.035296,-4.139389]}},{"type":"Feature","properties":{"FID":44,"OBJECTID":45,"NAMOBJ":"Jaringan Bergerak Seluler","STSJRN":2,"WADMPR":"Provinsi Sulawesi Selatan","WADMKK":"Kabupaten Wajo","REMARK":"Menara Base Transciever Station (BTS)","SBDATA":"PT. Telkom Kabupaten Wajo, 2022","wilayah_kecamatan_kode":["73.13.10"],"wilayah_desa_kode":["73.13.10.1001"],"pemetaan_wilayah":"terpetakan"},"geometry":{"type":"Point","coordinates":[120.403767,-3.719249]}},{"type":"Feature","properties":{"FID":45,"OBJECTID":46,"NAMOBJ":"Jaringan Bergerak Seluler","STSJRN":2,"WADMPR":"Provinsi Sulawesi Selatan","WADMKK":"Kabupaten Wajo","REMARK":"Menara Base Transciever Station (BTS)","SBDATA":"PT. Telkom Kabupaten Wajo, 2022","wilayah_kecamatan_kode":["73.13.14"],"wilayah_desa_kode":["73.13.14.2009"],"pemetaan_wilayah":"terpetakan"},"geometry":{"type":"Point","coordinates":[120.331973,-3.795953]}},{"type":"Feature","properties":{"FID":46,"OBJECTID":47,"NAMOBJ":"Jaringan Bergerak Seluler","STSJRN":2,"WADMPR":"Provinsi Sulawesi Selatan","WADMKK":"Kabupaten Wajo","REMARK":"Menara Base Transciever Station (BTS)","SBDATA":"PT. Telkom Kabupaten Wajo, 2022","wilayah_kecamatan_kode":["73.13.08"],"wilayah_desa_kode":["73.13.08.2018"],"pemetaan_wilayah":"terpetakan"},"geometry":{"type":"Point","coordinates":[120.035655,-4.091506]}},{"type":"Feature","properties":{"FID":47,"OBJECTID":48,"NAMOBJ":"Jaringan Bergerak Seluler","STSJRN":2,"WADMPR":"Provinsi Sulawesi Selatan","WADMKK":"Kabupaten Wajo","REMARK":"Menara Base Transciever Station (BTS)","SBDATA":"PT. Telkom Kabupaten Wajo, 2022","wilayah_kecamatan_kode":["73.13.08"],"wilayah_desa_kode":["73.13.08.2011"],"pemetaan_wilayah":"terpetakan"},"geometry":{"type":"Point","coordinates":[120.103586,-4.034069]}},{"type":"Feature","properties":{"FID":48,"OBJECTID":49,"NAMOBJ":"Jaringan Bergerak Seluler","STSJRN":2,"WADMPR":"Provinsi Sulawesi Selatan","WADMKK":"Kabupaten Wajo","REMARK":"Menara Base Transciever Station (BTS)","SBDATA":"PT. Telkom Kabupaten Wajo, 2022","wilayah_kecamatan_kode":["73.13.04"],"wilayah_desa_kode":["73.13.04.1001"],"pemetaan_wilayah":"terpetakan"},"geometry":{"type":"Point","coordinates":[120.32264,-4.039114]}},{"type":"Feature","properties":{"FID":49,"OBJECTID":50,"NAMOBJ":"Jaringan Bergerak Seluler","STSJRN":2,"WADMPR":"Provinsi Sulawesi Selatan","WADMKK":"Kabupaten Wajo","REMARK":"Menara Base Transciever Station (BTS)","SBDATA":"PT. Telkom Kabupaten Wajo, 2022","wilayah_kecamatan_kode":["73.13.06"],"wilayah_desa_kode":["73.13.06.1016"],"pemetaan_wilayah":"terpetakan"},"geometry":{"type":"Point","coordinates":[120.033912,-4.126522]}},{"type":"Feature","properties":{"FID":50,"OBJECTID":51,"NAMOBJ":"Jaringan Bergerak Seluler","STSJRN":2,"WADMPR":"Provinsi Sulawesi Selatan","WADMKK":"Kabupaten Wajo","REMARK":"Menara Base Transciever Station (BTS)","SBDATA":"PT. Telkom Kabupaten Wajo, 2022","wilayah_kecamatan_kode":["73.13.06"],"wilayah_desa_kode":["73.13.06.1002"],"pemetaan_wilayah":"terpetakan"},"geometry":{"type":"Point","coordinates":[120.037362,-4.133896]}},{"type":"Feature","properties":{"FID":51,"OBJECTID":52,"NAMOBJ":"Jaringan Bergerak Seluler","STSJRN":2,"WADMPR":"Provinsi Sulawesi Selatan","WADMKK":"Kabupaten Wajo","REMARK":"Menara Base Transciever Station (BTS)","SBDATA":"PT. Telkom Kabupaten Wajo, 2022","wilayah_kecamatan_kode":["73.13.02"],"wilayah_desa_kode":["73.13.02.2003"],"pemetaan_wilayah":"terpetakan"},"geometry":{"type":"Point","coordinates":[120.037748,-4.180898]}},{"type":"Feature","properties":{"FID":52,"OBJECTID":53,"NAMOBJ":"Jaringan Bergerak Seluler","STSJRN":2,"WADMPR":"Provinsi Sulawesi Selatan","WADMKK":"Kabupaten Wajo","REMARK":"Menara Base Transciever Station (BTS)","SBDATA":"PT. Telkom Kabupaten Wajo, 2022","wilayah_kecamatan_kode":["73.13.01"],"wilayah_desa_kode":["73.13.01.1003"],"pemetaan_wilayah":"terpetakan"},"geometry":{"type":"Point","coordinates":[120.010727,-4.212989]}},{"type":"Feature","properties":{"FID":53,"OBJECTID":55,"NAMOBJ":"Jaringan Bergerak Seluler","STSJRN":2,"WADMPR":"Provinsi Sulawesi Selatan","WADMKK":"Kabupaten Wajo","REMARK":"Menara Base Transciever Station (BTS)","SBDATA":"PT. Telkom Kabupaten Wajo, 2022","wilayah_kecamatan_kode":["73.13.07"],"wilayah_desa_kode":["73.13.07.1003"],"pemetaan_wilayah":"terpetakan"},"geometry":{"type":"Point","coordinates":[119.936176,-4.002616]}},{"type":"Feature","properties":{"FID":54,"OBJECTID":56,"NAMOBJ":"Jaringan Bergerak Seluler","STSJRN":2,"WADMPR":"Provinsi Sulawesi Selatan","WADMKK":"Kabupaten Wajo","REMARK":"Menara Base Transciever Station (BTS)","SBDATA":"PT. Telkom Kabupaten Wajo, 2022","wilayah_kecamatan_kode":["73.13.07"],"wilayah_desa_kode":["73.13.07.1003"],"pemetaan_wilayah":"terpetakan"},"geometry":{"type":"Point","coordinates":[119.933211,-4.001988]}},{"type":"Feature","properties":{"FID":55,"OBJECTID":57,"NAMOBJ":"Jaringan Bergerak Seluler","STSJRN":2,"WADMPR":"Provinsi Sulawesi Selatan","WADMKK":"Kabupaten Wajo","REMARK":"Menara Base Transciever Station (BTS)","SBDATA":"PT. Telkom Kabupaten Wajo, 2022","wilayah_kecamatan_kode":["73.13.07"],"wilayah_desa_kode":["73.13.07.2004"],"pemetaan_wilayah":"terpetakan"},"geometry":{"type":"Point","coordinates":[119.942778,-3.954475]}},{"type":"Feature","properties":{"FID":56,"OBJECTID":58,"NAMOBJ":"Jaringan Bergerak Seluler","STSJRN":2,"WADMPR":"Provinsi Sulawesi Selatan","WADMKK":"Kabupaten Wajo","REMARK":"Menara Base Transciever Station (BTS)","SBDATA":"PT. Telkom Kabupaten Wajo, 2022","wilayah_kecamatan_kode":["73.13.07"],"wilayah_desa_kode":["73.13.07.2005"],"pemetaan_wilayah":"terpetakan"},"geometry":{"type":"Point","coordinates":[119.939823,-3.97902]}},{"type":"Feature","properties":{"FID":57,"OBJECTID":59,"NAMOBJ":"Infrastruktur Jaringan Tetap","STSJRN":2,"WADMPR":"Provinsi Sulawesi Selatan","WADMKK":"Kabupaten Wajo","REMARK":"Stasiun Telepon Otomat (STO)","SBDATA":"PT. Telkom Kabupaten Wajo, 2022","wilayah_kecamatan_kode":["73.13.06"],"wilayah_desa_kode":["73.13.06.1016"],"pemetaan_wilayah":"terpetakan"},"geometry":{"type":"Point","coordinates":[120.034083,-4.1268]}}]}
