{"type":"FeatureCollection","name":"Sistem_Infrastruktur_Energi","features":[{"type":"Feature","properties":{"FID":0,"OBJECTID":1,"NAMOBJ":"Infrastruktur Minyak dan Gas Bumi","STSJRN":2,"WADMPR":"Provinsi Sulawesi Selatan","WADMKK":"Kabupaten Wajo","REMARK":"Kilang Gas Wajo","SBDATA":"Dinas ESDM Provinsi Sulawesi Selatan, 2022"},"geometry":{"type":"Point","coordinates":[120.167573,-3.955102]}},{"type":"Feature","properties":{"FID":1,"OBJECTID":2,"NAMOBJ":"Infrastruktur Minyak dan Gas Bumi","STSJRN":2,"WADMPR":"Provinsi Sulawesi Selatan","WADMKK":"Kabupaten Wajo","REMARK":"Depot LNG Langkenna","SBDATA":"Dinas ESDM Provinsi Sulawesi Selatan, 2022"},"geometry":{"type":"Point","coordinates":[120.343436,-3.908786]}},{"type":"Feature","properties":{"FID":2,"OBJECTID":3,"NAMOBJ":"Pembangkit Listrik Tenaga Gas (PLTG)","STSJRN":2,"WADMPR":"Provinsi Sulawesi Selatan","WADMKK":"Kabupaten Wajo","REMARK":"Pembangkit Listrik Tenaga Gas (PLTG) Sengkang","SBDATA":"RUPTL 2021-2030"},"geometry":{"type":"Point","coordinates":[120.074588,-4.175621]}},{"type":"Feature","properties":{"FID":3,"OBJECTID":4,"NAMOBJ":"Pembangkit Listrik Lainnya","STSJRN":2,"WADMPR":"Provinsi Sulawesi Selatan","WADMKK":"Kabupaten Wajo","REMARK":"Pembangkit Listrik Tenaga Gas Uap (PLTGU) Sengkang","SBDATA":"RUPTL 2021-2030"},"geometry":{"type":"Point","coordinates":[120.072504,-4.175818]}},{"type":"Feature","properties":{"FID":4,"OBJECTID":5,"NAMOBJ":"Gardu Listrik","STSJRN":2,"WADMPR":"Provinsi Sulawesi Selatan","WADMKK":"Kabupaten Wajo","REMARK":"GI Sengkang","SBDATA":"RUPTL 2021-2030"},"geometry":{"type":"Point","coordinates":[120.073259,-4.176006]}},{"type":"Feature","properties":{"FID":5,"OBJECTID":6,"NAMOBJ":"Gardu Listrik","STSJRN":1,"WADMPR":"Provinsi Sulawesi Selatan","WADMKK":"Kabupaten Wajo","REMARK":"GI Keera","SBDATA":"RUPTL 2021-2030"},"geometry":{"type":"Point","coordinates":[120.339483,-3.910157]}},{"type":"Feature","properties":{"FID":6,"OBJECTID":7,"NAMOBJ":"Pembangkit Listrik Lainnya","STSJRN":1,"WADMPR":"Provinsi Sulawesi Selatan","WADMKK":"Kabupaten Wajo","REMARK":"PLTU/GU Makassar","SBDATA":"RUPTL 2021-2030"},"geometry":{"type":"Point","coordinates":[120.07024,-4.176463]}},{"type":"Feature","properties":{"FID":7,"OBJECTID":8,"NAMOBJ":"Gardu Listrik","STSJRN":2,"WADMPR":"Provinsi Sulawesi Selatan","WADMKK":"Kabupaten Wajo","REMARK":"GI Siwa","SBDATA":"RUPTL 2021-2030"},"geometry":{"type":"Point","coordinates":[120.386905,-3.717044]}}]}